{"type":"FeatureCollection","features":[{"id":"1650","type":"Feature","properties":{"COD_IBGE":"2700102","MUNICIPIO":"Água Branca","UF":"AL"},"geometry":{"type":"Polygon","coordinates":[[[-37.867682599999966,-9.405853799999932],[-38.000237399999946,-9.336117499999943],[-37.983256799999936,-9.330086599999959],[-37.97548909999995,-9.298480499999926],[-37.98244979999998,-9.283385199999941],[-37.95962479999997,-9.241052999999965],[-37.98819709999998,-9.233464699999956],[-37.97145279999995,-9.215972199999953],[-37.973103899999956,-9.195570699999962],[-37.98714949999993,-9.187698199999943],[-37.98324719999994,-9.177941699999963],[-38.00205009999996,-9.170746999999949],[-38.012107199999946,-9.156043099999977],[-37.97856289999993,-9.147661999999968],[-37.97120019999994,-9.124341799999968],[-37.94671509999995,-9.094771699999967],[-37.768132099999946,-9.291073199999971],[-37.77704049999994,-9.324315699999943],[-37.81819819999998,-9.335034299999961],[-37.84977479999998,-9.39083439999996],[-37.867682599999966,-9.405853799999932]]]}},{"id":"1651","type":"Feature","properties":{"COD_IBGE":"2700201","MUNICIPIO":"Anadia","UF":"AL"},"geometry":{"type":"Polygon","coordinates":[[[-36.23946429999995,-9.67476929999998],[-36.25321669999994,-9.729719399999965],[-36.28006359999995,-9.73438619999996],[-36.31907179999996,-9.722672799999941],[-36.32844329999995,-9.704373199999964],[-36.34343619999993,-9.73820859999995],[-36.343138599999975,-9.71321469999998],[-36.37071499999996,-9.697944199999938],[-36.378980499999955,-9.658631999999955],[-36.39416479999994,-9.648367599999972],[-36.38082919999994,-9.635367199999962],[-36.38860699999998,-9.628772899999944],[-36.392104899999936,-9.602904899999942],[-36.35039749999993,-9.592273999999975],[-36.34423669999995,-9.598448899999937],[-36.35133609999997,-9.606944399999975],[-36.31648409999997,-9.612819799999954],[-36.29369159999993,-9.60133019999995],[-36.254810299999974,-9.62146649999994],[-36.23946429999995,-9.67476929999998]]]}},{"id":"1652","type":"Feature","properties":{"COD_IBGE":"2700300","MUNICIPIO":"Arapiraca","UF":"AL"},"geometry":{"type":"Polygon","coordinates":[[[-36.62540809999996,-9.836931999999933],[-36.69384869999993,-9.802659799999958],[-36.75446569999997,-9.707373599999926],[-36.711874799999975,-9.663327799999934],[-36.68698559999996,-9.652107999999942],[-36.68607149999997,-9.635447599999964],[-36.65586629999996,-9.643140899999935],[-36.63919219999997,-9.635959399999933],[-36.62363289999996,-9.655189099999973],[-36.609307899999976,-9.653687199999979],[-36.594843399999945,-9.692221299999972],[-36.570405999999934,-9.708813899999939],[-36.58366159999997,-9.714484199999958],[-36.572976799999935,-9.749516399999948],[-36.55191449999995,-9.771426599999927],[-36.56519489999994,-9.803573099999937],[-36.548600799999974,-9.80892069999993],[-36.555443999999966,-9.850929999999948],[-36.54154009999996,-9.88180479999994],[-36.56320789999995,-9.874284299999943],[-36.58876619999995,-9.87997219999994],[-36.60146439999994,-9.843656299999964],[-36.625593599999945,-9.852219499999933],[-36.62540809999996,-9.836931999999933]]]}},{"id":"1653","type":"Feature","properties":{"COD_IBGE":"2700409","MUNICIPIO":"Atalaia","UF":"AL"},"geometry":{"type":"Polygon","coordinates":[[[-35.93296749999996,-9.480629199999953],[-36.00568219999997,-9.58571829999994],[-36.01707369999997,-9.576273999999955],[-36.07235449999996,-9.598676099999977],[-36.12012359999994,-9.596166299999936],[-36.13841269999995,-9.61306989999997],[-36.15755009999998,-9.618731499999967],[-36.180924999999945,-9.61224999999996],[-36.21852219999994,-9.563191699999948],[-36.22684439999995,-9.514497199999937],[-36.208051299999966,-9.455437399999937],[-36.155780799999945,-9.472871999999938],[-36.13313919999996,-9.454169199999967],[-36.10208479999994,-9.453905199999951],[-36.016547799999955,-9.397321399999953],[-35.928848699999946,-9.374549399999978],[-35.93296749999996,-9.480629199999953]]]}},{"id":"1654","type":"Feature","properties":{"COD_IBGE":"2700508","MUNICIPIO":"Barra de Santo Antônio","UF":"AL"},"geometry":{"type":"Polygon","coordinates":[[[-35.492096999999944,-9.383530399999927],[-35.51276539999998,-9.439455299999963],[-35.52459179999994,-9.44262619999995],[-35.549502099999984,-9.403848699999969],[-35.62100449999997,-9.40986909999998],[-35.658034999999984,-9.40391509999995],[-35.67664999999994,-9.398583299999927],[-35.69054999999997,-9.370999999999981],[-35.561401699999976,-9.35823019999998],[-35.53604999999993,-9.346899999999948],[-35.51783329999995,-9.354999999999961],[-35.51322049999993,-9.34610809999998],[-35.52023729999996,-9.323709599999972],[-35.514399999999966,-9.314299999999946],[-35.47249119999998,-9.358033099999943],[-35.492096999999944,-9.383530399999927]]]}},{"id":"1655","type":"Feature","properties":{"COD_IBGE":"2700607","MUNICIPIO":"Barra de São Miguel","UF":"AL"},"geometry":{"type":"Polygon","coordinates":[[[-35.855254499999944,-9.788283799999931],[-35.90474009999997,-9.855853999999965],[-35.917881499999964,-9.838741999999968],[-35.95013069999993,-9.845207099999982],[-36.00571519999994,-9.811419799999953],[-36.02816349999995,-9.808955499999968],[-36.00456409999998,-9.76709429999994],[-35.99124429999995,-9.781827699999951],[-35.942020199999945,-9.787476999999967],[-35.90558919999995,-9.811886699999945],[-35.855254499999944,-9.788283799999931]]]}},{"id":"1656","type":"Feature","properties":{"COD_IBGE":"2700706","MUNICIPIO":"Batalha","UF":"AL"},"geometry":{"type":"Polygon","coordinates":[[[-37.12085829999995,-9.778309699999966],[-37.21901679999996,-9.71016069999996],[-37.21978759999996,-9.701700699999947],[-37.213711599999954,-9.693539399999963],[-37.19097599999998,-9.690391199999965],[-37.14448329999993,-9.600749999999948],[-37.046038899999985,-9.620136599999967],[-37.059655599999985,-9.682675399999937],[-36.99358059999997,-9.721383299999957],[-36.999780199999975,-9.728857999999946],[-36.99895959999998,-9.76363079999993],[-37.031868299999985,-9.787532099999964],[-37.036575099999936,-9.807081399999959],[-37.08101369999997,-9.808425399999976],[-37.09148619999996,-9.816229599999929],[-37.10163289999997,-9.80017429999998],[-37.116160399999956,-9.796206599999948],[-37.12085829999995,-9.778309699999966]]]}},{"id":"1657","type":"Feature","properties":{"COD_IBGE":"2700805","MUNICIPIO":"Belém","UF":"AL"},"geometry":{"type":"Polygon","coordinates":[[[-36.49524829999996,-9.60388329999995],[-36.53787859999994,-9.532891999999947],[-36.52643709999995,-9.528418999999928],[-36.51895519999994,-9.503528499999959],[-36.50090339999997,-9.49914119999994],[-36.48836389999997,-9.50219919999995],[-36.44678229999994,-9.605916699999966],[-36.46533339999996,-9.618339299999946],[-36.468989499999964,-9.606042399999978],[-36.49524829999996,-9.60388329999995]]]}},{"id":"1658","type":"Feature","properties":{"COD_IBGE":"2700904","MUNICIPIO":"Belo Monte","UF":"AL"},"geometry":{"type":"Polygon","coordinates":[[[-37.08101369999997,-9.808425399999976],[-37.040196599999945,-9.80729329999997],[-37.105478699999935,-9.847937499999944],[-37.10710009999997,-9.865312099999926],[-37.11830039999995,-9.873277499999972],[-37.11800779999993,-9.890021899999965],[-37.12547349999994,-9.892065399999979],[-37.13377989999998,-9.913765199999943],[-37.16356379999996,-9.893552199999931],[-37.18067339999993,-9.899416799999926],[-37.24110609999997,-9.895448899999963],[-37.26191269999998,-9.849138699999969],[-37.28521989999996,-9.830628899999965],[-37.29652149999998,-9.830581999999936],[-37.31018549999993,-9.803704699999969],[-37.288737699999956,-9.772233099999937],[-37.27735889999997,-9.77357619999998],[-37.25909229999996,-9.757326499999976],[-37.24995219999994,-9.737614099999973],[-37.23001599999998,-9.730086099999937],[-37.21901679999996,-9.71016069999996],[-37.12085829999995,-9.778309699999966],[-37.116160399999956,-9.796206599999948],[-37.10163289999997,-9.80017429999998],[-37.09148619999996,-9.816229599999929],[-37.08101369999997,-9.808425399999976]]]}},{"id":"1659","type":"Feature","properties":{"COD_IBGE":"2701001","MUNICIPIO":"Boca da Mata","UF":"AL"},"geometry":{"type":"Polygon","coordinates":[[[-36.13125549999995,-9.65140539999993],[-36.10474899999997,-9.638481499999955],[-36.09919759999997,-9.652347599999928],[-36.07857999999993,-9.667598399999974],[-36.07940089999994,-9.68028279999993],[-36.06858319999998,-9.689101899999969],[-36.07338889999994,-9.700833299999942],[-36.25321669999994,-9.729719399999965],[-36.23944299999994,-9.675330299999928],[-36.254810299999974,-9.62146649999994],[-36.249927799999966,-9.623330599999974],[-36.24004439999993,-9.593472199999951],[-36.19165559999993,-9.600149999999928],[-36.17694209999996,-9.621321399999943],[-36.15577469999994,-9.624918599999944],[-36.13125549999995,-9.65140539999993]]]}},{"id":"1660","type":"Feature","properties":{"COD_IBGE":"2701100","MUNICIPIO":"Branquinha","UF":"AL"},"geometry":{"type":"Polygon","coordinates":[[[-36.05903879999994,-9.215957099999969],[-35.888571999999954,-9.138308399999971],[-36.00243889999996,-9.265797199999952],[-36.04264999999998,-9.281013899999948],[-36.06507779999998,-9.273097199999938],[-36.06863329999993,-9.261011099999962],[-36.09350829999994,-9.264883299999951],[-36.200827799999956,-9.218758299999934],[-36.12747759999996,-9.20152429999996],[-36.11385759999996,-9.208110699999963],[-36.088034799999946,-9.201244999999972],[-36.065539799999954,-9.206700799999965],[-36.05903879999994,-9.215957099999969]]]}},{"id":"1661","type":"Feature","properties":{"COD_IBGE":"2701209","MUNICIPIO":"Cacimbinhas","UF":"AL"},"geometry":{"type":"Polygon","coordinates":[[[-37.02063139999996,-9.414278699999954],[-37.03971389999998,-9.417833299999927],[-37.024225799999954,-9.370913299999927],[-36.994159699999955,-9.374304199999926],[-36.97964039999994,-9.359328299999959],[-36.95546459999997,-9.381251099999929],[-36.93684989999997,-9.377425399999936],[-36.901422099999934,-9.397776799999974],[-36.82653639999995,-9.390959299999963],[-36.83289039999994,-9.408239899999955],[-36.82930679999998,-9.428061799999966],[-36.84577589999998,-9.442200399999933],[-36.84331059999994,-9.486536699999931],[-36.831144999999935,-9.501513799999941],[-36.84163389999998,-9.512393199999963],[-36.83151209999994,-9.52814589999997],[-36.85544259999995,-9.545514199999957],[-36.86750129999996,-9.545114399999932],[-36.87820209999995,-9.533797399999969],[-36.90664559999993,-9.527724599999942],[-36.97965679999993,-9.486126799999965],[-37.01913719999993,-9.435612099999958],[-37.02063139999996,-9.414278699999954]]]}},{"id":"1662","type":"Feature","properties":{"COD_IBGE":"2701308","MUNICIPIO":"Cajueiro","UF":"AL"},"geometry":{"type":"Polygon","coordinates":[[[-36.10829069999994,-9.320884999999976],[-36.155780799999945,-9.472871999999938],[-36.21113029999998,-9.452999999999975],[-36.155250799999976,-9.305067899999926],[-36.10829069999994,-9.320884999999976]]]}},{"id":"1663","type":"Feature","properties":{"COD_IBGE":"2701357","MUNICIPIO":"Campestre","UF":"AL"},"geometry":{"type":"Polygon","coordinates":[[[-35.55176319999998,-8.905261399999972],[-35.57934649999993,-8.91113409999997],[-35.58569659999995,-8.89166599999993],[-35.576575899999966,-8.865263899999945],[-35.58140789999993,-8.85643719999996],[-35.563678799999934,-8.831646299999932],[-35.539818699999955,-8.821086899999955],[-35.54825249999993,-8.844472399999972],[-35.53827949999993,-8.881570499999953],[-35.514394599999946,-8.881522999999959],[-35.499117499999954,-8.890890699999943],[-35.50212449999998,-8.935364599999957],[-35.49068859999994,-8.942362499999945],[-35.52493759999993,-8.947781899999939],[-35.53086529999996,-8.927639599999964],[-35.55176319999998,-8.905261399999972]]]}},{"id":"1664","type":"Feature","properties":{"COD_IBGE":"2701407","MUNICIPIO":"Campo Alegre","UF":"AL"},"geometry":{"type":"Polygon","coordinates":[[[-36.28089899999998,-9.934668699999975],[-36.27788259999994,-9.892295199999978],[-36.324571599999956,-9.878347399999939],[-36.33647129999997,-9.854494199999976],[-36.400963299999944,-9.783239699999967],[-36.37975669999997,-9.766788499999961],[-36.35959729999996,-9.769286699999952],[-36.35339099999993,-9.757784799999968],[-36.36153749999994,-9.752740499999959],[-36.34755929999994,-9.748970099999951],[-36.32844329999995,-9.704373199999964],[-36.31883949999997,-9.722778999999946],[-36.280232299999966,-9.734362999999973],[-36.244394899999975,-9.733412399999963],[-36.18479639999998,-9.795818099999963],[-36.20807819999993,-9.806150599999967],[-36.19774079999996,-9.837170599999979],[-36.21096639999996,-9.843848899999955],[-36.21963649999998,-9.836859699999934],[-36.23978869999996,-9.87175439999993],[-36.181777299999965,-9.879675899999938],[-36.17829709999995,-9.889277199999981],[-36.28089899999998,-9.934668699999975]]]}},{"id":"1665","type":"Feature","properties":{"COD_IBGE":"2701506","MUNICIPIO":"Campo Grande","UF":"AL"},"geometry":{"type":"Polygon","coordinates":[[[-36.71311989999998,-10.045727099999965],[-36.78758339999996,-10.022028499999976],[-36.786332999999956,-10.014932399999964],[-36.79930449999995,-10.005995799999937],[-36.809500999999955,-10.009805099999937],[-36.820194399999934,-10.002251299999955],[-36.83410619999995,-10.01283559999996],[-36.84330399999993,-10.008946299999934],[-36.810749699999974,-9.983528399999955],[-36.79441299999996,-9.955190499999958],[-36.79018559999997,-9.926120099999935],[-36.76060239999998,-9.900824799999953],[-36.75276139999994,-9.882616299999938],[-36.73445039999996,-9.887771999999927],[-36.72722739999995,-9.903685799999948],[-36.718927399999984,-9.899431799999945],[-36.70395599999995,-9.912472499999978],[-36.69269399999996,-9.91112469999996],[-36.687763899999936,-9.928834799999947],[-36.67314769999996,-9.937198599999931],[-36.70694049999997,-10.000592599999948],[-36.71311989999998,-10.045727099999965]]]}},{"id":"1666","type":"Feature","properties":{"COD_IBGE":"2701605","MUNICIPIO":"Canapi","UF":"AL"},"geometry":{"type":"Polygon","coordinates":[[[-37.418655799999954,-9.135870499999953],[-37.435227699999984,-9.18284099999994],[-37.475634799999966,-9.211017699999957],[-37.480075099999965,-9.223860599999966],[-37.51729279999995,-9.242242099999942],[-37.52783199999993,-9.258260699999937],[-37.54228559999996,-9.259242799999981],[-37.57110669999997,-9.282576399999925],[-37.592924799999935,-9.288373799999931],[-37.60544559999994,-9.279502399999956],[-37.60687439999998,-9.255558699999938],[-37.61832739999994,-9.246627399999966],[-37.60807049999994,-9.227539899999954],[-37.62188429999998,-9.193001999999979],[-37.68245829999995,-9.179038899999966],[-37.66322219999995,-9.159388899999954],[-37.65397219999994,-9.128524999999968],[-37.58301199999994,-9.060158199999933],[-37.51502999999997,-8.965476399999943],[-37.49650779999996,-8.971515899999929],[-37.493205399999965,-8.993359599999962],[-37.48397959999994,-8.988975799999935],[-37.460195099999964,-9.001143599999978],[-37.41650249999998,-9.006564099999935],[-37.39614039999998,-9.020112099999949],[-37.39477329999994,-9.042095299999971],[-37.41976109999996,-9.075844999999958],[-37.427211899999975,-9.103364899999974],[-37.418655799999954,-9.135870499999953]]]}},{"id":"1667","type":"Feature","properties":{"COD_IBGE":"2701704","MUNICIPIO":"Capela","UF":"AL"},"geometry":{"type":"Polygon","coordinates":[[[-36.155780799999945,-9.472871999999938],[-36.10829069999994,-9.320884999999976],[-36.15438469999998,-9.30535969999994],[-36.200827799999956,-9.218758299999934],[-36.09350829999994,-9.264883299999951],[-36.06863329999993,-9.261011099999962],[-36.06165559999994,-9.27566939999997],[-36.04491939999997,-9.277130599999964],[-36.057642699999974,-9.287272899999948],[-36.064978199999985,-9.281108999999958],[-36.040588199999945,-9.30824309999997],[-36.029260299999976,-9.308898599999964],[-36.05390189999997,-9.321307499999932],[-36.04219939999996,-9.339367699999968],[-35.99532099999993,-9.323807699999975],[-36.003402499999936,-9.332719299999951],[-36.003200299999946,-9.35740519999996],[-36.01481179999996,-9.360980899999959],[-35.996144399999935,-9.383604599999956],[-36.10208479999994,-9.453905199999951],[-36.13313919999996,-9.454169199999967],[-36.155780799999945,-9.472871999999938]]]}},{"id":"1668","type":"Feature","properties":{"COD_IBGE":"2701803","MUNICIPIO":"Carneiros","UF":"AL"},"geometry":{"type":"Polygon","coordinates":[[[-37.333744199999956,-9.415441399999963],[-37.26714439999995,-9.449674999999957],[-37.27331719999995,-9.46461439999996],[-37.27926389999993,-9.456469399999946],[-37.38029289999997,-9.502880799999957],[-37.37309769999996,-9.524782399999935],[-37.44692779999997,-9.47849999999994],[-37.43748889999995,-9.448338899999953],[-37.41433729999994,-9.439551599999959],[-37.333744199999956,-9.415441399999963]]]}},{"id":"1669","type":"Feature","properties":{"COD_IBGE":"2701902","MUNICIPIO":"Chã Preta","UF":"AL"},"geometry":{"type":"Polygon","coordinates":[[[-36.30979159999998,-9.172362799999974],[-36.293496999999945,-9.172584299999926],[-36.28819909999993,-9.183958899999936],[-36.200827799999956,-9.218758299999934],[-36.23677509999993,-9.291308499999957],[-36.29932689999998,-9.312392299999942],[-36.300995299999954,-9.302214999999933],[-36.32588919999995,-9.295922099999927],[-36.32505349999997,-9.274973299999942],[-36.337011899999936,-9.272461699999951],[-36.340570699999944,-9.240428699999939],[-36.35593269999998,-9.21838589999993],[-36.34888829999994,-9.214736899999934],[-36.35391649999997,-9.201193599999954],[-36.331849999999974,-9.203784199999973],[-36.30979159999998,-9.172362799999974]]]}},{"id":"1670","type":"Feature","properties":{"COD_IBGE":"2702009","MUNICIPIO":"Coité do Nóia","UF":"AL"},"geometry":{"type":"Polygon","coordinates":[[[-36.58843419999994,-9.574672799999973],[-36.57058529999995,-9.564188699999931],[-36.536105299999974,-9.66307519999998],[-36.58425589999996,-9.70045749999997],[-36.61000359999997,-9.665561899999943],[-36.60868949999997,-9.635845299999971],[-36.616618399999936,-9.626314699999966],[-36.62392449999993,-9.634183399999927],[-36.631121399999984,-9.630319499999928],[-36.61176539999997,-9.619267899999954],[-36.62511649999993,-9.602517899999953],[-36.623695399999974,-9.57997359999996],[-36.60221199999995,-9.575843999999961],[-36.60167249999995,-9.567504099999951],[-36.58843419999994,-9.574672799999973]]]}},{"id":"1671","type":"Feature","properties":{"COD_IBGE":"2702108","MUNICIPIO":"Colônia Leopoldina","UF":"AL"},"geometry":{"type":"Polygon","coordinates":[[[-35.70385829999998,-8.953402799999935],[-35.715822199999934,-9.01710559999998],[-35.83456669999998,-8.984288999999933],[-35.82297619999997,-8.857419099999959],[-35.80789569999996,-8.860387499999945],[-35.79620969999996,-8.847399699999926],[-35.77597999999995,-8.858457899999962],[-35.78298069999994,-8.897542099999953],[-35.74839899999995,-8.917151699999977],[-35.671204099999954,-8.896633999999949],[-35.65198329999998,-8.882263899999941],[-35.646358299999974,-8.902049999999974],[-35.65486389999995,-8.918402799999967],[-35.70385829999998,-8.953402799999935]]]}},{"id":"1672","type":"Feature","properties":{"COD_IBGE":"2702207","MUNICIPIO":"Coqueiro Seco","UF":"AL"},"geometry":{"type":"Polygon","coordinates":[[[-35.81313669999997,-9.655137099999934],[-35.864463599999965,-9.65483699999993],[-35.86764219999998,-9.626293999999973],[-35.844730099999936,-9.641057099999955],[-35.825451999999984,-9.639755299999933],[-35.80371109999993,-9.60642219999994],[-35.79237999999998,-9.601018199999942],[-35.76929019999994,-9.636381699999959],[-35.780242699999974,-9.666910799999926],[-35.795459799999946,-9.680336599999976],[-35.81313669999997,-9.655137099999934]]]}},{"id":"1673","type":"Feature","properties":{"COD_IBGE":"2702306","MUNICIPIO":"Coruripe","UF":"AL"},"geometry":{"type":"Polygon","coordinates":[[[-36.30466069999994,-10.031379699999945],[-36.28095049999996,-9.935050699999977],[-36.12391069999995,-9.933660399999951],[-36.082317099999955,-9.979687299999966],[-36.07399229999993,-10.003288399999974],[-36.05651179999995,-10.011823899999968],[-36.05135619999993,-10.029370399999948],[-36.056600499999945,-10.041935699999954],[-36.04187699999994,-10.05112829999996],[-36.03077209999998,-10.047045499999967],[-36.04571699999997,-10.07507929999997],[-36.090336899999954,-10.095927999999958],[-36.13487719999995,-10.160816199999942],[-36.15157579999993,-10.156359299999963],[-36.18550359999995,-10.19892249999998],[-36.259630899999934,-10.264053899999965],[-36.37132219999995,-10.230258299999946],[-36.37238619999994,-10.224267299999951],[-36.35344459999993,-10.215676199999962],[-36.35379789999996,-10.20266259999994],[-36.33677269999998,-10.174160399999948],[-36.36146739999998,-10.155240699999979],[-36.36204959999998,-10.121587699999964],[-36.37358249999994,-10.107596499999943],[-36.399712499999964,-10.101792399999965],[-36.39932859999993,-10.083681399999932],[-36.414296899999954,-10.083989199999962],[-36.41819359999994,-10.066396099999963],[-36.43483409999993,-10.073673299999939],[-36.44866119999995,-10.06018789999996],[-36.45273329999998,-10.04116799999997],[-36.30466069999994,-10.031379699999945]]]}},{"id":"1674","type":"Feature","properties":{"COD_IBGE":"2702355","MUNICIPIO":"Craíbas","UF":"AL"},"geometry":{"type":"Polygon","coordinates":[[[-36.75378249999994,-9.576487999999927],[-36.71572969999994,-9.588482899999974],[-36.69519159999993,-9.579147599999942],[-36.698419599999966,-9.599141499999973],[-36.680240099999935,-9.60211419999996],[-36.68698559999996,-9.652107999999942],[-36.711874799999975,-9.663327799999934],[-36.77459639999995,-9.729574299999967],[-36.81432209999997,-9.699263799999926],[-36.81700669999998,-9.686867099999972],[-36.86514779999993,-9.665233499999943],[-36.87457789999996,-9.646802499999978],[-36.90390069999995,-9.627510899999947],[-36.90458649999994,-9.616527099999928],[-36.88847049999998,-9.607371099999966],[-36.887229099999956,-9.59783699999997],[-36.849217299999964,-9.569617499999936],[-36.84210369999994,-9.573308599999962],[-36.831450899999936,-9.551934599999981],[-36.81269649999996,-9.564066599999933],[-36.78555599999993,-9.55021929999998],[-36.763921299999936,-9.55798509999994],[-36.75378249999994,-9.576487999999927]]]}},{"id":"1675","type":"Feature","properties":{"COD_IBGE":"2702405","MUNICIPIO":"Delmiro Gouveia","UF":"AL"},"geometry":{"type":"Polygon","coordinates":[[[-38.02842339999995,-9.467512399999976],[-38.06784619999996,-9.458502599999974],[-38.07970869999997,-9.440386799999942],[-38.10894239999993,-9.435621399999945],[-38.11811979999993,-9.442260699999963],[-38.14192809999997,-9.437762899999939],[-38.15494959999995,-9.443416099999979],[-38.177699899999936,-9.42538639999998],[-38.20476419999994,-9.418674299999964],[-38.194475599999976,-9.384934599999951],[-38.237589999999955,-9.329794499999934],[-38.203080599999964,-9.296901599999956],[-38.17955399999994,-9.291250199999979],[-38.157982699999934,-9.263829599999951],[-38.15637399999997,-9.250070199999925],[-37.872283299999935,-9.406633299999953],[-37.89437899999996,-9.448724399999946],[-37.89583509999994,-9.51135329999994],[-37.88848639999998,-9.530143299999963],[-37.91003519999998,-9.547149999999931],[-37.98933019999998,-9.52735869999998],[-38.00328989999997,-9.515029899999945],[-37.99794939999998,-9.499283299999945],[-38.00915109999994,-9.480964299999926],[-38.02842339999995,-9.467512399999976]]]}},{"id":"1676","type":"Feature","properties":{"COD_IBGE":"2702504","MUNICIPIO":"Dois Riachos","UF":"AL"},"geometry":{"type":"Polygon","coordinates":[[[-37.022639899999945,-9.369616999999948],[-37.03971389999998,-9.417833299999927],[-37.10457629999996,-9.460571899999934],[-37.11952789999998,-9.457499999999982],[-37.135972799999934,-9.408055699999977],[-37.10586289999998,-9.372834299999965],[-37.09122219999995,-9.327500899999961],[-37.060811899999976,-9.307858799999963],[-37.05758439999994,-9.31754019999994],[-37.054452599999934,-9.307132999999965],[-37.04552929999994,-9.315881799999943],[-37.02428979999996,-9.315714999999955],[-37.00336459999994,-9.352613499999961],[-36.97964039999994,-9.359328299999959],[-36.994159699999955,-9.374304199999926],[-37.022639899999945,-9.369616999999948]]]}},{"id":"1677","type":"Feature","properties":{"COD_IBGE":"2702553","MUNICIPIO":"Estrela de Alagoas","UF":"AL"},"geometry":{"type":"Polygon","coordinates":[[[-36.72366869999996,-9.396441699999968],[-36.71661339999997,-9.446031499999947],[-36.72125169999998,-9.468411099999969],[-36.70890399999996,-9.48483299999998],[-36.792838899999936,-9.486613899999952],[-36.83470159999996,-9.508988599999952],[-36.84577589999998,-9.442200399999933],[-36.82930679999998,-9.428061799999966],[-36.826882499999954,-9.39155809999994],[-36.79680529999996,-9.356472399999973],[-36.79683259999996,-9.280423199999973],[-36.76177249999995,-9.271456999999941],[-36.699747499999944,-9.293005799999946],[-36.71408889999998,-9.32032369999996],[-36.72146989999993,-9.35692599999993],[-36.71233109999997,-9.377881699999932],[-36.72366869999996,-9.396441699999968]]]}},{"id":"1678","type":"Feature","properties":{"COD_IBGE":"2702603","MUNICIPIO":"Feira Grande","UF":"AL"},"geometry":{"type":"Polygon","coordinates":[[[-36.67315229999997,-9.937194599999941],[-36.687763899999936,-9.928834799999947],[-36.69269399999996,-9.91112469999996],[-36.70395599999995,-9.912472499999978],[-36.718927399999984,-9.899431799999945],[-36.72722739999995,-9.903685799999948],[-36.73445039999996,-9.887771999999927],[-36.752684199999976,-9.882617599999946],[-36.74702279999997,-9.877446199999952],[-36.72193759999993,-9.881872999999928],[-36.73458939999995,-9.86754639999998],[-36.690749299999936,-9.804243499999927],[-36.62540809999996,-9.836931999999933],[-36.625593599999945,-9.852219499999933],[-36.60146439999994,-9.843656299999964],[-36.59130699999997,-9.871586999999977],[-36.604224199999976,-9.872649499999966],[-36.603411999999935,-9.90250709999998],[-36.61469109999996,-9.912093599999935],[-36.61352679999993,-9.951076599999965],[-36.63847509999994,-9.955376299999955],[-36.628305799999964,-9.965102699999932],[-36.633371599999975,-9.965675899999951],[-36.628935499999955,-9.980458299999952],[-36.645861699999955,-9.985274199999935],[-36.68695509999998,-9.965475599999934],[-36.67315229999997,-9.937194599999941]]]}},{"id":"1679","type":"Feature","properties":{"COD_IBGE":"2702702","MUNICIPIO":"Feliz Deserto","UF":"AL"},"geometry":{"type":"Polygon","coordinates":[[[-36.32011109999996,-10.343197999999973],[-36.39309719999994,-10.309813899999938],[-36.37629659999993,-10.292730399999925],[-36.39574969999995,-10.261468799999932],[-36.39330169999994,-10.240491099999929],[-36.37132219999995,-10.230258299999946],[-36.259630899999934,-10.264053899999965],[-36.29383759999996,-10.30461589999993],[-36.30138249999993,-10.34455639999993],[-36.32011109999996,-10.343197999999973]]]}},{"id":"1680","type":"Feature","properties":{"COD_IBGE":"2702801","MUNICIPIO":"Flexeiras","UF":"AL"},"geometry":{"type":"Polygon","coordinates":[[[-35.691808599999945,-9.280515599999944],[-35.68648449999995,-9.37056629999995],[-35.769605499999955,-9.389593399999967],[-35.76901699999996,-9.309006599999975],[-35.80454949999995,-9.266541999999959],[-35.83635099999998,-9.264542499999948],[-35.834536399999934,-9.235657299999957],[-35.888571999999954,-9.138308399999971],[-35.86565829999995,-9.138255899999933],[-35.84333479999998,-9.152408999999977],[-35.83140649999996,-9.147470399999975],[-35.80855669999994,-9.159726299999932],[-35.78450779999997,-9.154921199999933],[-35.725458999999944,-9.12360149999995],[-35.691808599999945,-9.280515599999944]]]}},{"id":"1681","type":"Feature","properties":{"COD_IBGE":"2702900","MUNICIPIO":"Girau do Ponciano","UF":"AL"},"geometry":{"type":"Polygon","coordinates":[[[-36.78193639999995,-9.912950299999977],[-36.79819139999995,-9.958062999999981],[-36.81408069999998,-9.958501799999965],[-36.846615499999984,-9.931309599999963],[-36.92517179999993,-9.889419999999973],[-36.94953749999996,-9.858637399999964],[-36.93412719999998,-9.842019899999968],[-36.93512279999993,-9.828467299999943],[-36.91724599999998,-9.816711699999928],[-36.90681639999997,-9.790919299999928],[-36.899127799999974,-9.791139699999974],[-36.90129189999993,-9.779004399999963],[-36.884575799999936,-9.750957099999937],[-36.969204859999934,-9.693987919999927],[-36.94130659999996,-9.627705599999956],[-36.90390069999995,-9.627510899999947],[-36.87457789999996,-9.646802499999978],[-36.86514779999993,-9.665233499999943],[-36.81700669999998,-9.686867099999972],[-36.81432209999997,-9.699263799999926],[-36.78945649999997,-9.712782299999958],[-36.74347119999993,-9.764040099999931],[-36.77036229999993,-9.79905059999993],[-36.75744079999998,-9.822090499999945],[-36.766139899999985,-9.852825099999961],[-36.74896529999995,-9.86620849999997],[-36.74702279999997,-9.877446199999952],[-36.76060239999998,-9.900824799999953],[-36.78193639999995,-9.912950299999977]]]}},{"id":"1682","type":"Feature","properties":{"COD_IBGE":"2703007","MUNICIPIO":"Ibateguara","UF":"AL"},"geometry":{"type":"Polygon","coordinates":[[[-35.953475399999945,-8.946618199999932],[-35.98836069999993,-8.90402469999998],[-35.96530249999995,-8.90314399999994],[-35.95946689999994,-8.892923999999937],[-35.92427599999996,-8.884627499999965],[-35.91107949999997,-8.861104699999942],[-35.90098839999996,-8.862411899999927],[-35.89523099999997,-8.854374999999948],[-35.88695199999995,-8.863068999999939],[-35.86386599999997,-8.857970199999954],[-35.849138799999935,-8.871812099999943],[-35.83705079999993,-8.868741599999964],[-35.830583899999965,-8.868486599999926],[-35.82738939999996,-8.869714299999941],[-35.826571799999954,-8.870417199999963],[-35.83456669999998,-8.984288999999933],[-35.860513399999945,-9.053490299999964],[-35.87899889999994,-9.054510599999958],[-35.88980229999993,-9.067818399999965],[-35.92584509999995,-9.032027399999947],[-35.95435349999997,-9.031813599999964],[-35.96146179999994,-8.996398499999941],[-35.95236829999993,-8.98842609999997],[-35.961598899999956,-8.959502199999974],[-35.953475399999945,-8.946618199999932]]]}},{"id":"1683","type":"Feature","properties":{"COD_IBGE":"2703106","MUNICIPIO":"Igaci","UF":"AL"},"geometry":{"type":"Polygon","coordinates":[[[-36.68607149999997,-9.635447599999964],[-36.680313199999944,-9.602023599999939],[-36.698419599999966,-9.599141499999973],[-36.69523009999995,-9.579119799999944],[-36.71572969999994,-9.588482899999974],[-36.752038099999936,-9.577499599999953],[-36.763921299999936,-9.55798509999994],[-36.78555599999993,-9.55021929999998],[-36.81269649999996,-9.564066599999933],[-36.828287899999964,-9.555382799999961],[-36.83861339999993,-9.541182599999956],[-36.831404299999974,-9.527520999999979],[-36.84138869999998,-9.511792499999956],[-36.792838899999936,-9.486613899999952],[-36.68756109999998,-9.484397199999933],[-36.63912779999998,-9.500724999999932],[-36.61556109999998,-9.482141699999943],[-36.57008609999997,-9.486072199999967],[-36.53322009999994,-9.530928099999926],[-36.555637399999966,-9.539327699999944],[-36.56571789999998,-9.559525999999948],[-36.583630899999946,-9.572904799999947],[-36.60131899999993,-9.567419799999925],[-36.60221199999995,-9.575843999999961],[-36.623695399999974,-9.57997359999996],[-36.62511649999993,-9.602517899999953],[-36.61176539999997,-9.619267899999954],[-36.631121399999984,-9.630319499999928],[-36.62392449999993,-9.634183399999927],[-36.61533549999996,-9.627028499999938],[-36.606398199999944,-9.653472399999941],[-36.62363289999996,-9.655189099999973],[-36.63919219999997,-9.635959399999933],[-36.65586629999996,-9.643140899999935],[-36.68607149999997,-9.635447599999964]]]}},{"id":"1684","type":"Feature","properties":{"COD_IBGE":"2703205","MUNICIPIO":"Igreja Nova","UF":"AL"},"geometry":{"type":"Polygon","coordinates":[[[-36.49145749999997,-10.071713599999953],[-36.522181699999976,-10.176614599999937],[-36.61378979999995,-10.199679699999933],[-36.660447999999974,-10.245586799999955],[-36.64378809999994,-10.24575699999997],[-36.65771019999994,-10.267912299999978],[-36.69146109999997,-10.271584399999938],[-36.72040379999993,-10.264911499999926],[-36.73078629999998,-10.161189599999943],[-36.744690899999966,-10.144900599999971],[-36.67652759999993,-10.123286099999973],[-36.66917449999994,-10.048685699999965],[-36.64880449999998,-10.025985599999956],[-36.644758399999944,-10.034415199999955],[-36.51092799999998,-10.042209699999944],[-36.50673169999993,-10.066048599999931],[-36.49145749999997,-10.071713599999953]]]}},{"id":"1685","type":"Feature","properties":{"COD_IBGE":"2703304","MUNICIPIO":"Inhapi","UF":"AL"},"geometry":{"type":"Polygon","coordinates":[[[-37.65415799999994,-9.408797899999968],[-37.832089199999984,-9.219236299999977],[-37.79196419999994,-9.193801399999927],[-37.74364639999993,-9.196701899999937],[-37.731469999999945,-9.183755099999928],[-37.68245829999995,-9.179038899999966],[-37.62188429999998,-9.193001999999979],[-37.60807049999994,-9.227539899999954],[-37.61836269999998,-9.23981539999994],[-37.606686399999944,-9.25616569999994],[-37.608828899999935,-9.273112399999945],[-37.58609659999996,-9.291987099999972],[-37.61662759999996,-9.355768999999952],[-37.65415799999994,-9.408797899999968]]]}},{"id":"1686","type":"Feature","properties":{"COD_IBGE":"2703403","MUNICIPIO":"Jacaré dos Homens","UF":"AL"},"geometry":{"type":"Polygon","coordinates":[[[-37.236098599999934,-9.60542739999994],[-37.25929679999996,-9.572319799999946],[-37.160247599999934,-9.603151899999943],[-37.15254999999996,-9.613413999999977],[-37.19097599999998,-9.690391199999965],[-37.213711599999954,-9.693539399999963],[-37.221648699999946,-9.720801999999935],[-37.23934399999996,-9.736349099999927],[-37.28839869999996,-9.68655089999993],[-37.30305739999994,-9.636027699999943],[-37.25258299999996,-9.632841499999927],[-37.236098599999934,-9.60542739999994]]]}},{"id":"1687","type":"Feature","properties":{"COD_IBGE":"2703502","MUNICIPIO":"Jacuípe","UF":"AL"},"geometry":{"type":"Polygon","coordinates":[[[-35.42188049999993,-8.92068949999998],[-35.45386039999994,-8.949939699999959],[-35.50054549999993,-8.937857299999962],[-35.503768099999945,-8.917114599999934],[-35.495712399999945,-8.895742799999937],[-35.514394599999946,-8.881522999999959],[-35.537711599999966,-8.882812899999976],[-35.54825249999993,-8.844472399999972],[-35.53981679999998,-8.821081799999945],[-35.53144529999997,-8.828270499999974],[-35.51152019999995,-8.817534999999964],[-35.495753699999966,-8.828302299999962],[-35.48212339999998,-8.826152199999967],[-35.47012469999993,-8.813126699999941],[-35.455818299999976,-8.840958899999976],[-35.411225599999966,-8.836230999999941],[-35.399991599999964,-8.850312799999926],[-35.35075469999998,-8.860712899999953],[-35.341881599999965,-8.874592399999926],[-35.35958449999998,-8.884886299999948],[-35.37207299999994,-8.91237039999993],[-35.36639599999995,-8.94339199999996],[-35.37837949999994,-8.968502599999965],[-35.42188049999993,-8.92068949999998]]]}},{"id":"1688","type":"Feature","properties":{"COD_IBGE":"2703601","MUNICIPIO":"Japaratinga","UF":"AL"},"geometry":{"type":"Polygon","coordinates":[[[-35.24075129999994,-9.06538489999997],[-35.27018289999995,-9.12249369999995],[-35.284484299999974,-9.131592399999931],[-35.28869049999997,-9.156360199999938],[-35.29507529999995,-9.155533899999966],[-35.29209489999994,-9.14592639999995],[-35.312504099999956,-9.14698459999994],[-35.30110999999994,-9.13653439999996],[-35.32731119999994,-9.117822499999932],[-35.33850979999994,-9.073812799999928],[-35.33590859999998,-9.031871599999931],[-35.28726389999997,-9.033985399999949],[-35.26098689999998,-9.06885399999993],[-35.25159529999996,-9.073205799999926],[-35.24075129999994,-9.06538489999997]]]}},{"id":"1689","type":"Feature","properties":{"COD_IBGE":"2703700","MUNICIPIO":"Jaramataia","UF":"AL"},"geometry":{"type":"Polygon","coordinates":[[[-36.942619899999954,-9.628626099999963],[-36.96919159999993,-9.694625499999972],[-36.97694349999995,-9.693867999999952],[-36.99297819999998,-9.721235499999977],[-37.059655599999985,-9.682675399999937],[-37.046038899999985,-9.620136599999967],[-37.001333099999954,-9.629832799999974],[-36.88738349999994,-9.599207899999953],[-36.90458649999994,-9.616527099999928],[-36.90226269999994,-9.626834199999962],[-36.942619899999954,-9.628626099999963]]]}},{"id":"1690","type":"Feature","properties":{"COD_IBGE":"2703759","MUNICIPIO":"Jequiá da Praia","UF":"AL"},"geometry":{"type":"Polygon","coordinates":[[[-36.03077209999998,-10.047045499999967],[-36.04187699999994,-10.05112829999996],[-36.056600499999945,-10.041935699999954],[-36.05135619999993,-10.029370399999948],[-36.05651179999995,-10.011823899999968],[-36.07399229999993,-10.003288399999974],[-36.082317099999955,-9.979687299999966],[-36.12169039999998,-9.934620999999936],[-36.28095049999996,-9.935050699999977],[-36.17829709999995,-9.889277199999981],[-36.181777299999965,-9.879675899999938],[-36.23978869999996,-9.87175439999993],[-36.21963649999998,-9.836859699999934],[-36.21001529999995,-9.843862099999967],[-36.197326799999985,-9.836513999999966],[-36.20725429999993,-9.805504799999937],[-36.18398569999994,-9.800717199999951],[-36.15626149999997,-9.859629799999936],[-36.14490939999996,-9.856844199999955],[-36.128274499999975,-9.828503999999953],[-36.12576249999995,-9.837657899999954],[-36.06591489999994,-9.882857799999954],[-36.04097929999995,-9.858364799999947],[-36.02124409999993,-9.92033129999993],[-36.01418579999995,-9.907652799999937],[-35.99926019999998,-9.915608199999951],[-35.979670399999975,-9.913265399999943],[-35.96265539999996,-9.940661499999976],[-36.03077209999998,-10.047045499999967]]]}},{"id":"1691","type":"Feature","properties":{"COD_IBGE":"2703809","MUNICIPIO":"Joaquim Gomes","UF":"AL"},"geometry":{"type":"Polygon","coordinates":[[[-35.705258399999934,-9.082126199999948],[-35.68887939999996,-9.101236599999936],[-35.62918289999993,-9.092213299999969],[-35.58006489999997,-9.157811899999956],[-35.638603399999965,-9.117989699999953],[-35.64998369999995,-9.120938399999943],[-35.65303989999995,-9.106702999999982],[-35.66682579999997,-9.108753799999931],[-35.675836999999945,-9.10030809999995],[-35.79858189999993,-9.15829599999995],[-35.81837909999996,-9.159381199999928],[-35.82454329999996,-9.149261799999977],[-35.84333479999998,-9.152408999999977],[-35.86565829999995,-9.138255899999933],[-35.888571999999954,-9.138308399999971],[-35.83456669999998,-8.984288999999933],[-35.68125559999993,-9.024066699999935],[-35.68626869999997,-9.035959799999944],[-35.71368769999998,-9.05292309999993],[-35.705258399999934,-9.082126199999948]]]}},{"id":"1692","type":"Feature","properties":{"COD_IBGE":"2703908","MUNICIPIO":"Jundiá","UF":"AL"},"geometry":{"type":"Polygon","coordinates":[[[-35.57054659999994,-8.98596619999995],[-35.58017709999996,-8.975349599999959],[-35.59079129999998,-8.976075599999945],[-35.58264589999993,-8.961139299999957],[-35.58767009999997,-8.956426299999976],[-35.57868909999996,-8.910470699999962],[-35.57380429999995,-8.914700299999936],[-35.551741499999935,-8.90525109999993],[-35.53086529999996,-8.927639599999964],[-35.52493759999993,-8.947781899999939],[-35.473195799999985,-8.94436159999998],[-35.47505949999993,-8.939651399999946],[-35.45386039999994,-8.949939699999959],[-35.540533299999936,-9.017416699999956],[-35.56454999999994,-9.010249999999928],[-35.55454969999994,-9.006928699999946],[-35.573080499999946,-8.994859399999939],[-35.57054659999994,-8.98596619999995]]]}},{"id":"1693","type":"Feature","properties":{"COD_IBGE":"2704005","MUNICIPIO":"Junqueiro","UF":"AL"},"geometry":{"type":"Polygon","coordinates":[[[-36.313124899999934,-9.886912299999949],[-36.39542609999995,-9.874430299999972],[-36.44843199999997,-9.96040869999996],[-36.468858299999965,-9.971046099999967],[-36.47896989999998,-9.96000829999997],[-36.47100169999993,-9.938976699999955],[-36.48613429999995,-9.927637299999958],[-36.49956739999993,-9.894311199999947],[-36.49728349999998,-9.865693499999963],[-36.50535679999996,-9.855487499999981],[-36.51550039999995,-9.859553099999971],[-36.55319909999997,-9.839080599999932],[-36.52603739999995,-9.80324829999995],[-36.469546399999956,-9.804412899999932],[-36.46377709999996,-9.783468099999936],[-36.41443389999995,-9.777447199999926],[-36.401417899999956,-9.782656499999973],[-36.35354229999996,-9.834194599999933],[-36.313124899999934,-9.886912299999949]]]}},{"id":"1694","type":"Feature","properties":{"COD_IBGE":"2704104","MUNICIPIO":"Lagoa da Canoa","UF":"AL"},"geometry":{"type":"Polygon","coordinates":[[[-36.74702279999997,-9.877446199999952],[-36.766139899999985,-9.852825099999961],[-36.75744079999998,-9.822090499999945],[-36.77036229999993,-9.79905059999993],[-36.74347119999993,-9.764040099999931],[-36.77459639999995,-9.729574299999967],[-36.75446569999997,-9.707373599999926],[-36.68910749999998,-9.806969199999969],[-36.73458939999995,-9.86754639999998],[-36.72193759999993,-9.881872999999928],[-36.74702279999997,-9.877446199999952]]]}},{"id":"1695","type":"Feature","properties":{"COD_IBGE":"2704203","MUNICIPIO":"Limoeiro de Anadia","UF":"AL"},"geometry":{"type":"Polygon","coordinates":[[[-36.49844339999993,-9.68732929999993],[-36.38833069999998,-9.651681999999937],[-36.37563209999996,-9.666282099999933],[-36.37071499999996,-9.697944199999938],[-36.343138599999975,-9.71321469999998],[-36.34292919999996,-9.740318399999978],[-36.36153749999994,-9.752740499999959],[-36.35339099999993,-9.757784799999968],[-36.35959729999996,-9.769286699999952],[-36.37975669999997,-9.766788499999961],[-36.40096799999998,-9.78314759999995],[-36.41443389999995,-9.777447199999926],[-36.46377709999996,-9.783468099999936],[-36.470195399999966,-9.80455539999997],[-36.52603739999995,-9.80324829999995],[-36.553171299999974,-9.839059599999928],[-36.548600799999974,-9.80892069999993],[-36.56534449999998,-9.800981299999933],[-36.55191449999995,-9.771426599999927],[-36.572976799999935,-9.749516399999948],[-36.58366159999997,-9.714484199999958],[-36.570405999999934,-9.708813899999939],[-36.583502599999974,-9.700320199999965],[-36.536105299999974,-9.66307519999998],[-36.52644289999995,-9.688109499999939],[-36.49844339999993,-9.68732929999993]]]}},{"id":"1696","type":"Feature","properties":{"COD_IBGE":"2704302","MUNICIPIO":"Maceió","UF":"AL"},"geometry":{"type":"MultiPolygon","coordinates":[[[[-35.795234499999935,-9.523833099999933],[-35.769605499999955,-9.389593399999967],[-35.69054999999997,-9.370999999999981],[-35.66504709999998,-9.430173399999944],[-35.62579669999997,-9.447965999999951],[-35.61762829999998,-9.469677399999966],[-35.58404279999996,-9.469833799999947],[-35.55849029999996,-9.487529699999982],[-35.58694689999993,-9.511233499999946],[-35.592828699999984,-9.530768699999953],[-35.60555169999998,-9.531830299999967],[-35.61763179999997,-9.548034399999949],[-35.64065779999993,-9.559604499999978],[-35.67687849999993,-9.600432699999942],[-35.69704109999998,-9.634732999999926],[-35.696122199999934,-9.666227899999967],[-35.709441599999934,-9.665787099999932],[-35.72369319999996,-9.684653699999956],[-35.729737299999954,-9.682605799999976],[-35.72316109999997,-9.680699499999946],[-35.727337199999965,-9.672692799999936],[-35.74870119999997,-9.674770699999954],[-35.794505399999935,-9.713139599999977],[-35.78248589999998,-9.697708699999964],[-35.790962699999966,-9.679337699999962],[-35.76913079999997,-9.638299099999927],[-35.81435319999997,-9.580005299999925],[-35.795234499999935,-9.523833099999933]],[[-35.74580759999998,-9.608437699999968],[-35.74562729999997,-9.608322599999951],[-35.745784699999945,-9.60842189999994],[-35.74580759999998,-9.608437699999968]]],[[[-35.75799479999995,-9.692692999999963],[-35.75838559999994,-9.693641899999932],[-35.76040729999994,-9.694963799999925],[-35.75799479999995,-9.692692999999963]]]]}},{"id":"1697","type":"Feature","properties":{"COD_IBGE":"2704401","MUNICIPIO":"Major Isidoro","UF":"AL"},"geometry":{"type":"Polygon","coordinates":[[[-36.87624599999998,-9.594046399999968],[-37.001333099999954,-9.629832799999974],[-37.14448329999993,-9.600749999999948],[-37.10812249999998,-9.50926149999998],[-37.11499639999994,-9.49907559999997],[-37.10392779999995,-9.490928199999928],[-37.10479159999994,-9.460720299999934],[-37.03971389999998,-9.417833299999927],[-37.02063139999996,-9.414278699999954],[-37.01913719999993,-9.435612099999958],[-36.97965679999993,-9.486126799999965],[-36.90664559999993,-9.527724599999942],[-36.87820209999995,-9.533797399999969],[-36.86757699999998,-9.545090199999947],[-36.85544259999995,-9.545514199999957],[-36.83708629999995,-9.531821699999966],[-36.831332499999974,-9.553507799999977],[-36.84179009999997,-9.57300859999998],[-36.849217299999964,-9.569617499999936],[-36.87624599999998,-9.594046399999968]]]}},{"id":"1698","type":"Feature","properties":{"COD_IBGE":"2704500","MUNICIPIO":"Maragogi","UF":"AL"},"geometry":{"type":"Polygon","coordinates":[[[-35.18107149999997,-8.977438499999948],[-35.22084369999993,-9.013770199999954],[-35.24012399999998,-9.06412709999995],[-35.251841999999954,-9.07323839999998],[-35.286987599999975,-9.034182999999928],[-35.34440999999998,-9.003197499999942],[-35.35835089999995,-8.981190599999934],[-35.35401539999998,-8.96362449999998],[-35.36912619999998,-8.937463099999945],[-35.37207299999994,-8.91237039999993],[-35.35958449999998,-8.884886299999948],[-35.341881599999965,-8.874592399999926],[-35.35075469999998,-8.860712899999953],[-35.27758019999993,-8.87516299999993],[-35.25278209999993,-8.88723299999998],[-35.237837499999955,-8.882722899999976],[-35.16825129999995,-8.892471099999966],[-35.151949299999956,-8.91554149999996],[-35.16674629999994,-8.934897999999976],[-35.18107149999997,-8.977438499999948]]]}},{"id":"1699","type":"Feature","properties":{"COD_IBGE":"2704609","MUNICIPIO":"Maravilha","UF":"AL"},"geometry":{"type":"Polygon","coordinates":[[[-37.22878389999994,-9.225535999999977],[-37.41453429999996,-9.289465899999925],[-37.399192599999935,-9.33249879999994],[-37.58823069999994,-9.28683099999995],[-37.57110669999997,-9.282576399999925],[-37.54228559999996,-9.259242799999981],[-37.52783199999993,-9.258260699999937],[-37.52020019999998,-9.244466599999953],[-37.480075099999965,-9.223860599999966],[-37.475634799999966,-9.211017699999957],[-37.436293399999954,-9.183736799999963],[-37.31348859999997,-9.19705369999997],[-37.27848799999998,-9.15250009999994],[-37.26255949999995,-9.158881699999938],[-37.247081599999945,-9.179018399999961],[-37.22878389999994,-9.225535999999977]]]}},{"id":"1700","type":"Feature","properties":{"COD_IBGE":"2704708","MUNICIPIO":"Marechal Deodoro","UF":"AL"},"geometry":{"type":"Polygon","coordinates":[[[-35.80444989999995,-9.722485799999959],[-35.81919199999993,-9.733043899999927],[-35.82233899999994,-9.747788599999978],[-35.855254499999944,-9.788283799999931],[-35.90558919999995,-9.811886699999945],[-35.942020199999945,-9.787476999999967],[-35.980322599999965,-9.786373999999967],[-36.00074209999997,-9.774528499999974],[-36.00456409999998,-9.76709429999994],[-35.98930009999998,-9.738644399999941],[-35.98745969999993,-9.70336409999993],[-36.033424999999966,-9.701676999999961],[-36.03748369999994,-9.681302699999947],[-36.01979419999998,-9.65979189999996],[-36.02432209999995,-9.646421399999952],[-35.98016199999995,-9.672856199999956],[-35.986909999999966,-9.662493899999959],[-35.97854669999998,-9.643801199999928],[-35.96765449999998,-9.640779099999975],[-35.957308499999954,-9.647834099999955],[-35.94421859999994,-9.639249199999938],[-35.88823979999995,-9.647906299999931],[-35.86811439999997,-9.625388099999952],[-35.864463599999965,-9.65483699999993],[-35.81331319999998,-9.655056899999977],[-35.803979599999934,-9.675857899999926],[-35.78565579999997,-9.688814899999954],[-35.782880499999976,-9.698845999999946],[-35.79618169999998,-9.708207399999935],[-35.789840599999934,-9.711173499999973],[-35.79562699999997,-9.717324399999939],[-35.805794499999934,-9.715833499999974],[-35.80444989999995,-9.722485799999959]]]}},{"id":"1701","type":"Feature","properties":{"COD_IBGE":"2704807","MUNICIPIO":"Maribondo","UF":"AL"},"geometry":{"type":"Polygon","coordinates":[[[-36.31865409999995,-9.611595699999953],[-36.35133609999997,-9.606944399999975],[-36.34600979999993,-9.594572299999982],[-36.37902319999995,-9.572559199999944],[-36.38338299999998,-9.541536699999938],[-36.375316399999974,-9.528143099999966],[-36.386201899999946,-9.50675689999997],[-36.32910969999995,-9.510157299999946],[-36.30655569999993,-9.522403399999973],[-36.255569399999956,-9.518808299999932],[-36.220952799999964,-9.484263899999974],[-36.22684439999995,-9.514497199999937],[-36.21852219999994,-9.563191699999948],[-36.19165559999993,-9.600149999999928],[-36.24004439999993,-9.593472199999951],[-36.249927799999966,-9.623330599999974],[-36.29369159999993,-9.60133019999995],[-36.31865409999995,-9.611595699999953]]]}},{"id":"1702","type":"Feature","properties":{"COD_IBGE":"2704906","MUNICIPIO":"Mar Vermelho","UF":"AL"},"geometry":{"type":"Polygon","coordinates":[[[-36.38261669999997,-9.503980599999977],[-36.45097539999995,-9.505271599999958],[-36.468415499999935,-9.485518799999966],[-36.451791999999955,-9.45705659999993],[-36.46318679999996,-9.453853399999957],[-36.39060099999995,-9.424405599999943],[-36.33941549999997,-9.464575099999934],[-36.35542389999995,-9.469340199999976],[-36.33995859999993,-9.511218699999972],[-36.38261669999997,-9.503980599999977]]]}},{"id":"1703","type":"Feature","properties":{"COD_IBGE":"2705002","MUNICIPIO":"Mata Grande","UF":"AL"},"geometry":{"type":"Polygon","coordinates":[[[-37.65667119999995,-9.132996499999933],[-37.66322219999995,-9.159388899999954],[-37.68245829999995,-9.179038899999966],[-37.731469999999945,-9.183755099999928],[-37.74364639999993,-9.196701899999937],[-37.79196419999994,-9.193801399999927],[-37.833358499999974,-9.221230999999932],[-37.94671509999995,-9.094771699999967],[-37.90493259999994,-9.04023589999997],[-37.889767699999936,-9.03479429999993],[-37.880983399999934,-9.040346799999952],[-37.87959809999995,-9.015413899999942],[-37.853093299999955,-9.000139799999943],[-37.83909859999994,-8.978381199999944],[-37.82533379999995,-8.93242829999997],[-37.83363699999995,-8.926411799999926],[-37.82035929999995,-8.908703799999955],[-37.82462879999997,-8.885957299999973],[-37.79293359999997,-8.873910099999932],[-37.77364959999994,-8.85303289999996],[-37.75536189999997,-8.846363699999927],[-37.74166829999996,-8.87607769999994],[-37.73200549999996,-8.87966309999996],[-37.71938769999997,-8.908099999999934],[-37.703922499999976,-8.92192659999995],[-37.698841699999946,-8.944722199999944],[-37.67191669999994,-8.974499999999978],[-37.699830599999984,-8.984055599999976],[-37.69774179999996,-8.991205099999945],[-37.68707109999997,-8.987735399999963],[-37.68215279999998,-8.997332399999948],[-37.658087499999965,-8.98579639999997],[-37.65492759999995,-8.99427959999997],[-37.64046399999995,-8.994482699999935],[-37.637666699999954,-9.003777799999966],[-37.61016669999998,-8.987861099999975],[-37.597051299999976,-8.969071799999938],[-37.55977909999996,-8.971938899999941],[-37.53312129999995,-8.959862199999975],[-37.519111099999975,-8.968333299999927],[-37.58301199999994,-9.060158199999933],[-37.65667119999995,-9.132996499999933]]]}},{"id":"1704","type":"Feature","properties":{"COD_IBGE":"2705101","MUNICIPIO":"Matriz de Camaragibe","UF":"AL"},"geometry":{"type":"Polygon","coordinates":[[[-35.521001299999966,-9.135075599999936],[-35.49378799999994,-9.138787499999978],[-35.46854689999998,-9.166859599999952],[-35.45478739999993,-9.165121799999952],[-35.43476909999998,-9.177472299999977],[-35.45692089999994,-9.185125399999947],[-35.48326579999997,-9.175764999999956],[-35.475780499999985,-9.190593599999943],[-35.55498149999994,-9.191292999999973],[-35.62918289999993,-9.092213299999969],[-35.68887939999996,-9.101236599999936],[-35.70522129999995,-9.08266709999998],[-35.71368769999998,-9.05292309999993],[-35.68626869999997,-9.035959799999944],[-35.68125559999993,-9.024066699999935],[-35.56020069999994,-9.048804599999926],[-35.501748299999974,-9.085316399999954],[-35.52179179999996,-9.10489199999995],[-35.52654569999993,-9.118308999999954],[-35.521001299999966,-9.135075599999936]]]}},{"id":"1705","type":"Feature","properties":{"COD_IBGE":"2705200","MUNICIPIO":"Messias","UF":"AL"},"geometry":{"type":"Polygon","coordinates":[[[-35.830532199999936,-9.315050499999927],[-35.83851389999995,-9.309324499999946],[-35.83635099999998,-9.264542499999948],[-35.80454949999995,-9.266541999999959],[-35.76901699999996,-9.309006599999975],[-35.769502699999975,-9.387610199999926],[-35.87742009999994,-9.416686999999968],[-35.830532199999936,-9.315050499999927]]]}},{"id":"1706","type":"Feature","properties":{"COD_IBGE":"2705309","MUNICIPIO":"Minador do Negrão","UF":"AL"},"geometry":{"type":"Polygon","coordinates":[[[-36.83971239999994,-9.28821389999996],[-36.79683259999996,-9.280423199999973],[-36.79680529999996,-9.356472399999973],[-36.82653639999995,-9.390959299999963],[-36.901422099999934,-9.397776799999974],[-36.93684989999997,-9.377425399999936],[-36.93043719999997,-9.370036299999981],[-36.93787699999996,-9.35282129999996],[-36.92102849999998,-9.335517699999968],[-36.92676259999996,-9.322891899999945],[-36.90082769999998,-9.28290839999994],[-36.87477249999995,-9.276960799999927],[-36.879781599999944,-9.276374699999963],[-36.87125939999993,-9.268084599999952],[-36.846776699999964,-9.277706699999953],[-36.83971239999994,-9.28821389999996]]]}},{"id":"1707","type":"Feature","properties":{"COD_IBGE":"2705408","MUNICIPIO":"Monteirópolis","UF":"AL"},"geometry":{"type":"Polygon","coordinates":[[[-37.356217399999935,-9.64412299999998],[-37.304874799999936,-9.536076199999968],[-37.24422279999993,-9.589828199999943],[-37.245393699999966,-9.601261699999952],[-37.236098599999934,-9.60542739999994],[-37.25258299999996,-9.632841499999927],[-37.356217399999935,-9.64412299999998]]]}},{"id":"1708","type":"Feature","properties":{"COD_IBGE":"2705507","MUNICIPIO":"Murici","UF":"AL"},"geometry":{"type":"Polygon","coordinates":[[[-35.928848699999946,-9.374549399999978],[-36.01437839999994,-9.400971999999967],[-35.996144399999935,-9.383604599999956],[-36.01481179999996,-9.360980899999959],[-36.003200299999946,-9.35740519999996],[-36.003402499999936,-9.332719299999951],[-35.99532099999993,-9.323807699999975],[-36.04219939999996,-9.339367699999968],[-36.05390189999997,-9.321307499999932],[-36.029260299999976,-9.308898599999964],[-36.040588199999945,-9.30824309999997],[-36.064978199999985,-9.281108999999958],[-36.057642699999974,-9.287272899999948],[-36.00243889999996,-9.265797199999952],[-35.888571999999954,-9.138308399999971],[-35.834536399999934,-9.235657299999957],[-35.83851389999995,-9.309324499999946],[-35.83008959999995,-9.322681599999953],[-35.87742009999994,-9.416686999999968],[-35.928848699999946,-9.374549399999978]]]}},{"id":"1709","type":"Feature","properties":{"COD_IBGE":"2705606","MUNICIPIO":"Novo Lino","UF":"AL"},"geometry":{"type":"Polygon","coordinates":[[[-35.56020069999994,-9.048804599999926],[-35.715822199999934,-9.01710559999998],[-35.71475839999994,-8.98413949999997],[-35.70385829999998,-8.953402799999935],[-35.65486389999995,-8.918402799999967],[-35.646358299999974,-8.902049999999974],[-35.65198329999998,-8.882263899999941],[-35.63212779999998,-8.881278299999963],[-35.571398699999975,-8.841984099999934],[-35.58140789999993,-8.85643719999996],[-35.576575899999966,-8.865263899999945],[-35.58569659999995,-8.89166599999993],[-35.579318099999966,-8.915365099999974],[-35.58767009999997,-8.956426299999976],[-35.58260799999994,-8.960661199999947],[-35.59079129999998,-8.976075599999945],[-35.574193399999956,-8.979834899999958],[-35.573080499999946,-8.994859399999939],[-35.55454969999994,-9.006928699999946],[-35.56642689999995,-9.011893899999961],[-35.56020069999994,-9.048804599999926]]]}},{"id":"1710","type":"Feature","properties":{"COD_IBGE":"2705705","MUNICIPIO":"Olho d'Água das Flores","UF":"AL"},"geometry":{"type":"Polygon","coordinates":[[[-37.25536089999997,-9.58132459999996],[-37.304874799999936,-9.536076199999968],[-37.31358009999997,-9.553149899999937],[-37.37309769999996,-9.524782399999935],[-37.38029289999997,-9.502880799999957],[-37.27926389999993,-9.456469399999946],[-37.27331719999995,-9.46461439999996],[-37.269149599999935,-9.457116299999939],[-37.22807289999997,-9.51932869999996],[-37.18735159999994,-9.561293599999942],[-37.119878599999936,-9.538142199999982],[-37.15569339999996,-9.614245799999935],[-37.160247599999934,-9.603151899999943],[-37.25929679999996,-9.572319799999946],[-37.25536089999997,-9.58132459999996]]]}},{"id":"1711","type":"Feature","properties":{"COD_IBGE":"2705804","MUNICIPIO":"Olho d'Água do Casado","UF":"AL"},"geometry":{"type":"Polygon","coordinates":[[[-37.79635339999993,-9.504958299999942],[-37.787919099999954,-9.52284009999994],[-37.794197199999985,-9.543840099999954],[-37.83508429999995,-9.551142099999936],[-37.84222689999996,-9.579415199999971],[-37.89414169999998,-9.539527299999975],[-37.888327199999935,-9.520794199999955],[-37.89583509999994,-9.51135329999994],[-37.89437899999996,-9.448724399999946],[-37.87259649999993,-9.404908699999964],[-37.84977479999998,-9.39083439999996],[-37.81819819999998,-9.335034299999961],[-37.77704049999994,-9.324315699999943],[-37.76882449999994,-9.28877799999998],[-37.72524619999996,-9.334390699999972],[-37.720019399999956,-9.388266699999974],[-37.76580279999996,-9.443188899999939],[-37.77689499999997,-9.488253199999974],[-37.79635339999993,-9.504958299999942]]]}},{"id":"1712","type":"Feature","properties":{"COD_IBGE":"2705903","MUNICIPIO":"Olho d'Água Grande","UF":"AL"},"geometry":{"type":"Polygon","coordinates":[[[-36.78758339999996,-10.022028499999976],[-36.71395099999995,-10.045493399999941],[-36.71438249999994,-10.053840599999944],[-36.77004279999994,-10.124099099999967],[-36.813360699999976,-10.09183029999997],[-36.82166379999995,-10.074597499999982],[-36.87470689999998,-10.053593099999944],[-36.86411059999995,-10.044531699999936],[-36.861465599999974,-10.027412899999945],[-36.820194399999934,-10.002251299999955],[-36.809500999999955,-10.009805099999937],[-36.798253099999954,-10.006350399999974],[-36.786332999999956,-10.014932399999964],[-36.78758339999996,-10.022028499999976]]]}},{"id":"1713","type":"Feature","properties":{"COD_IBGE":"2706000","MUNICIPIO":"Olivença","UF":"AL"},"geometry":{"type":"Polygon","coordinates":[[[-37.10644519999994,-9.492617199999927],[-37.11487959999994,-9.498015799999962],[-37.10801109999994,-9.508540499999981],[-37.12081059999997,-9.53893869999996],[-37.18735159999994,-9.561293599999942],[-37.22807289999997,-9.51932869999996],[-37.27034809999998,-9.45737829999996],[-37.258590899999945,-9.447214299999928],[-37.21400859999994,-9.445301399999948],[-37.19809289999995,-9.43226379999993],[-37.12626709999995,-9.437225099999978],[-37.11952789999998,-9.457499999999982],[-37.10457629999996,-9.460571899999934],[-37.10644519999994,-9.492617199999927]]]}},{"id":"1714","type":"Feature","properties":{"COD_IBGE":"2706109","MUNICIPIO":"Ouro Branco","UF":"AL"},"geometry":{"type":"Polygon","coordinates":[[[-37.31348859999997,-9.19705369999997],[-37.436293399999954,-9.183736799999963],[-37.42190799999997,-9.160700599999927],[-37.418655799999954,-9.135870499999953],[-37.427211899999975,-9.103364899999974],[-37.42036459999997,-9.077740499999948],[-37.39477329999994,-9.042095299999971],[-37.39386949999994,-9.026983199999961],[-37.35863909999995,-9.053889099999935],[-37.33088959999998,-9.090705999999955],[-37.31480409999995,-9.094965199999933],[-37.27848799999998,-9.15250009999994],[-37.31348859999997,-9.19705369999997]]]}},{"id":"1715","type":"Feature","properties":{"COD_IBGE":"2706208","MUNICIPIO":"Palestina","UF":"AL"},"geometry":{"type":"Polygon","coordinates":[[[-37.34952079999994,-9.688841799999977],[-37.31783649999994,-9.660323099999971],[-37.30305739999994,-9.636027699999943],[-37.28839869999996,-9.68655089999993],[-37.240462099999945,-9.736018699999931],[-37.34952079999994,-9.688841799999977]]]}},{"id":"1716","type":"Feature","properties":{"COD_IBGE":"2706307","MUNICIPIO":"Palmeira dos Índios","UF":"AL"},"geometry":{"type":"Polygon","coordinates":[[[-36.61556109999998,-9.482141699999943],[-36.63912779999998,-9.500724999999932],[-36.68756109999998,-9.484397199999933],[-36.70890399999996,-9.48483299999998],[-36.72125169999998,-9.468411099999969],[-36.71661339999997,-9.446031499999947],[-36.72386259999996,-9.390299399999947],[-36.71233109999997,-9.377881699999932],[-36.72146989999993,-9.35692599999993],[-36.71249849999998,-9.31399689999995],[-36.699747499999944,-9.293005799999946],[-36.67042219999996,-9.313235499999962],[-36.644686399999955,-9.314371499999936],[-36.593219199999965,-9.360849299999927],[-36.58366369999993,-9.353610699999933],[-36.55018999999993,-9.354097699999954],[-36.55083529999996,-9.343823499999928],[-36.48561059999997,-9.407148399999926],[-36.46318679999996,-9.453853399999957],[-36.451791999999955,-9.45705659999993],[-36.468415499999935,-9.485518799999966],[-36.48935489999997,-9.503129799999954],[-36.51895519999994,-9.503528499999959],[-36.53322009999994,-9.530928099999926],[-36.57008609999997,-9.486072199999967],[-36.61556109999998,-9.482141699999943]]]}},{"id":"1717","type":"Feature","properties":{"COD_IBGE":"2706406","MUNICIPIO":"Pão de Açúcar","UF":"AL"},"geometry":{"type":"Polygon","coordinates":[[[-37.409901099999956,-9.762649599999975],[-37.57551479999995,-9.737669799999935],[-37.65405149999998,-9.686333399999967],[-37.65947369999998,-9.655923299999927],[-37.63697769999993,-9.601677199999926],[-37.67218639999993,-9.53562949999997],[-37.662860199999955,-9.523028999999951],[-37.64275849999996,-9.52031169999998],[-37.617055499999935,-9.496566199999961],[-37.58175629999994,-9.514074599999958],[-37.571361199999956,-9.50529199999994],[-37.56326389999998,-9.519193599999937],[-37.569452199999944,-9.54765679999997],[-37.54019189999997,-9.565146999999968],[-37.53489589999998,-9.579972699999928],[-37.479396399999985,-9.62440429999998],[-37.46855899999997,-9.64992019999994],[-37.35977139999994,-9.633822299999963],[-37.35114799999997,-9.645253199999956],[-37.30305739999994,-9.636027699999943],[-37.34952079999994,-9.688841799999977],[-37.240462099999945,-9.736018699999931],[-37.303584899999976,-9.789516699999979],[-37.31018549999993,-9.803704699999969],[-37.29837109999994,-9.817378599999927],[-37.29856539999997,-9.831639199999927],[-37.32277629999993,-9.819735699999967],[-37.34910329999997,-9.78980839999997],[-37.39361889999998,-9.779235299999925],[-37.409901099999956,-9.762649599999975]]]}},{"id":"1718","type":"Feature","properties":{"COD_IBGE":"2706422","MUNICIPIO":"Pariconha","UF":"AL"},"geometry":{"type":"Polygon","coordinates":[[[-37.96122339999994,-9.238702599999954],[-37.98244979999998,-9.283385199999941],[-37.97548909999995,-9.298480499999926],[-37.983256799999936,-9.330086599999959],[-38.000237399999946,-9.336117499999943],[-38.15637399999997,-9.250070199999925],[-38.15630609999994,-9.242363799999964],[-38.14390869999994,-9.218204699999944],[-38.09228729999995,-9.172724999999957],[-38.06390449999998,-9.173780499999964],[-38.030291999999974,-9.164948099999947],[-38.02078359999996,-9.15521519999993],[-37.98324719999994,-9.177941699999963],[-37.98714949999993,-9.187698199999943],[-37.97315539999994,-9.19545549999998],[-37.97145279999995,-9.215972199999953],[-37.98821829999997,-9.233399599999927],[-37.98023379999995,-9.24063549999994],[-37.96122339999994,-9.238702599999954]]]}},{"id":"1719","type":"Feature","properties":{"COD_IBGE":"2706448","MUNICIPIO":"Paripueira","UF":"AL"},"geometry":{"type":"Polygon","coordinates":[[[-35.549502099999984,-9.403848699999969],[-35.52802899999995,-9.436571899999933],[-35.52459179999994,-9.44262619999995],[-35.52946799999995,-9.455454499999973],[-35.55403259999997,-9.47459809999998],[-35.55849029999996,-9.487529699999982],[-35.58404279999996,-9.469833799999947],[-35.61762829999998,-9.469677399999966],[-35.62579669999997,-9.447965999999951],[-35.66557709999995,-9.42968499999995],[-35.67664999999994,-9.398583299999927],[-35.62100449999997,-9.40986909999998],[-35.549502099999984,-9.403848699999969]]]}},{"id":"1720","type":"Feature","properties":{"COD_IBGE":"2706505","MUNICIPIO":"Passo de Camaragibe","UF":"AL"},"geometry":{"type":"Polygon","coordinates":[[[-35.46558719999996,-9.22448049999997],[-35.395114199999966,-9.273369299999956],[-35.38831709999994,-9.290418299999942],[-35.41956689999995,-9.314913699999977],[-35.415399099999945,-9.320941299999959],[-35.43397809999993,-9.325113999999928],[-35.44091249999997,-9.338781199999971],[-35.459730899999954,-9.344075399999952],[-35.47249119999998,-9.358033099999943],[-35.51366759999996,-9.30772909999996],[-35.58804159999994,-9.244768799999974],[-35.59913839999996,-9.216726599999959],[-35.589984699999945,-9.191483199999936],[-35.59783299999998,-9.187350999999978],[-35.59697649999998,-9.16748739999997],[-35.61708909999993,-9.135159999999928],[-35.58006489999997,-9.157811899999956],[-35.55498149999994,-9.191292999999973],[-35.475780499999985,-9.190593599999943],[-35.46558719999996,-9.22448049999997]]]}},{"id":"1721","type":"Feature","properties":{"COD_IBGE":"2706604","MUNICIPIO":"Paulo Jacinto","UF":"AL"},"geometry":{"type":"Polygon","coordinates":[[[-36.37255629999993,-9.377322099999958],[-36.38936309999997,-9.42537859999993],[-36.460767199999964,-9.452871399999935],[-36.48667429999995,-9.406145999999978],[-36.429029999999955,-9.364965899999959],[-36.41630679999997,-9.365440299999932],[-36.427260099999955,-9.363742999999943],[-36.40346599999998,-9.342677699999967],[-36.38482209999995,-9.311630099999945],[-36.39074979999998,-9.29287899999997],[-36.33989209999993,-9.286711999999966],[-36.366090499999984,-9.36143119999997],[-36.36214069999994,-9.382875499999955],[-36.37255629999993,-9.377322099999958]]]}},{"id":"1722","type":"Feature","properties":{"COD_IBGE":"2706703","MUNICIPIO":"Penedo","UF":"AL"},"geometry":{"type":"Polygon","coordinates":[[[-36.54125419999997,-10.428743299999951],[-36.56268529999994,-10.413918199999955],[-36.55674349999998,-10.377081099999941],[-36.571825599999954,-10.316147199999932],[-36.60045009999993,-10.290060299999936],[-36.62263919999998,-10.255251699999974],[-36.64655479999993,-10.257348299999933],[-36.64409869999997,-10.245421499999964],[-36.660447999999974,-10.245586799999955],[-36.61378979999995,-10.199679699999933],[-36.521797799999945,-10.176304899999934],[-36.49340019999994,-10.07497849999993],[-36.45495189999997,-10.03226989999996],[-36.44866119999995,-10.06018789999996],[-36.43483409999993,-10.073673299999939],[-36.41819359999994,-10.066396099999963],[-36.414296899999954,-10.083989199999962],[-36.39932859999993,-10.083681399999932],[-36.399712499999964,-10.101792399999965],[-36.37823729999997,-10.103997299999946],[-36.36204959999998,-10.121587699999964],[-36.36146739999998,-10.155240699999979],[-36.34338429999997,-10.164737999999943],[-36.33569229999995,-10.180316699999935],[-36.35379789999996,-10.20266259999994],[-36.35682799999995,-10.220422399999961],[-36.398053499999946,-10.245321799999942],[-36.39548389999993,-10.262080399999945],[-36.381267899999955,-10.27564899999993],[-36.38038249999994,-10.29902089999996],[-36.39263039999997,-10.309851399999957],[-36.39846119999993,-10.302881399999933],[-36.416970799999945,-10.328882599999929],[-36.46025069999996,-10.33301599999993],[-36.49077449999993,-10.349466199999938],[-36.49619339999998,-10.355307299999936],[-36.49163649999997,-10.364623299999948],[-36.50771309999993,-10.368448899999976],[-36.50843809999998,-10.378786399999967],[-36.48816419999997,-10.382423599999981],[-36.506185899999934,-10.395558899999969],[-36.48686879999997,-10.42316969999996],[-36.50845099999998,-10.431895899999972],[-36.54125419999997,-10.428743299999951]]]}},{"id":"1723","type":"Feature","properties":{"COD_IBGE":"2706802","MUNICIPIO":"Piaçabuçu","UF":"AL"},"geometry":{"type":"Polygon","coordinates":[[[-36.405364299999974,-10.482369699999936],[-36.427628599999935,-10.433514699999932],[-36.45150989999996,-10.413670199999956],[-36.46309619999994,-10.408479599999964],[-36.48686879999997,-10.42316969999996],[-36.506185899999934,-10.395558899999969],[-36.48816419999997,-10.382423599999981],[-36.50496879999997,-10.380803699999944],[-36.50846309999997,-10.371593799999971],[-36.49163649999997,-10.364623299999948],[-36.49619339999998,-10.355307299999936],[-36.49077449999993,-10.349466199999938],[-36.46025069999996,-10.33301599999993],[-36.416970799999945,-10.328882599999929],[-36.39846119999993,-10.302881399999933],[-36.31505619999996,-10.346751499999925],[-36.30138249999993,-10.34455639999993],[-36.293327199999965,-10.354226099999948],[-36.32688489999998,-10.39208489999993],[-36.387711199999956,-10.498630699999978],[-36.405364299999974,-10.482369699999936]]]}},{"id":"1724","type":"Feature","properties":{"COD_IBGE":"2706901","MUNICIPIO":"Pilar","UF":"AL"},"geometry":{"type":"Polygon","coordinates":[[[-36.00568219999997,-9.58571829999994],[-35.95965959999995,-9.527880299999936],[-35.949857399999985,-9.533339699999942],[-35.88724259999998,-9.588838599999974],[-35.86811439999997,-9.625388099999952],[-35.88823979999995,-9.647906299999931],[-35.94421859999994,-9.639249199999938],[-35.957308499999954,-9.647834099999955],[-35.96765449999998,-9.640779099999975],[-35.97854669999998,-9.643801199999928],[-35.986909999999966,-9.662493899999959],[-35.98016199999995,-9.672856199999956],[-36.02432209999995,-9.646421399999952],[-36.01979419999998,-9.65979189999996],[-36.03748369999994,-9.681302699999947],[-36.03366209999996,-9.701419099999953],[-36.03899499999994,-9.692472299999963],[-36.06270049999995,-9.68878129999996],[-36.10474899999997,-9.638481499999955],[-36.11590899999993,-9.650189499999954],[-36.13125549999995,-9.65140539999993],[-36.15577469999994,-9.624918599999944],[-36.17694209999996,-9.621321399999943],[-36.18175389999993,-9.61279929999995],[-36.15736259999994,-9.618708899999945],[-36.13841269999995,-9.61306989999997],[-36.12147049999993,-9.596531399999947],[-36.07235449999996,-9.598676099999977],[-36.01707369999997,-9.576273999999955],[-36.00568219999997,-9.58571829999994]]]}},{"id":"1725","type":"Feature","properties":{"COD_IBGE":"2707008","MUNICIPIO":"Pindoba","UF":"AL"},"geometry":{"type":"Polygon","coordinates":[[[-36.29634349999998,-9.42656919999996],[-36.207285999999954,-9.45384439999998],[-36.220952799999964,-9.484263899999974],[-36.255569399999956,-9.518808299999932],[-36.30655569999993,-9.522403399999973],[-36.32910969999995,-9.510157299999946],[-36.33624279999998,-9.513344199999949],[-36.35373649999997,-9.481688499999962],[-36.35542389999995,-9.469340199999976],[-36.33941549999997,-9.464575099999934],[-36.35068709999996,-9.448749499999963],[-36.32502069999998,-9.44335069999994],[-36.31159599999995,-9.42832489999995],[-36.29634349999998,-9.42656919999996]]]}},{"id":"1726","type":"Feature","properties":{"COD_IBGE":"2707107","MUNICIPIO":"Piranhas","UF":"AL"},"geometry":{"type":"Polygon","coordinates":[[[-37.677329199999974,-9.649541399999976],[-37.74699469999996,-9.62492089999995],[-37.785739199999966,-9.63909949999993],[-37.81824829999994,-9.592893899999979],[-37.83311059999994,-9.59488639999995],[-37.84510729999994,-9.570669899999928],[-37.83508429999995,-9.551142099999936],[-37.79196449999995,-9.539798399999938],[-37.787919099999954,-9.52284009999994],[-37.79629139999997,-9.504499199999941],[-37.77689499999997,-9.488253199999974],[-37.76580279999996,-9.443188899999939],[-37.720019399999956,-9.388266699999974],[-37.72524619999996,-9.334390699999972],[-37.65415799999994,-9.408797899999968],[-37.669131499999935,-9.46196109999994],[-37.65960039999993,-9.485614399999974],[-37.673486999999966,-9.499749699999938],[-37.67627659999994,-9.523103099999958],[-37.63697769999993,-9.601677199999926],[-37.659316099999955,-9.655317299999979],[-37.65961599999997,-9.678238499999964],[-37.677329199999974,-9.649541399999976]]]}},{"id":"1727","type":"Feature","properties":{"COD_IBGE":"2707206","MUNICIPIO":"Poço das Trincheiras","UF":"AL"},"geometry":{"type":"Polygon","coordinates":[[[-37.279672199999936,-9.341825799999981],[-37.36467819999996,-9.357324399999982],[-37.38809349999997,-9.351653099999965],[-37.40362289999996,-9.361754299999973],[-37.447924299999954,-9.357700499999964],[-37.484162599999934,-9.344990799999948],[-37.51888669999994,-9.310247999999945],[-37.560428799999954,-9.305144999999982],[-37.587746899999956,-9.29586839999996],[-37.58823069999994,-9.28683099999995],[-37.399192599999935,-9.33249879999994],[-37.41453429999996,-9.289465899999925],[-37.22922599999998,-9.226853699999936],[-37.23434149999997,-9.240175399999941],[-37.19831519999997,-9.21548249999995],[-37.158946699999944,-9.239101699999935],[-37.16902029999994,-9.265261099999975],[-37.20311949999996,-9.29194259999997],[-37.21387599999997,-9.310065899999927],[-37.279672199999936,-9.341825799999981]]]}},{"id":"1728","type":"Feature","properties":{"COD_IBGE":"2707305","MUNICIPIO":"Porto Calvo","UF":"AL"},"geometry":{"type":"Polygon","coordinates":[[[-35.36600189999996,-9.086167499999931],[-35.45095829999997,-9.067873099999929],[-35.46829079999998,-9.07689229999994],[-35.494173099999955,-9.076819799999953],[-35.50178159999996,-9.085295599999938],[-35.56020069999994,-9.048804599999926],[-35.56618879999996,-9.01131259999994],[-35.540533299999936,-9.017416699999956],[-35.43281529999996,-8.937777899999958],[-35.42188049999993,-8.92068949999998],[-35.37837949999994,-8.968502599999965],[-35.36639599999995,-8.94339199999996],[-35.35401539999998,-8.96362449999998],[-35.35835089999995,-8.981190599999934],[-35.34440999999998,-9.003197499999942],[-35.30299299999996,-9.028467899999953],[-35.33590859999998,-9.031871599999931],[-35.33851729999998,-9.073473399999955],[-35.32583159999996,-9.120925299999953],[-35.301165099999935,-9.136722499999962],[-35.312504099999956,-9.14698459999994],[-35.32412399999998,-9.146395599999948],[-35.33735989999997,-9.138215699999932],[-35.331958199999974,-9.132530299999928],[-35.34112369999997,-9.124013799999943],[-35.35305909999994,-9.125723999999934],[-35.34704249999993,-9.120551399999954],[-35.357881599999985,-9.109620999999947],[-35.34862719999995,-9.112436199999934],[-35.365589099999966,-9.102921399999957],[-35.36012839999995,-9.092804699999931],[-35.36784129999995,-9.095894099999953],[-35.36600189999996,-9.086167499999931]]]}},{"id":"1729","type":"Feature","properties":{"COD_IBGE":"2707404","MUNICIPIO":"Porto de Pedras","UF":"AL"},"geometry":{"type":"Polygon","coordinates":[[[-35.302849099999946,-9.187976399999968],[-35.34251819999997,-9.231196799999964],[-35.359346899999935,-9.22924919999997],[-35.37795699999998,-9.209696399999928],[-35.42773599999998,-9.193870599999968],[-35.475780499999985,-9.190593599999943],[-35.48326579999997,-9.175764999999956],[-35.45692089999994,-9.185125399999947],[-35.43476909999998,-9.177472299999977],[-35.45478739999993,-9.165121799999952],[-35.46854689999998,-9.166859599999952],[-35.49378799999994,-9.138787499999978],[-35.521001299999966,-9.135075599999936],[-35.52654569999993,-9.118308999999954],[-35.520543499999974,-9.101728299999934],[-35.49443899999994,-9.076920199999961],[-35.46829079999998,-9.07689229999994],[-35.45095829999997,-9.067873099999929],[-35.36600189999996,-9.086167499999931],[-35.36784129999995,-9.095894099999953],[-35.36012839999995,-9.092804699999931],[-35.365589099999966,-9.102921399999957],[-35.34862719999995,-9.112436199999934],[-35.357881599999985,-9.109620999999947],[-35.34704249999993,-9.120551399999954],[-35.35281659999998,-9.126057299999957],[-35.34112369999997,-9.124013799999943],[-35.331958199999974,-9.132530299999928],[-35.336926999999946,-9.138762699999972],[-35.32076449999994,-9.14788249999998],[-35.29009439999993,-9.147523099999944],[-35.302849099999946,-9.187976399999968]]]}},{"id":"1730","type":"Feature","properties":{"COD_IBGE":"2707503","MUNICIPIO":"Porto Real do Colégio","UF":"AL"},"geometry":{"type":"Polygon","coordinates":[[[-36.66917449999994,-10.048685699999965],[-36.67652759999993,-10.123286099999973],[-36.744690899999966,-10.144900599999971],[-36.73078629999998,-10.161189599999943],[-36.72040379999993,-10.264911499999926],[-36.74888069999997,-10.228188199999977],[-36.79146659999998,-10.227216099999964],[-36.80143879999997,-10.213106399999958],[-36.82634669999993,-10.21118729999995],[-36.846465799999976,-10.187507299999936],[-36.85038549999996,-10.178447699999936],[-36.83824029999994,-10.165838399999927],[-36.77141569999998,-10.125470399999926],[-36.76066819999994,-10.104707699999949],[-36.73560809999998,-10.084054599999945],[-36.71438249999994,-10.053840599999944],[-36.70694049999997,-10.000592599999948],[-36.686928999999964,-9.965466599999957],[-36.64288749999997,-9.992267399999946],[-36.650747999999965,-10.00319879999995],[-36.642308699999944,-10.008129399999973],[-36.64702969999996,-10.016965299999981],[-36.65211389999996,-10.013319199999955],[-36.64843909999996,-10.02601009999995],[-36.66917449999994,-10.048685699999965]]]}},{"id":"1731","type":"Feature","properties":{"COD_IBGE":"2707602","MUNICIPIO":"Quebrangulo","UF":"AL"},"geometry":{"type":"Polygon","coordinates":[[[-36.32692229999998,-9.285076899999979],[-36.39074979999998,-9.29287899999997],[-36.38482209999995,-9.311630099999945],[-36.40346599999998,-9.342677699999967],[-36.427260099999955,-9.363742999999943],[-36.41630679999997,-9.365440299999932],[-36.429029999999955,-9.364965899999959],[-36.48547249999996,-9.406293499999947],[-36.55083529999996,-9.343823499999928],[-36.55018999999993,-9.354097699999954],[-36.58366369999993,-9.353610699999933],[-36.593219199999965,-9.360849299999927],[-36.624855399999944,-9.33183189999994],[-36.613823999999966,-9.323805299999947],[-36.605046999999956,-9.341508199999964],[-36.56746909999998,-9.332134799999949],[-36.571839599999976,-9.292582799999934],[-36.491337699999974,-9.262408199999982],[-36.48716529999996,-9.240201399999933],[-36.462517299999945,-9.239251099999933],[-36.43700379999996,-9.212100199999952],[-36.423302999999976,-9.21565309999994],[-36.41980319999993,-9.229568399999948],[-36.406924999999944,-9.220672199999967],[-36.39173439999996,-9.225120999999945],[-36.375873199999944,-9.216700199999934],[-36.36570399999994,-9.222627299999942],[-36.35593269999998,-9.21838589999993],[-36.340570699999944,-9.240428699999939],[-36.337011899999936,-9.272461699999951],[-36.32505349999997,-9.274973299999942],[-36.32692229999998,-9.285076899999979]]]}},{"id":"1732","type":"Feature","properties":{"COD_IBGE":"2707701","MUNICIPIO":"Rio Largo","UF":"AL"},"geometry":{"type":"Polygon","coordinates":[[[-35.79819089999995,-9.532441999999946],[-35.82730019999997,-9.550383299999964],[-35.84633939999998,-9.548378899999932],[-35.88724259999998,-9.588838599999974],[-35.95881959999997,-9.530435599999976],[-35.93300949999997,-9.480879399999935],[-35.92889399999996,-9.375566299999946],[-35.87742009999994,-9.416686999999968],[-35.769502699999975,-9.387610199999926],[-35.79819089999995,-9.532441999999946]]]}},{"id":"1733","type":"Feature","properties":{"COD_IBGE":"2707800","MUNICIPIO":"Roteiro","UF":"AL"},"geometry":{"type":"Polygon","coordinates":[[[-35.98259419999994,-9.910454799999968],[-35.99926019999998,-9.915608199999951],[-36.01418579999995,-9.907652799999937],[-36.02124409999993,-9.92033129999993],[-36.04424039999998,-9.848995499999944],[-36.03591019999993,-9.811574399999927],[-36.01590669999996,-9.807926699999939],[-35.951837799999964,-9.844706999999971],[-35.92104909999995,-9.83792029999995],[-35.908140999999944,-9.849421499999949],[-35.906717699999945,-9.874243999999976],[-35.935895899999934,-9.899741399999925],[-35.96265539999996,-9.940661499999976],[-35.98259419999994,-9.910454799999968]]]}},{"id":"1734","type":"Feature","properties":{"COD_IBGE":"2707909","MUNICIPIO":"Santa Luzia do Norte","UF":"AL"},"geometry":{"type":"Polygon","coordinates":[[[-35.825495699999976,-9.578446499999927],[-35.793522199999984,-9.60013609999993],[-35.823188899999934,-9.638291699999968],[-35.84051839999995,-9.641975999999943],[-35.865488899999946,-9.631574999999941],[-35.825495699999976,-9.578446499999927]]]}},{"id":"1735","type":"Feature","properties":{"COD_IBGE":"2708006","MUNICIPIO":"Santana do Ipanema","UF":"AL"},"geometry":{"type":"Polygon","coordinates":[[[-37.06153789999996,-9.30473539999997],[-37.09122219999995,-9.327500899999961],[-37.10586289999998,-9.372834299999965],[-37.135972799999934,-9.408055699999977],[-37.12626709999995,-9.437225099999978],[-37.19809289999995,-9.43226379999993],[-37.21400859999994,-9.445301399999948],[-37.26714439999995,-9.449674999999957],[-37.333744199999956,-9.415441399999963],[-37.33959479999993,-9.41954409999994],[-37.44575999999995,-9.356919799999957],[-37.40362289999996,-9.361754299999973],[-37.38809349999997,-9.351653099999965],[-37.36467819999996,-9.357324399999982],[-37.28862259999994,-9.348445199999958],[-37.21387599999997,-9.310065899999927],[-37.20311949999996,-9.29194259999997],[-37.16948659999997,-9.265349699999945],[-37.16433569999998,-9.275705499999958],[-37.142393899999945,-9.268079299999954],[-37.10817369999995,-9.238715599999978],[-37.067303299999935,-9.267240299999969],[-37.05719959999993,-9.281788399999925],[-37.06153789999996,-9.30473539999997]]]}},{"id":"1736","type":"Feature","properties":{"COD_IBGE":"2708105","MUNICIPIO":"Santana do Mundaú","UF":"AL"},"geometry":{"type":"Polygon","coordinates":[[[-36.11699489999995,-9.05498689999996],[-36.133114999999975,-9.123999499999968],[-36.11083329999997,-9.157083299999954],[-36.18358329999995,-9.200694399999975],[-36.200827799999956,-9.218758299999934],[-36.288553999999976,-9.183486499999958],[-36.285757099999955,-9.170078499999931],[-36.26244459999998,-9.171277299999929],[-36.25725479999994,-9.140148799999963],[-36.26839089999993,-9.10392429999996],[-36.23645769999996,-9.103489799999977],[-36.22246779999995,-9.086433599999964],[-36.22191249999997,-9.073302799999965],[-36.202796999999975,-9.066844899999978],[-36.19572759999994,-9.044786199999976],[-36.15172819999998,-9.04269439999996],[-36.12121089999994,-9.027867299999969],[-36.143741699999964,-9.06209999999993],[-36.11699489999995,-9.05498689999996]]]}},{"id":"1737","type":"Feature","properties":{"COD_IBGE":"2708204","MUNICIPIO":"São Brás","UF":"AL"},"geometry":{"type":"Polygon","coordinates":[[[-36.77004279999994,-10.124099099999967],[-36.85038549999996,-10.178447699999936],[-36.86994539999995,-10.147125399999936],[-36.91218379999998,-10.138237899999979],[-36.947411399999964,-10.074685999999929],[-36.87470689999998,-10.053593099999944],[-36.82166379999995,-10.074597499999982],[-36.813360699999976,-10.09183029999997],[-36.77004279999994,-10.124099099999967]]]}},{"id":"1738","type":"Feature","properties":{"COD_IBGE":"2708303","MUNICIPIO":"São José da Laje","UF":"AL"},"geometry":{"type":"Polygon","coordinates":[[[-36.02894089999995,-9.037054699999942],[-36.02453099999997,-9.054867299999955],[-36.04697089999996,-9.065086999999949],[-36.06229939999997,-9.058359199999927],[-36.093086599999936,-9.073264599999959],[-36.094000999999935,-9.058262999999954],[-36.11490919999994,-9.054186899999934],[-36.143555799999945,-9.062317999999948],[-36.10432819999994,-8.99892929999993],[-36.126810499999976,-8.981276299999934],[-36.12824899999998,-8.957717199999934],[-36.086410599999965,-8.944067399999938],[-36.06393499999996,-8.915337299999976],[-36.02641099999994,-8.907969099999946],[-36.00538389999997,-8.91300039999993],[-35.98836069999993,-8.90402469999998],[-35.953475399999945,-8.946618199999932],[-35.961598899999956,-8.959502199999974],[-35.95236829999993,-8.98842609999997],[-35.96146179999994,-8.996398499999941],[-35.954548699999975,-9.031046799999956],[-36.01770979999998,-9.046615699999961],[-36.02894089999995,-9.037054699999942]]]}},{"id":"1739","type":"Feature","properties":{"COD_IBGE":"2708402","MUNICIPIO":"São José da Tapera","UF":"AL"},"geometry":{"type":"Polygon","coordinates":[[[-37.31358009999997,-9.553149899999937],[-37.35657189999995,-9.637672899999927],[-37.46855899999997,-9.64992019999994],[-37.479396399999985,-9.62440429999998],[-37.53489589999998,-9.579972699999928],[-37.54019189999997,-9.565146999999968],[-37.569452199999944,-9.54765679999997],[-37.56326389999998,-9.519193599999937],[-37.571361199999956,-9.50529199999994],[-37.58175629999994,-9.514074599999958],[-37.617055499999935,-9.496566199999961],[-37.64275849999996,-9.52031169999998],[-37.65897239999998,-9.519776699999966],[-37.672531499999934,-9.535505099999966],[-37.673486999999966,-9.499749699999938],[-37.65960039999993,-9.485614399999974],[-37.66906809999995,-9.461163499999941],[-37.65565719999995,-9.411153999999954],[-37.446253799999965,-9.476340799999946],[-37.37312339999994,-9.524768699999981],[-37.31358009999997,-9.553149899999937]]]}},{"id":"1740","type":"Feature","properties":{"COD_IBGE":"2708501","MUNICIPIO":"São Luís do Quitunde","UF":"AL"},"geometry":{"type":"Polygon","coordinates":[[[-35.56736079999996,-9.265022999999928],[-35.51366759999996,-9.30772909999996],[-35.52023729999996,-9.323709599999972],[-35.516019599999936,-9.353871599999934],[-35.53604999999993,-9.346899999999948],[-35.561401699999976,-9.35823019999998],[-35.68648449999995,-9.37056629999995],[-35.69331969999996,-9.260256899999945],[-35.72481789999995,-9.124743399999943],[-35.675836999999945,-9.10030809999995],[-35.66682579999997,-9.108753799999931],[-35.65303989999995,-9.106702999999982],[-35.64998369999995,-9.120938399999943],[-35.638603399999965,-9.117989699999953],[-35.61804989999996,-9.13337009999998],[-35.59697649999998,-9.16748739999997],[-35.59783299999998,-9.187350999999978],[-35.589984699999945,-9.191483199999936],[-35.59717709999995,-9.22683619999998],[-35.56736079999996,-9.265022999999928]]]}},{"id":"1741","type":"Feature","properties":{"COD_IBGE":"2708600","MUNICIPIO":"São Miguel dos Campos","UF":"AL"},"geometry":{"type":"Polygon","coordinates":[[[-36.07389859999995,-9.700936399999932],[-36.06858319999998,-9.689101899999969],[-36.07940089999994,-9.68028279999993],[-36.07496669999995,-9.673519099999965],[-36.06257949999997,-9.688886499999967],[-36.03899499999994,-9.692472299999963],[-36.033424999999966,-9.701676999999961],[-35.98745969999993,-9.70336409999993],[-35.98930009999998,-9.738644399999941],[-36.02641699999998,-9.810492799999963],[-36.03963539999995,-9.815504199999964],[-36.04097929999995,-9.858364799999947],[-36.06591489999994,-9.882857799999954],[-36.12576249999995,-9.837657899999954],[-36.128274499999975,-9.828503999999953],[-36.14490939999996,-9.856844199999955],[-36.15626149999997,-9.859629799999936],[-36.18486199999995,-9.795594199999925],[-36.24714169999993,-9.732124799999951],[-36.07389859999995,-9.700936399999932]]]}},{"id":"1742","type":"Feature","properties":{"COD_IBGE":"2708709","MUNICIPIO":"São Miguel dos Milagres","UF":"AL"},"geometry":{"type":"Polygon","coordinates":[[[-35.359346899999935,-9.22924919999997],[-35.337938099999974,-9.232684499999948],[-35.35530749999998,-9.256887999999947],[-35.37628429999995,-9.279406999999935],[-35.39084399999996,-9.28430359999993],[-35.424165399999936,-9.24592679999995],[-35.46558719999996,-9.22448049999997],[-35.475780499999985,-9.190593599999943],[-35.42773599999998,-9.193870599999968],[-35.37795699999998,-9.209696399999928],[-35.359346899999935,-9.22924919999997]]]}},{"id":"1743","type":"Feature","properties":{"COD_IBGE":"2708808","MUNICIPIO":"São Sebastião","UF":"AL"},"geometry":{"type":"Polygon","coordinates":[[[-36.51092799999998,-10.042209699999944],[-36.644758399999944,-10.034415199999955],[-36.652142099999935,-10.01346849999993],[-36.64702969999996,-10.016965299999981],[-36.642308699999944,-10.008129399999973],[-36.650747999999965,-10.00319879999995],[-36.64288449999998,-9.992352099999948],[-36.64706499999994,-9.985979699999973],[-36.62718429999995,-9.978366199999925],[-36.63846309999997,-9.955342899999948],[-36.61352679999993,-9.951076599999965],[-36.61469109999996,-9.912093599999935],[-36.603411999999935,-9.90250709999998],[-36.604224199999976,-9.872649499999966],[-36.59130699999997,-9.871586999999977],[-36.58472079999996,-9.88131629999998],[-36.56320789999995,-9.874284299999943],[-36.54154009999996,-9.88180479999994],[-36.555443999999966,-9.850929999999948],[-36.55319909999997,-9.839080599999932],[-36.51550039999995,-9.859553099999971],[-36.50535679999996,-9.855487499999981],[-36.49655199999995,-9.866956799999969],[-36.49772009999998,-9.900768599999935],[-36.48613429999995,-9.927637299999958],[-36.470915599999955,-9.940063299999963],[-36.48011299999996,-9.961195799999928],[-36.47211479999993,-9.97419439999993],[-36.47441009999994,-9.999592999999948],[-36.48849269999994,-10.019616499999927],[-36.48351719999994,-10.02704129999995],[-36.45495189999997,-10.03226989999996],[-36.49145749999997,-10.071713599999953],[-36.50673169999993,-10.066048599999931],[-36.51092799999998,-10.042209699999944]]]}},{"id":"1744","type":"Feature","properties":{"COD_IBGE":"2708907","MUNICIPIO":"Satuba","UF":"AL"},"geometry":{"type":"Polygon","coordinates":[[[-35.79670379999993,-9.53152549999993],[-35.813743699999975,-9.579472599999974],[-35.825495699999976,-9.578446499999927],[-35.86764219999998,-9.626293999999973],[-35.88724259999998,-9.588838599999974],[-35.86962219999998,-9.571374999999932],[-35.84633939999998,-9.548378899999932],[-35.82730019999997,-9.550383299999964],[-35.79670379999993,-9.53152549999993]]]}},{"id":"1745","type":"Feature","properties":{"COD_IBGE":"2708956","MUNICIPIO":"Senador Rui Palmeira","UF":"AL"},"geometry":{"type":"Polygon","coordinates":[[[-37.446253799999965,-9.476340799999946],[-37.65436729999993,-9.409036399999934],[-37.61662759999996,-9.355768999999952],[-37.587746899999956,-9.29586839999996],[-37.51888669999994,-9.310247999999945],[-37.484162599999934,-9.344990799999948],[-37.44456909999997,-9.357616099999973],[-37.33959239999996,-9.41954549999997],[-37.43748889999995,-9.448338899999953],[-37.446253799999965,-9.476340799999946]]]}},{"id":"1746","type":"Feature","properties":{"COD_IBGE":"2709004","MUNICIPIO":"Tanque d'Arca","UF":"AL"},"geometry":{"type":"Polygon","coordinates":[[[-36.454252699999984,-9.58733449999994],[-36.48836389999997,-9.50219919999995],[-36.46922459999996,-9.485531599999945],[-36.45097539999995,-9.505271599999958],[-36.38482019999998,-9.510956999999962],[-36.375316399999974,-9.528143099999966],[-36.38338299999998,-9.541536699999938],[-36.37902319999995,-9.572559199999944],[-36.35039749999993,-9.592273999999975],[-36.392104899999936,-9.602904899999942],[-36.38860699999998,-9.628772899999944],[-36.38082919999994,-9.635367199999962],[-36.39416479999994,-9.648367599999972],[-36.40808569999996,-9.635843799999975],[-36.40079659999998,-9.619384599999933],[-36.41730039999993,-9.611113699999976],[-36.43364709999997,-9.616220799999951],[-36.454252699999984,-9.58733449999994]]]}},{"id":"1747","type":"Feature","properties":{"COD_IBGE":"2709103","MUNICIPIO":"Taquarana","UF":"AL"},"geometry":{"type":"Polygon","coordinates":[[[-36.49524829999996,-9.60388329999995],[-36.468989499999964,-9.606042399999978],[-36.46533339999996,-9.618339299999946],[-36.44583339999997,-9.605550899999969],[-36.43260449999997,-9.61655449999995],[-36.41130839999994,-9.613554699999952],[-36.399187799999936,-9.622513399999946],[-36.408036599999946,-9.635974899999951],[-36.38833069999998,-9.651681999999937],[-36.51018739999995,-9.692286699999954],[-36.52644289999995,-9.688109499999939],[-36.543831599999976,-9.627686799999935],[-36.574618999999984,-9.561165899999935],[-36.56571789999998,-9.559525999999948],[-36.555637399999966,-9.539327699999944],[-36.53787859999994,-9.532891999999947],[-36.49524829999996,-9.60388329999995]]]}},{"id":"1748","type":"Feature","properties":{"COD_IBGE":"2709152","MUNICIPIO":"Teotônio Vilela","UF":"AL"},"geometry":{"type":"Polygon","coordinates":[[[-36.39542609999995,-9.874430299999972],[-36.27788259999994,-9.892295199999978],[-36.28790989999993,-9.985342999999943],[-36.30466069999994,-10.031379699999945],[-36.45241219999997,-10.040318699999943],[-36.45619519999997,-10.029833399999973],[-36.484749299999976,-10.026516399999934],[-36.48796459999994,-10.016449299999977],[-36.47441009999994,-9.999592999999948],[-36.47209019999997,-9.974789699999974],[-36.479782099999966,-9.960521699999958],[-36.468858299999965,-9.971046099999967],[-36.44843199999997,-9.96040869999996],[-36.39542609999995,-9.874430299999972]]]}},{"id":"1749","type":"Feature","properties":{"COD_IBGE":"2709202","MUNICIPIO":"Traipu","UF":"AL"},"geometry":{"type":"Polygon","coordinates":[[[-36.955893499999945,-10.013417199999935],[-36.96538639999994,-9.98944899999998],[-36.99570309999996,-9.972444199999927],[-37.03308769999995,-9.98757859999995],[-37.06240479999997,-9.982519699999955],[-37.085939199999984,-9.951695799999982],[-37.13377989999998,-9.913765199999943],[-37.12547349999994,-9.892065399999979],[-37.11800779999993,-9.890021899999965],[-37.11830039999995,-9.873277499999972],[-37.10710009999997,-9.865312099999926],[-37.105478699999935,-9.847937499999944],[-37.036575099999936,-9.807081399999959],[-37.031868299999985,-9.787532099999964],[-36.99895959999998,-9.76363079999993],[-36.999780199999975,-9.728857999999946],[-36.98397279999995,-9.715134299999931],[-36.97547399999996,-9.69289509999993],[-36.884575799999936,-9.750957099999937],[-36.90129189999993,-9.779004399999963],[-36.899127799999974,-9.791139699999974],[-36.90681639999997,-9.790919299999928],[-36.91724599999998,-9.816711699999928],[-36.93512279999993,-9.828467299999943],[-36.93412719999998,-9.842019899999968],[-36.94953749999996,-9.858637399999964],[-36.92517179999993,-9.889419999999973],[-36.846615499999984,-9.931309599999963],[-36.81408069999998,-9.958501799999965],[-36.79819139999995,-9.958062999999981],[-36.810749699999974,-9.983528399999955],[-36.86159199999997,-10.027561899999966],[-36.87284129999995,-10.053050499999927],[-36.947411399999964,-10.074685999999929],[-36.95659859999995,-10.053733999999963],[-36.955893499999945,-10.013417199999935]]]}},{"id":"1750","type":"Feature","properties":{"COD_IBGE":"2709301","MUNICIPIO":"União dos Palmares","UF":"AL"},"geometry":{"type":"Polygon","coordinates":[[[-36.04697089999996,-9.065086999999949],[-36.024038099999984,-9.054232799999966],[-36.02894089999995,-9.037054699999942],[-36.01770979999998,-9.046615699999961],[-35.954548699999975,-9.031046799999956],[-35.945356999999944,-9.03637109999994],[-35.92584509999995,-9.032027399999947],[-35.88980229999993,-9.067818399999965],[-35.87899889999994,-9.054510599999958],[-35.860513399999945,-9.053490299999964],[-35.888571999999954,-9.138308399999971],[-36.05903879999994,-9.215957099999969],[-36.065539799999954,-9.206700799999965],[-36.088034799999946,-9.201244999999972],[-36.11385759999996,-9.208110699999963],[-36.12747759999996,-9.20152429999996],[-36.200827799999956,-9.218758299999934],[-36.18358329999995,-9.200694399999975],[-36.11083329999997,-9.157083299999954],[-36.133114999999975,-9.123999499999968],[-36.11699489999995,-9.05498689999996],[-36.091380699999945,-9.059037899999964],[-36.093086599999936,-9.073264599999959],[-36.071191899999974,-9.060730199999966],[-36.051125199999944,-9.058629999999937],[-36.04697089999996,-9.065086999999949]]]}},{"id":"1751","type":"Feature","properties":{"COD_IBGE":"2709400","MUNICIPIO":"Viçosa","UF":"AL"},"geometry":{"type":"Polygon","coordinates":[[[-36.15438469999998,-9.30535969999994],[-36.21113029999998,-9.452999999999975],[-36.30199079999994,-9.426130399999977],[-36.321555899999964,-9.432099199999925],[-36.32502069999998,-9.44335069999994],[-36.35068709999996,-9.448749499999963],[-36.33941549999997,-9.464575099999934],[-36.38936309999997,-9.42537859999993],[-36.37418359999998,-9.37454109999993],[-36.36658879999993,-9.38403569999997],[-36.36214069999994,-9.382875499999955],[-36.366090499999984,-9.36143119999997],[-36.33989209999993,-9.286711999999966],[-36.326584399999945,-9.284631799999943],[-36.32588919999995,-9.295922099999927],[-36.300995299999954,-9.302214999999933],[-36.29932689999998,-9.312392299999942],[-36.23677509999993,-9.291308499999957],[-36.200827799999956,-9.218758299999934],[-36.15438469999998,-9.30535969999994]]]}}]}