{"type":"FeatureCollection","features":[{"id":"5569","type":"Feature","properties":{"COD_IBGE":"5300108","MUNICIPIO":"Brasília","UF":"DF"},"geometry":{"type":"Polygon","coordinates":[[[-47.308504099999936,-16.049971399999947],[-48.277811199999974,-16.049597799999958],[-48.27242649999994,-16.008962699999927],[-48.250185499999986,-15.947596199999964],[-48.26085869999997,-15.928034199999956],[-48.27636419999993,-15.931237599999974],[-48.26952979999993,-15.917007299999966],[-48.27710909999996,-15.90744159999997],[-48.27164829999998,-15.883714999999938],[-48.285121499999946,-15.83677419999998],[-48.266713799999934,-15.806862599999931],[-48.24103619999994,-15.799256299999968],[-48.20968629999993,-15.754043999999965],[-48.20888409999998,-15.715361199999961],[-48.24057719999996,-15.706361499999957],[-48.241330999999946,-15.686706499999957],[-48.23416019999996,-15.641909099999964],[-48.21821539999996,-15.623335899999972],[-48.19972979999994,-15.62291399999998],[-48.200008999999966,-15.502278299999944],[-47.41840689999998,-15.50181989999993],[-47.417786699999965,-15.546258999999964],[-47.402765099999954,-15.54745639999993],[-47.37651669999997,-15.57666759999995],[-47.317919899999936,-15.589280499999973],[-47.33392939999993,-15.629582899999946],[-47.326603199999965,-15.652617999999961],[-47.33147199999996,-15.68350449999997],[-47.312489599999935,-15.697287099999926],[-47.32101679999994,-15.721261699999957],[-47.313045099999954,-15.742091999999957],[-47.35540549999996,-15.82344969999997],[-47.36741619999998,-15.828573499999948],[-47.371988699999974,-15.874079499999937],[-47.380700599999955,-15.881246699999963],[-47.374881899999934,-15.906919499999958],[-47.36552349999994,-15.909464299999968],[-47.369083899999964,-15.920556399999953],[-47.361206599999946,-15.925819099999956],[-47.37348369999995,-15.936789099999942],[-47.368474499999934,-15.947070099999962],[-47.37916829999995,-15.97384569999997],[-47.369272499999965,-16.00308089999993],[-47.33914069999997,-16.01233439999993],[-47.340831299999934,-16.01926009999994],[-47.310006199999975,-16.036273499999936],[-47.308504099999936,-16.049971399999947]]]}}]}