{"type":"FeatureCollection","features":[{"id":"1752","type":"Feature","properties":{"COD_IBGE":"2800100","MUNICIPIO":"Amparo do São Francisco","UF":"SE"},"geometry":{"type":"Polygon","coordinates":[[[-36.94342409999996,-10.227543899999944],[-36.93469169999997,-10.120659399999965],[-36.917965599999945,-10.12470479999996],[-36.911419199999955,-10.138782399999968],[-36.88257179999994,-10.147460399999943],[-36.94342409999996,-10.227543899999944]]]}},{"id":"1753","type":"Feature","properties":{"COD_IBGE":"2800209","MUNICIPIO":"Aquidabã","UF":"SE"},"geometry":{"type":"Polygon","coordinates":[[[-37.01659149999995,-10.19082409999993],[-36.99479429999997,-10.17760039999996],[-36.97159409999995,-10.204547799999943],[-36.961188799999945,-10.23566379999994],[-36.92902819999995,-10.22282869999998],[-36.95237369999995,-10.266520399999933],[-36.93372509999995,-10.27614589999996],[-36.95614619999998,-10.289979099999925],[-37.00934539999997,-10.302314599999931],[-37.01809099999997,-10.33210459999998],[-37.03820609999997,-10.326579299999935],[-37.05212329999995,-10.342258199999947],[-37.06636569999995,-10.330210499999964],[-37.10228809999995,-10.369553899999971],[-37.126218499999936,-10.374589499999956],[-37.13503179999998,-10.358208199999979],[-37.144143199999974,-10.366904399999953],[-37.15921519999995,-10.365871999999968],[-37.15304209999994,-10.346203599999967],[-37.16573299999993,-10.331479099999967],[-37.149271099999964,-10.32255669999995],[-37.15641379999994,-10.307537799999977],[-37.147190799999976,-10.303882199999975],[-37.15078659999995,-10.288887199999976],[-37.13785249999995,-10.274279499999977],[-37.14071579999995,-10.246328099999971],[-37.15099799999996,-10.235811699999942],[-37.13611519999995,-10.196516599999939],[-37.15429149999994,-10.187398599999938],[-37.150467499999934,-10.163167899999962],[-37.01659149999995,-10.19082409999993]]]}},{"id":"1754","type":"Feature","properties":{"COD_IBGE":"2800308","MUNICIPIO":"Aracaju","UF":"SE"},"geometry":{"type":"Polygon","coordinates":[[[-37.044486699999936,-10.904193299999974],[-37.035369199999934,-10.97984729999996],[-37.12573209999994,-11.10306739999993],[-37.15541969999998,-11.161120399999959],[-37.16553709999994,-11.143320199999948],[-37.16213069999998,-11.093816299999958],[-37.17348249999998,-11.078608199999962],[-37.15841539999997,-11.055655199999933],[-37.138593399999934,-11.061581199999978],[-37.091390399999966,-10.94096339999993],[-37.10751739999995,-10.90479739999995],[-37.10451249999994,-10.88679019999995],[-37.09672059999997,-10.885313699999926],[-37.10343339999997,-10.876641199999938],[-37.08278009999998,-10.862818199999936],[-37.06773879999997,-10.876752999999951],[-37.05245709999997,-10.86268169999994],[-37.03390899999994,-10.870083799999975],[-37.044486699999936,-10.904193299999974]]]}},{"id":"1755","type":"Feature","properties":{"COD_IBGE":"2800407","MUNICIPIO":"Arauá","UF":"SE"},"geometry":{"type":"MultiPolygon","coordinates":[[[[-37.67384329999993,-11.32217079999998],[-37.682475599999975,-11.312539399999935],[-37.67625659999993,-11.300536699999952],[-37.67384329999993,-11.32217079999998]]],[[[-37.65624749999995,-11.340418799999952],[-37.66587839999994,-11.345837199999949],[-37.677268699999956,-11.340928599999927],[-37.66486899999995,-11.332660499999974],[-37.65624749999995,-11.340418799999952]]],[[[-37.63592509999995,-11.340825099999961],[-37.63843389999994,-11.35553589999995],[-37.63906119999996,-11.355450899999937],[-37.63592509999995,-11.340825099999961]]],[[[-37.646598799999936,-11.324875899999938],[-37.66312099999993,-11.331752299999948],[-37.65144419999996,-11.32060789999997],[-37.646598799999936,-11.324875899999938]]],[[[-37.59895199999994,-11.341651099999979],[-37.66344079999993,-11.289965999999936],[-37.662321299999974,-11.25232159999996],[-37.67069969999994,-11.233915899999943],[-37.66069529999993,-11.21888279999996],[-37.596972499999936,-11.213594399999977],[-37.59653439999994,-11.203536499999927],[-37.546159899999964,-11.165854199999956],[-37.55620499999998,-11.179985299999942],[-37.534380399999975,-11.19008359999998],[-37.537274699999955,-11.220037899999966],[-37.524409799999944,-11.22685869999998],[-37.52592029999994,-11.254209999999944],[-37.50597559999994,-11.273284099999955],[-37.52922669999998,-11.305085499999961],[-37.548338299999955,-11.303858999999932],[-37.572022699999934,-11.32297269999998],[-37.59022619999996,-11.324911799999938],[-37.59895199999994,-11.341651099999979]]]]}},{"id":"1756","type":"Feature","properties":{"COD_IBGE":"2800506","MUNICIPIO":"Areia Branca","UF":"SE"},"geometry":{"type":"Polygon","coordinates":[[[-37.31621969999998,-10.740687299999934],[-37.28143709999995,-10.720226399999945],[-37.27252729999998,-10.752838399999973],[-37.24450859999996,-10.778383599999927],[-37.341470999999956,-10.848472299999969],[-37.37554959999994,-10.85263509999993],[-37.40352539999998,-10.844551499999966],[-37.40693399999998,-10.83217129999997],[-37.361715699999934,-10.738504599999942],[-37.33632209999996,-10.721795499999928],[-37.31013369999994,-10.729498999999976],[-37.31621969999998,-10.740687299999934]]]}},{"id":"1757","type":"Feature","properties":{"COD_IBGE":"2800605","MUNICIPIO":"Barra dos Coqueiros","UF":"SE"},"geometry":{"type":"MultiPolygon","coordinates":[[[[-37.01739859999998,-10.876256999999953],[-37.015696899999966,-10.864014299999951],[-36.98256239999995,-10.84818619999993],[-36.98781349999996,-10.837055299999975],[-36.98405919999993,-10.831886099999963],[-36.96843839999997,-10.832885999999974],[-36.959175399999936,-10.807266399999946],[-36.938423099999966,-10.79532439999997],[-36.93732239999997,-10.787272499999972],[-36.928084799999965,-10.790174099999945],[-36.89941799999997,-10.77257149999997],[-36.87624189999997,-10.73818499999993],[-36.852746699999955,-10.744225699999959],[-36.95305989999997,-10.851513499999953],[-37.03462019999995,-10.957298499999979],[-37.04349259999998,-10.889751399999966],[-37.01739859999998,-10.876256999999953]]],[[[-36.917008899999985,-10.841970499999945],[-36.918538499999954,-10.846241799999973],[-36.919493899999964,-10.846611199999927],[-36.917008899999985,-10.841970499999945]]]]}},{"id":"1758","type":"Feature","properties":{"COD_IBGE":"2800670","MUNICIPIO":"Boquim","UF":"SE"},"geometry":{"type":"Polygon","coordinates":[[[-37.59653439999994,-11.203536499999927],[-37.638379199999974,-11.198704599999928],[-37.670411899999976,-11.18302639999996],[-37.679854199999966,-11.189707799999951],[-37.69146219999993,-11.171237599999927],[-37.70454739999997,-11.191816099999926],[-37.700179899999966,-11.182902899999931],[-37.706790499999954,-11.17431659999994],[-37.64671979999997,-11.126199199999974],[-37.649545699999976,-11.108879199999933],[-37.633027899999945,-11.08145449999995],[-37.62373379999997,-11.088126099999954],[-37.61192209999996,-11.079901999999947],[-37.62241899999998,-11.067475299999955],[-37.565151399999934,-11.040051799999958],[-37.56851329999995,-11.025457499999959],[-37.53100799999993,-10.996222299999943],[-37.528722899999934,-11.05388789999995],[-37.553087199999936,-11.140113699999972],[-37.54092459999998,-11.142624999999953],[-37.54399979999994,-11.153468099999941],[-37.554417299999955,-11.153340399999934],[-37.546159899999964,-11.165854199999956],[-37.59653439999994,-11.203536499999927]]]}},{"id":"1759","type":"Feature","properties":{"COD_IBGE":"2800704","MUNICIPIO":"Brejo Grande","UF":"SE"},"geometry":{"type":"Polygon","coordinates":[[[-36.49941279999996,-10.512985999999955],[-36.585562599999946,-10.499783099999945],[-36.52851209999994,-10.466398399999946],[-36.51132249999995,-10.445571299999926],[-36.48409729999997,-10.437160399999925],[-36.48941069999995,-10.424527299999966],[-36.45985919999998,-10.409475199999974],[-36.427628599999935,-10.433514699999932],[-36.39594079999995,-10.496872199999927],[-36.40879879999994,-10.512692399999935],[-36.49032189999997,-10.53764179999996],[-36.49767669999994,-10.53846509999994],[-36.48464029999997,-10.52862289999996],[-36.49941279999996,-10.512985999999955]]]}},{"id":"1760","type":"Feature","properties":{"COD_IBGE":"2801009","MUNICIPIO":"Campo do Brito","UF":"SE"},"geometry":{"type":"Polygon","coordinates":[[[-37.52431199999995,-10.81983889999998],[-37.51607619999993,-10.798962199999949],[-37.53011879999997,-10.790822999999932],[-37.52716359999994,-10.785167199999933],[-37.55788199999995,-10.78155529999998],[-37.564972299999965,-10.770741399999963],[-37.560018799999966,-10.757324599999947],[-37.587972399999956,-10.722219799999948],[-37.59504439999995,-10.695715999999948],[-37.58648919999996,-10.680892799999981],[-37.55020499999995,-10.697667199999955],[-37.53307859999995,-10.68902909999997],[-37.50079739999995,-10.688530999999955],[-37.46295939999993,-10.712613699999963],[-37.45031179999995,-10.73901049999995],[-37.45158109999994,-10.770109599999955],[-37.44013159999997,-10.780568999999957],[-37.44913989999998,-10.789723699999968],[-37.431411999999966,-10.831315999999958],[-37.40216189999995,-10.824972699999933],[-37.45576969999996,-10.88174799999996],[-37.47005889999997,-10.851619099999937],[-37.48278669999996,-10.857507599999963],[-37.47931569999997,-10.840672299999937],[-37.52431199999995,-10.81983889999998]]]}},{"id":"1761","type":"Feature","properties":{"COD_IBGE":"2801108","MUNICIPIO":"Canhoba","UF":"SE"},"geometry":{"type":"Polygon","coordinates":[[[-36.96255959999996,-10.231565899999964],[-36.97159409999995,-10.204547799999943],[-36.99479429999997,-10.17760039999996],[-37.01690259999998,-10.191012899999976],[-37.15038339999995,-10.163119799999947],[-37.047199199999966,-10.124568999999951],[-37.039273599999945,-10.137338099999965],[-36.990886699999976,-10.085129199999926],[-36.948377799999946,-10.069578299999932],[-36.94569549999994,-10.087362799999937],[-36.93095669999997,-10.098075999999935],[-36.917965599999945,-10.12470479999996],[-36.93469169999997,-10.120659399999965],[-36.94342409999996,-10.227543899999944],[-36.96255959999996,-10.231565899999964]]]}},{"id":"1762","type":"Feature","properties":{"COD_IBGE":"2801207","MUNICIPIO":"Canindé de São Francisco","UF":"SE"},"geometry":{"type":"Polygon","coordinates":[[[-37.670391999999936,-9.655979199999933],[-37.78646229999998,-9.81403599999993],[-37.81300399999998,-9.794822899999929],[-37.85458819999997,-9.78440889999996],[-37.86955729999994,-9.840899599999943],[-37.87242329999998,-9.881867899999975],[-37.86552439999997,-9.896192699999972],[-37.877125399999954,-9.90854909999996],[-37.90205699999996,-9.918925699999932],[-37.90793329999997,-9.910743899999943],[-37.94452919999998,-9.943222899999967],[-37.97502949999995,-9.93692969999995],[-37.98417999999998,-9.917867199999932],[-37.996754599999974,-9.918660199999977],[-38.00350009999994,-9.905513799999937],[-37.99418149999997,-9.901391899999965],[-37.99409939999998,-9.880705699999965],[-38.01397959999997,-9.857267799999931],[-38.00226199999997,-9.857074199999943],[-37.99544419999995,-9.846078699999964],[-38.00306939999996,-9.838801299999943],[-37.99997049999996,-9.81432609999996],[-38.01862829999993,-9.801971599999945],[-38.01797229999994,-9.783480199999929],[-38.03253659999996,-9.77027499999997],[-38.044044499999984,-9.71871049999993],[-38.04494549999998,-9.696863099999973],[-38.03430009999994,-9.686716099999956],[-38.03221919999993,-9.66068649999994],[-38.008961399999976,-9.649058299999979],[-38.037188199999946,-9.62804749999998],[-38.05562349999997,-9.632201399999929],[-38.052547199999935,-9.605276999999944],[-38.061005499999965,-9.587529599999925],[-38.03794799999997,-9.58197279999996],[-38.037251099999935,-9.569213399999967],[-38.027004699999964,-9.573856999999975],[-38.01936669999998,-9.562954299999944],[-38.02261639999995,-9.540664799999945],[-38.00328989999997,-9.515029899999945],[-37.98933019999998,-9.52735869999998],[-37.92242969999995,-9.547835299999974],[-37.89246549999996,-9.539796799999976],[-37.837536899999975,-9.583282599999961],[-37.83311059999994,-9.59488639999995],[-37.81824829999994,-9.592893899999979],[-37.78612679999998,-9.638913099999968],[-37.738319399999966,-9.625735899999938],[-37.70947479999995,-9.63029899999998],[-37.670391999999936,-9.655979199999933]]]}},{"id":"1763","type":"Feature","properties":{"COD_IBGE":"2801306","MUNICIPIO":"Capela","UF":"SE"},"geometry":{"type":"Polygon","coordinates":[[[-37.07260669999994,-10.56100159999994],[-37.065031499999975,-10.530476599999929],[-37.10242699999998,-10.530588699999953],[-37.10271529999994,-10.506149599999958],[-37.11440639999995,-10.482479099999978],[-37.13866939999997,-10.470131399999957],[-37.13712909999998,-10.45375359999997],[-37.118727999999976,-10.441477199999952],[-37.10842159999993,-10.419049899999948],[-37.118492999999944,-10.41118229999995],[-37.10738379999998,-10.398943199999962],[-37.11925189999994,-10.399219899999935],[-37.118357799999956,-10.38770299999993],[-37.13274859999996,-10.382732199999964],[-37.119089299999985,-10.368247499999939],[-37.10228809999995,-10.369553899999971],[-37.06636569999995,-10.330210499999964],[-37.05212329999995,-10.342258199999947],[-37.03820609999997,-10.326579299999935],[-37.016665699999976,-10.332552999999962],[-37.001611399999945,-10.327620299999978],[-36.99533349999996,-10.358401499999957],[-36.97766869999998,-10.372703099999967],[-36.98690949999997,-10.384073799999953],[-36.98083969999993,-10.394339599999967],[-36.98525989999996,-10.402987799999948],[-36.96128519999996,-10.442272999999943],[-36.935004299999946,-10.449495899999931],[-36.95635009999995,-10.523737299999937],[-36.97777279999997,-10.53019379999995],[-36.97552939999997,-10.54163509999995],[-37.01126059999996,-10.641301699999929],[-37.07182199999994,-10.61506879999996],[-37.06431089999995,-10.603842199999974],[-37.06704949999994,-10.589780799999971],[-37.07697889999997,-10.584223599999973],[-37.068506799999966,-10.573012999999946],[-37.07260669999994,-10.56100159999994]]]}},{"id":"1764","type":"Feature","properties":{"COD_IBGE":"2801405","MUNICIPIO":"Carira","UF":"SE"},"geometry":{"type":"Polygon","coordinates":[[[-37.69618139999994,-10.207433799999933],[-37.67412429999996,-10.206249799999966],[-37.61283229999998,-10.24913319999996],[-37.60656959999994,-10.239526099999978],[-37.60009429999997,-10.242898399999945],[-37.59660749999995,-10.25048099999998],[-37.61143109999995,-10.277494199999978],[-37.57784929999997,-10.329116299999953],[-37.57553119999994,-10.370549099999948],[-37.624692599999946,-10.41215939999995],[-37.681077399999936,-10.480862499999944],[-37.72878599999996,-10.515525099999934],[-37.77321869999997,-10.506749599999978],[-37.81534489999996,-10.517328999999961],[-37.820986999999946,-10.483640099999946],[-37.859609199999966,-10.427119799999957],[-37.852754999999945,-10.425189799999941],[-37.85310899999996,-10.40627749999993],[-37.83754149999993,-10.401101499999982],[-37.841100799999936,-10.390163599999937],[-37.833095399999934,-10.38533949999993],[-37.839047999999934,-10.378820399999938],[-37.79899709999995,-10.36338539999997],[-37.78515539999995,-10.345569499999954],[-37.743312799999956,-10.338390699999934],[-37.745124799999985,-10.31358389999997],[-37.76866199999995,-10.28919609999997],[-37.75038269999993,-10.289499099999944],[-37.74885969999997,-10.264323599999955],[-37.765679499999976,-10.25186739999998],[-37.74709079999997,-10.238072699999975],[-37.76568109999994,-10.196044899999947],[-37.74855679999996,-10.198505199999943],[-37.71843259999997,-10.18766869999996],[-37.70094099999994,-10.192936399999951],[-37.69618139999994,-10.207433799999933]]]}},{"id":"1765","type":"Feature","properties":{"COD_IBGE":"2801504","MUNICIPIO":"Carmópolis","UF":"SE"},"geometry":{"type":"Polygon","coordinates":[[[-36.916633299999944,-10.685568699999976],[-37.01131549999997,-10.67576269999995],[-37.01126059999996,-10.641301699999929],[-36.968889299999944,-10.63095629999998],[-36.96259839999993,-10.648340399999938],[-36.93295429999995,-10.654105799999968],[-36.928662299999985,-10.671258099999932],[-36.90943519999996,-10.67679759999993],[-36.89978619999994,-10.69264329999993],[-36.91216209999993,-10.705019199999981],[-36.92018759999996,-10.701034399999969],[-36.916633299999944,-10.685568699999976]]]}},{"id":"1766","type":"Feature","properties":{"COD_IBGE":"2801603","MUNICIPIO":"Cedro de São João","UF":"SE"},"geometry":{"type":"Polygon","coordinates":[[[-36.844449699999984,-10.261903599999926],[-36.88620099999997,-10.300824099999943],[-36.90266269999995,-10.324211499999933],[-36.93588439999996,-10.306681099999935],[-36.93372509999995,-10.27614589999996],[-36.95237369999995,-10.266520399999933],[-36.92902819999995,-10.22282869999998],[-36.86770889999997,-10.228198599999928],[-36.84850099999994,-10.24027579999995],[-36.844449699999984,-10.261903599999926]]]}},{"id":"1767","type":"Feature","properties":{"COD_IBGE":"2801702","MUNICIPIO":"Cristinápolis","UF":"SE"},"geometry":{"type":"Polygon","coordinates":[[[-37.711603099999934,-11.552947699999947],[-37.72696159999998,-11.553467199999943],[-37.730416599999955,-11.53801539999995],[-37.749360999999965,-11.53862769999995],[-37.75923919999997,-11.52528419999993],[-37.77044779999994,-11.531998999999928],[-37.77434789999995,-11.524976599999945],[-37.81228859999993,-11.517019999999945],[-37.819294999999954,-11.501146699999936],[-37.80817779999995,-11.496733199999937],[-37.83237399999996,-11.483914899999945],[-37.807919899999945,-11.454579599999931],[-37.80916229999997,-11.435648299999968],[-37.78716129999998,-11.42367719999993],[-37.78770339999994,-11.412093099999936],[-37.771734599999945,-11.416201999999942],[-37.75099979999993,-11.399930799999936],[-37.74730079999995,-11.411488199999951],[-37.72253089999998,-11.399142099999949],[-37.67577899999998,-11.446551099999965],[-37.675220499999966,-11.47490449999998],[-37.66007459999997,-11.484695099999954],[-37.65302729999996,-11.47871559999993],[-37.64873509999995,-11.499973499999953],[-37.637089999999944,-11.50172379999998],[-37.63227869999997,-11.518127399999969],[-37.643604299999936,-11.524415399999953],[-37.65033829999993,-11.516443799999934],[-37.65344989999994,-11.529506799999979],[-37.66420019999998,-11.531960799999979],[-37.66132969999995,-11.546167199999957],[-37.673013699999956,-11.568566699999963],[-37.69991379999993,-11.562415199999975],[-37.69545229999994,-11.549561899999958],[-37.70245989999995,-11.540194699999972],[-37.711603099999934,-11.552947699999947]]]}},{"id":"1768","type":"Feature","properties":{"COD_IBGE":"2801900","MUNICIPIO":"Cumbe","UF":"SE"},"geometry":{"type":"Polygon","coordinates":[[[-37.17557519999997,-10.414334599999961],[-37.206975299999954,-10.40374369999995],[-37.239729299999965,-10.359646699999928],[-37.24921109999997,-10.320740999999941],[-37.23541629999994,-10.30606279999995],[-37.24147279999994,-10.287371699999937],[-37.25608719999997,-10.280218899999966],[-37.25818409999994,-10.268233599999974],[-37.292905099999984,-10.255811999999935],[-37.26765729999994,-10.239388099999928],[-37.26121239999998,-10.238375099999928],[-37.24332489999995,-10.261325599999964],[-37.22522989999993,-10.296876899999972],[-37.20031209999996,-10.29615309999997],[-37.17229679999997,-10.310948399999972],[-37.16679379999994,-10.327595799999926],[-37.17380829999996,-10.339538499999946],[-37.15304209999994,-10.346203599999967],[-37.15968349999997,-10.365307799999925],[-37.144143199999974,-10.366904399999953],[-37.13503179999998,-10.358208199999979],[-37.12503699999996,-10.374993999999958],[-37.13266349999998,-10.383338899999956],[-37.118357799999956,-10.38770299999993],[-37.116718599999956,-10.40082719999998],[-37.11555839999994,-10.398325799999952],[-37.10725599999995,-10.399219899999935],[-37.114930399999935,-10.408874099999935],[-37.132961499999965,-10.405595799999958],[-37.14468069999998,-10.419411799999978],[-37.157677099999944,-10.410672999999974],[-37.17557519999997,-10.414334599999961]]]}},{"id":"1769","type":"Feature","properties":{"COD_IBGE":"2802007","MUNICIPIO":"Divina Pastora","UF":"SE"},"geometry":{"type":"Polygon","coordinates":[[[-37.20587219999993,-10.704217699999958],[-37.17904589999995,-10.652548099999933],[-37.18006769999994,-10.641222199999959],[-37.19458309999993,-10.625446199999942],[-37.20381759999998,-10.627289299999973],[-37.207271299999945,-10.607593299999962],[-37.17790139999994,-10.625476499999934],[-37.15049589999995,-10.620849199999952],[-37.15890449999995,-10.627789099999973],[-37.14338279999998,-10.625229899999965],[-37.146028799999954,-10.63644899999997],[-37.134081599999945,-10.651194199999964],[-37.09274439999996,-10.638290599999948],[-37.08839169999993,-10.64705349999997],[-37.12155819999998,-10.70273119999996],[-37.14256709999995,-10.700470399999972],[-37.154062099999976,-10.726319299999943],[-37.15106089999995,-10.738545699999975],[-37.16137079999993,-10.751420999999937],[-37.15985959999995,-10.735497499999951],[-37.17111179999995,-10.733863399999962],[-37.16638919999997,-10.726699499999938],[-37.17914639999998,-10.717461399999934],[-37.19182889999996,-10.728300099999956],[-37.207129099999975,-10.724605099999962],[-37.19828579999995,-10.720304899999974],[-37.20587219999993,-10.704217699999958]]]}},{"id":"1770","type":"Feature","properties":{"COD_IBGE":"2802106","MUNICIPIO":"Estância","UF":"SE"},"geometry":{"type":"Polygon","coordinates":[[[-37.37812169999995,-11.340336799999932],[-37.407271099999946,-11.301242299999956],[-37.42569219999996,-11.30814769999995],[-37.44274809999996,-11.29461379999998],[-37.46178269999996,-11.311165199999948],[-37.52325909999996,-11.299293299999931],[-37.50597559999994,-11.273284099999955],[-37.52592029999994,-11.254209999999944],[-37.524409799999944,-11.22685869999998],[-37.537274699999955,-11.220037899999966],[-37.534380399999975,-11.19008359999998],[-37.55620499999998,-11.179985299999942],[-37.546159899999964,-11.165854199999956],[-37.45897699999995,-11.146329999999978],[-37.434322899999984,-11.12021059999995],[-37.439138499999956,-11.113976699999967],[-37.430061499999965,-11.10679689999995],[-37.43820729999993,-11.087003299999935],[-37.38881219999996,-11.052964299999928],[-37.33556479999993,-11.116235399999937],[-37.33935299999996,-11.129791999999952],[-37.33128719999996,-11.142071599999952],[-37.349664099999984,-11.196872499999927],[-37.33153189999996,-11.210737699999981],[-37.32916959999994,-11.236669699999936],[-37.26016489999995,-11.28958289999997],[-37.29968469999994,-11.363684399999954],[-37.31221789999995,-11.422991099999933],[-37.337909699999955,-11.442824599999938],[-37.35525529999995,-11.443699299999935],[-37.36769179999993,-11.458626099999947],[-37.39960979999995,-11.436575999999945],[-37.409713099999976,-11.419107499999939],[-37.404219599999976,-11.387538999999947],[-37.389403899999934,-11.371998499999961],[-37.388666099999966,-11.354962899999975],[-37.37812169999995,-11.340336799999932]]]}},{"id":"1771","type":"Feature","properties":{"COD_IBGE":"2802205","MUNICIPIO":"Feira Nova","UF":"SE"},"geometry":{"type":"Polygon","coordinates":[[[-37.34364539999996,-10.385520499999927],[-37.35617759999997,-10.366552799999965],[-37.344521999999984,-10.357806099999948],[-37.349562799999944,-10.346548999999982],[-37.359006799999975,-10.344935199999952],[-37.35633699999994,-10.333598399999971],[-37.37347169999998,-10.330011999999954],[-37.37829329999994,-10.315905799999939],[-37.39170219999994,-10.317081299999927],[-37.38478859999998,-10.298392499999977],[-37.39576809999994,-10.288438499999927],[-37.38965179999997,-10.27396529999993],[-37.39839249999994,-10.254841699999929],[-37.38395049999997,-10.21917469999994],[-37.35539149999994,-10.20843259999998],[-37.261283499999934,-10.238382899999976],[-37.292905099999984,-10.255811999999935],[-37.25818409999994,-10.268233599999974],[-37.239524899999935,-10.297185599999978],[-37.29541709999995,-10.319846899999959],[-37.325923099999955,-10.374663999999939],[-37.344379999999944,-10.378729999999962],[-37.34364539999996,-10.385520499999927]]]}},{"id":"1772","type":"Feature","properties":{"COD_IBGE":"2802304","MUNICIPIO":"Frei Paulo","UF":"SE"},"geometry":{"type":"Polygon","coordinates":[[[-37.55831799999993,-10.444054699999981],[-37.47450089999995,-10.566459099999975],[-37.50945999999993,-10.626231999999959],[-37.53046109999997,-10.645798599999978],[-37.55857469999995,-10.619450799999981],[-37.64121009999997,-10.604552999999953],[-37.68856089999997,-10.53191709999993],[-37.722649899999965,-10.51007089999996],[-37.681077399999936,-10.480862499999944],[-37.624692599999946,-10.41215939999995],[-37.57553119999994,-10.370549099999948],[-37.55831799999993,-10.444054699999981]]]}},{"id":"1773","type":"Feature","properties":{"COD_IBGE":"2802403","MUNICIPIO":"Gararu","UF":"SE"},"geometry":{"type":"Polygon","coordinates":[[[-37.006705299999965,-10.037679699999956],[-37.029783899999984,-10.056937499999947],[-37.06202399999995,-10.061547299999972],[-37.10267969999995,-10.051012399999934],[-37.13843879999996,-10.056902499999978],[-37.17312179999993,-10.04937949999993],[-37.18032909999994,-10.034538699999928],[-37.19694939999994,-10.025694299999941],[-37.18712519999997,-10.039005799999927],[-37.192560399999934,-10.051944499999934],[-37.18444359999995,-10.054986699999972],[-37.19786329999994,-10.069151999999974],[-37.186355599999956,-10.066422299999942],[-37.18413099999998,-10.073432799999978],[-37.19946259999995,-10.081116599999973],[-37.212281099999984,-10.077473099999963],[-37.205114299999934,-10.095859099999927],[-37.21800489999998,-10.090014999999937],[-37.21533139999997,-10.103399699999954],[-37.22923599999996,-10.10045249999996],[-37.23094359999993,-10.117082799999935],[-37.220091999999966,-10.113620699999956],[-37.22679499999998,-10.119992799999977],[-37.21829349999996,-10.131127799999945],[-37.22359639999996,-10.133171999999945],[-37.22057449999994,-10.15537089999998],[-37.23878659999997,-10.158870899999954],[-37.24652819999994,-10.147391999999968],[-37.27946719999994,-10.17125459999994],[-37.28216639999994,-10.158055199999978],[-37.297263999999984,-10.154762799999958],[-37.314941999999974,-10.154287999999951],[-37.336936299999934,-10.169965399999967],[-37.345412299999964,-10.166038899999933],[-37.334419999999966,-10.125010499999973],[-37.384778799999935,-10.095244899999955],[-37.380109999999945,-10.083987199999967],[-37.41976609999995,-10.061693599999955],[-37.382407899999976,-10.038013199999966],[-37.38472639999998,-10.030376599999954],[-37.37519979999996,-10.025088299999936],[-37.37972999999994,-10.020744399999955],[-37.37231039999995,-10.021049299999959],[-37.37948739999996,-10.009957499999928],[-37.35108989999998,-10.014338299999963],[-37.35161809999994,-9.994236299999955],[-37.34108549999996,-9.99839959999997],[-37.33738829999993,-9.986282599999981],[-37.327570299999934,-10.009336099999928],[-37.33204429999995,-10.015891799999963],[-37.30625669999995,-9.999487099999953],[-37.29354929999994,-10.015860699999962],[-37.28534689999998,-10.008124399999929],[-37.283762399999944,-9.98901669999998],[-37.264841099999956,-9.993024599999956],[-37.27071319999993,-9.962110499999937],[-37.234062499999936,-9.958472799999981],[-37.226251299999944,-9.897716899999978],[-37.16518689999998,-9.893363199999953],[-37.11388589999996,-9.92562339999995],[-37.06240479999997,-9.982519699999955],[-37.03308769999995,-9.98757859999995],[-36.99637119999994,-9.972374599999966],[-36.96672309999997,-9.988130199999944],[-36.95345409999993,-10.022819599999934],[-37.006705299999965,-10.037679699999956]]]}},{"id":"1774","type":"Feature","properties":{"COD_IBGE":"2802502","MUNICIPIO":"General Maynard","UF":"SE"},"geometry":{"type":"Polygon","coordinates":[[[-37.01131549999997,-10.67576269999995],[-36.916633299999944,-10.685568699999976],[-36.94988399999994,-10.71273519999994],[-36.96125999999998,-10.70400989999996],[-36.99451669999996,-10.702520499999935],[-37.01642009999995,-10.68483539999994],[-37.01131549999997,-10.67576269999995]]]}},{"id":"1775","type":"Feature","properties":{"COD_IBGE":"2802601","MUNICIPIO":"Graccho Cardoso","UF":"SE"},"geometry":{"type":"Polygon","coordinates":[[[-37.14964759999998,-10.239908299999968],[-37.14071579999995,-10.246328099999971],[-37.13785249999995,-10.274279499999977],[-37.15078659999995,-10.288887199999976],[-37.147190799999976,-10.303882199999975],[-37.15641379999994,-10.307537799999977],[-37.149271099999964,-10.32255669999995],[-37.16573299999993,-10.331479099999967],[-37.168028499999934,-10.342242099999964],[-37.175010999999984,-10.334705999999926],[-37.16679379999994,-10.327595799999926],[-37.17229679999997,-10.310948399999972],[-37.20031209999996,-10.29615309999997],[-37.22323949999998,-10.298345799999936],[-37.26121239999998,-10.238375099999928],[-37.332021399999974,-10.210961999999938],[-37.33640479999997,-10.199201799999969],[-37.31979869999998,-10.179530499999942],[-37.314941999999974,-10.154287999999951],[-37.285369799999955,-10.155845499999941],[-37.278814599999976,-10.171180399999969],[-37.24531209999998,-10.147080499999959],[-37.23878659999997,-10.158870899999954],[-37.22166039999996,-10.156704599999955],[-37.21843779999995,-10.135871599999973],[-37.20340679999998,-10.147487599999977],[-37.20476559999997,-10.157756699999936],[-37.19490519999994,-10.163360299999965],[-37.19076869999998,-10.157780799999955],[-37.181088699999975,-10.174435199999948],[-37.150467499999934,-10.163167899999962],[-37.15429149999994,-10.187398599999938],[-37.13611519999995,-10.196516599999939],[-37.14844339999996,-10.216971599999965],[-37.14964759999998,-10.239908299999968]]]}},{"id":"1776","type":"Feature","properties":{"COD_IBGE":"2802700","MUNICIPIO":"Ilha das Flores","UF":"SE"},"geometry":{"type":"Polygon","coordinates":[[[-36.48803209999994,-10.427804999999978],[-36.48409729999997,-10.437160399999925],[-36.51132249999995,-10.445571299999926],[-36.52851209999994,-10.466398399999946],[-36.58311039999995,-10.49923229999996],[-36.600149399999964,-10.496842499999957],[-36.59192369999994,-10.482103199999926],[-36.60011439999994,-10.478272199999935],[-36.59538669999995,-10.449038499999972],[-36.58629369999994,-10.451566199999945],[-36.58219059999993,-10.437672599999928],[-36.56600769999994,-10.432280499999933],[-36.562028699999985,-10.415654399999937],[-36.53507369999994,-10.43028449999997],[-36.48803209999994,-10.427804999999978]]]}},{"id":"1777","type":"Feature","properties":{"COD_IBGE":"2802809","MUNICIPIO":"Indiaroba","UF":"SE"},"geometry":{"type":"Polygon","coordinates":[[[-37.36769179999993,-11.458626099999947],[-37.45548869999993,-11.523138299999971],[-37.50475049999994,-11.524910099999943],[-37.51918999999998,-11.549017599999956],[-37.557068399999935,-11.551453099999947],[-37.56825729999997,-11.538428799999963],[-37.57855009999997,-11.552178899999944],[-37.58599639999994,-11.541374299999973],[-37.58145919999998,-11.530558999999926],[-37.59026899999998,-11.52849509999993],[-37.60450369999995,-11.540286199999969],[-37.628604199999984,-11.529343199999971],[-37.637089999999944,-11.50172379999998],[-37.64595589999993,-11.503646699999933],[-37.65270849999996,-11.482575699999927],[-37.60236379999998,-11.38886359999998],[-37.558449199999984,-11.414089199999978],[-37.522695099999964,-11.422142299999962],[-37.507162799999946,-11.41402979999998],[-37.49529099999995,-11.441750599999978],[-37.477324899999985,-11.450080699999944],[-37.44731879999995,-11.442299699999978],[-37.441566499999965,-11.426347299999975],[-37.42114129999993,-11.430229899999972],[-37.40870639999997,-11.423865699999965],[-37.36769179999993,-11.458626099999947]]]}},{"id":"1778","type":"Feature","properties":{"COD_IBGE":"2802908","MUNICIPIO":"Itabaiana","UF":"SE"},"geometry":{"type":"Polygon","coordinates":[[[-37.45974519999993,-10.594309899999928],[-37.42264439999997,-10.576290799999981],[-37.391873799999985,-10.584258499999976],[-37.38836749999996,-10.628837199999964],[-37.380692599999975,-10.631038399999966],[-37.379484899999966,-10.623285599999974],[-37.369316599999934,-10.629587199999946],[-37.35483359999995,-10.656907199999978],[-37.32890389999994,-10.653676399999938],[-37.32047329999995,-10.692159499999946],[-37.330952699999955,-10.718263499999978],[-37.361715699999934,-10.738504599999942],[-37.40216189999995,-10.824972699999933],[-37.431411999999966,-10.831315999999958],[-37.44913989999998,-10.789723699999968],[-37.440015399999936,-10.781783699999949],[-37.45183499999996,-10.769221099999982],[-37.455160699999965,-10.724108399999977],[-37.500301399999955,-10.692163199999982],[-37.53046109999997,-10.645798599999978],[-37.50945999999993,-10.626231999999959],[-37.47450089999995,-10.566459099999975],[-37.45974519999993,-10.594309899999928]]]}},{"id":"1779","type":"Feature","properties":{"COD_IBGE":"2803005","MUNICIPIO":"Itabaianinha","UF":"SE"},"geometry":{"type":"Polygon","coordinates":[[[-37.78440869999997,-11.373698199999978],[-37.79162859999997,-11.347324399999934],[-37.81494959999998,-11.331556699999965],[-37.81765409999997,-11.319787599999927],[-37.82914509999995,-11.320196199999941],[-37.84956949999997,-11.297948599999927],[-37.86314239999996,-11.29979099999997],[-37.87078559999998,-11.284260399999937],[-37.87862299999995,-11.288644499999975],[-37.89961459999995,-11.275292999999976],[-37.91693589999994,-11.28918779999998],[-37.93619309999997,-11.26978159999993],[-37.90479259999995,-11.221955099999946],[-37.88618999999994,-11.212709999999959],[-37.867457599999966,-11.221326099999942],[-37.87637999999998,-11.186590199999955],[-37.846496799999954,-11.160761199999968],[-37.79344119999996,-11.132974399999966],[-37.77726389999998,-11.131726599999979],[-37.757313299999964,-11.148854699999958],[-37.736649599999964,-11.149835099999962],[-37.72699369999998,-11.164913199999944],[-37.71799139999996,-11.161956999999973],[-37.703507499999944,-11.177391599999964],[-37.70557239999994,-11.191310999999928],[-37.689662399999975,-11.203581499999927],[-37.67740679999997,-11.234703199999956],[-37.66350969999996,-11.247330199999965],[-37.66344079999993,-11.289965999999936],[-37.69211729999995,-11.308128999999951],[-37.69220919999998,-11.365834199999938],[-37.73615939999996,-11.408190399999967],[-37.74730079999995,-11.411488199999951],[-37.75099979999993,-11.399930799999936],[-37.751287899999966,-11.405700999999965],[-37.76406769999994,-11.403273099999979],[-37.760625999999945,-11.394523499999934],[-37.76887069999998,-11.390054299999974],[-37.77054259999994,-11.376854099999946],[-37.78440869999997,-11.373698199999978]]]}},{"id":"1780","type":"Feature","properties":{"COD_IBGE":"2803104","MUNICIPIO":"Itabi","UF":"SE"},"geometry":{"type":"Polygon","coordinates":[[[-37.17312179999993,-10.04937949999993],[-37.06202399999995,-10.061547299999972],[-37.066459099999975,-10.136434699999938],[-37.17999549999996,-10.174795899999936],[-37.19076869999998,-10.157780799999955],[-37.19490519999994,-10.163360299999965],[-37.20476559999997,-10.157756699999936],[-37.20340679999998,-10.147487599999977],[-37.22342809999998,-10.133977699999946],[-37.220289599999944,-10.12242189999995],[-37.22679499999998,-10.119992799999977],[-37.220091999999966,-10.113620699999956],[-37.23301179999993,-10.113150699999949],[-37.229043599999954,-10.100332299999934],[-37.21434059999996,-10.102278099999978],[-37.218750399999976,-10.090267499999982],[-37.205114299999934,-10.095859099999927],[-37.21259369999996,-10.077677499999936],[-37.19946259999995,-10.081116599999973],[-37.18413099999998,-10.073432799999978],[-37.186355599999956,-10.066422299999942],[-37.19786329999994,-10.069151999999974],[-37.18444359999995,-10.054986699999972],[-37.192560399999934,-10.051944499999934],[-37.18712519999997,-10.039005799999927],[-37.19694939999994,-10.025694299999941],[-37.18032909999994,-10.034538699999928],[-37.17312179999993,-10.04937949999993]]]}},{"id":"1781","type":"Feature","properties":{"COD_IBGE":"2803203","MUNICIPIO":"Itaporanga d'Ajuda","UF":"SE"},"geometry":{"type":"Polygon","coordinates":[[[-37.35088419999994,-11.091063499999962],[-37.37672409999993,-11.071862599999974],[-37.40206019999994,-11.038524499999937],[-37.42645989999994,-10.98835239999994],[-37.455642599999976,-10.977549799999963],[-37.50360589999997,-10.901100799999938],[-37.494232599999975,-10.904706699999963],[-37.46400629999994,-10.892531599999927],[-37.40316629999995,-10.825756199999944],[-37.40352539999998,-10.844551499999966],[-37.37554959999994,-10.85263509999993],[-37.341470999999956,-10.848472299999969],[-37.329101099999946,-10.833435299999962],[-37.31953989999994,-10.832973899999956],[-37.32768649999997,-10.93313349999994],[-37.33509989999993,-10.943958299999963],[-37.332497399999966,-10.963363999999956],[-37.32329519999996,-10.96984569999995],[-37.32792729999994,-10.976292099999966],[-37.30288449999995,-10.98680429999996],[-37.30200119999995,-11.008673299999941],[-37.29420879999998,-11.018322299999966],[-37.28742809999994,-11.01420719999993],[-37.27971699999995,-11.029167399999949],[-37.227183099999934,-11.040608299999974],[-37.21921819999994,-11.07651379999993],[-37.16638779999994,-11.105358799999976],[-37.164513599999964,-11.150337699999966],[-37.15450899999996,-11.161602799999969],[-37.26016489999995,-11.28958289999997],[-37.32821189999993,-11.237925299999972],[-37.33153189999996,-11.210737699999981],[-37.349664099999984,-11.196872499999927],[-37.33109559999997,-11.13919859999993],[-37.35088419999994,-11.091063499999962]]]}},{"id":"1782","type":"Feature","properties":{"COD_IBGE":"2803302","MUNICIPIO":"Japaratuba","UF":"SE"},"geometry":{"type":"Polygon","coordinates":[[[-36.96094889999995,-10.649749699999973],[-36.968889299999944,-10.63095629999998],[-37.01126059999996,-10.641301699999929],[-36.97552939999997,-10.54163509999995],[-36.97777279999997,-10.53019379999995],[-36.95635009999995,-10.523737299999937],[-36.93293829999993,-10.426209799999981],[-36.90592069999997,-10.41687289999993],[-36.90299689999995,-10.402595599999927],[-36.88389339999998,-10.396230399999979],[-36.87701449999997,-10.411792999999932],[-36.85702489999994,-10.420330999999976],[-36.875311099999976,-10.437842499999931],[-36.86839889999993,-10.484485999999947],[-36.855511999999976,-10.499099199999932],[-36.84598439999996,-10.496435899999938],[-36.83231849999993,-10.530853899999954],[-36.80800179999994,-10.548913399999947],[-36.80960509999994,-10.573716599999955],[-36.78128289999995,-10.574941099999933],[-36.92354889999996,-10.676865899999939],[-36.93295429999995,-10.654105799999968],[-36.96094889999995,-10.649749699999973]]]}},{"id":"1783","type":"Feature","properties":{"COD_IBGE":"2803401","MUNICIPIO":"Japoatã","UF":"SE"},"geometry":{"type":"Polygon","coordinates":[[[-36.70246049999997,-10.417237399999976],[-36.72061199999996,-10.527107099999967],[-36.75141759999997,-10.541449099999966],[-36.754035199999976,-10.552822999999933],[-36.744816499999956,-10.562530099999947],[-36.75592349999994,-10.59130289999996],[-36.771585399999935,-10.57700989999995],[-36.80960509999994,-10.573716599999955],[-36.80800179999994,-10.548913399999947],[-36.83231849999993,-10.530853899999954],[-36.84598439999996,-10.496435899999938],[-36.855511999999976,-10.499099199999932],[-36.86839889999993,-10.484485999999947],[-36.875311099999976,-10.437842499999931],[-36.85783749999996,-10.427702199999942],[-36.85737469999998,-10.419264699999928],[-36.87701449999997,-10.411792999999932],[-36.883860099999936,-10.396244699999954],[-36.90313299999997,-10.398762099999942],[-36.89160399999997,-10.38598109999998],[-36.856479999999976,-10.382565099999965],[-36.84386799999993,-10.366968099999951],[-36.84500729999996,-10.341811199999938],[-36.82673589999996,-10.329059399999949],[-36.80740599999996,-10.328875099999948],[-36.822078199999964,-10.300360999999953],[-36.80076939999998,-10.294779799999958],[-36.795290499999965,-10.282593499999962],[-36.78871819999995,-10.30111519999997],[-36.76161309999998,-10.319090599999981],[-36.74895079999993,-10.314491699999962],[-36.735945699999945,-10.326997799999958],[-36.733616799999936,-10.36344429999997],[-36.70531049999994,-10.40046719999998],[-36.71053749999993,-10.402767899999958],[-36.70246049999997,-10.417237399999976]]]}},{"id":"1784","type":"Feature","properties":{"COD_IBGE":"2803500","MUNICIPIO":"Lagarto","UF":"SE"},"geometry":{"type":"Polygon","coordinates":[[[-37.62241899999998,-11.067475299999955],[-37.675309899999945,-11.021374299999934],[-37.692268199999944,-11.026317099999972],[-37.70932899999997,-11.00358689999996],[-37.74376099999995,-10.989181199999962],[-37.741696099999956,-11.010610699999972],[-37.754150599999946,-11.00334289999995],[-37.772702299999935,-11.01826879999993],[-37.77639309999995,-11.005879299999947],[-37.78637629999997,-11.006432099999927],[-37.79309129999996,-11.018528999999944],[-37.81144789999996,-11.00318029999994],[-37.822064599999976,-11.005321099999946],[-37.82673289999997,-10.989202399999954],[-37.83827549999995,-10.986742299999946],[-37.83497489999996,-10.951378599999941],[-37.84625879999993,-10.933786199999929],[-37.87515129999997,-10.920258599999954],[-37.865802299999984,-10.89721929999996],[-37.87576409999997,-10.86391539999994],[-37.86081509999997,-10.869319799999971],[-37.82837979999994,-10.85899429999995],[-37.81382689999998,-10.869831899999951],[-37.80456579999998,-10.837881399999958],[-37.73275189999998,-10.797394499999939],[-37.70750039999996,-10.738166599999943],[-37.67858099999995,-10.726588899999967],[-37.66981169999997,-10.707817599999942],[-37.661512399999935,-10.717267999999933],[-37.645925499999976,-10.69641489999998],[-37.64614629999994,-10.71016009999994],[-37.620755299999985,-10.706791099999975],[-37.615985499999965,-10.713652199999956],[-37.63104309999994,-10.726503799999932],[-37.633482999999956,-10.74845259999995],[-37.62023839999995,-10.748729799999978],[-37.59988699999997,-10.778779199999974],[-37.61433639999996,-10.798232599999949],[-37.59456169999993,-10.826603399999954],[-37.57427289999998,-10.83938889999996],[-37.544563299999936,-10.835198999999932],[-37.517795399999954,-10.845334799999932],[-37.491263799999956,-10.830117199999961],[-37.478269799999964,-10.842923799999937],[-37.48278669999996,-10.857507599999963],[-37.47064259999996,-10.851350799999977],[-37.462638899999945,-10.859267199999977],[-37.45576969999996,-10.88174799999996],[-37.46400629999994,-10.892531599999927],[-37.494232599999975,-10.904706699999963],[-37.50360589999997,-10.901100799999938],[-37.455642599999976,-10.977549799999963],[-37.51966119999997,-10.960341899999946],[-37.53100799999993,-10.996222299999943],[-37.56851329999995,-11.025457499999959],[-37.565151399999934,-11.040051799999958],[-37.62241899999998,-11.067475299999955]]]}},{"id":"1785","type":"Feature","properties":{"COD_IBGE":"2803609","MUNICIPIO":"Laranjeiras","UF":"SE"},"geometry":{"type":"Polygon","coordinates":[[[-37.14733279999996,-10.769899799999962],[-37.13225509999995,-10.76826159999996],[-37.12593309999994,-10.786286599999926],[-37.10295489999993,-10.77478549999995],[-37.09036039999995,-10.779895599999975],[-37.08733079999996,-10.798401499999954],[-37.06487939999994,-10.823034199999938],[-37.10147779999994,-10.818125499999951],[-37.117921999999965,-10.832026399999961],[-37.156679199999985,-10.831877799999972],[-37.17374309999997,-10.842074899999943],[-37.17916299999996,-10.855182999999954],[-37.21494749999994,-10.848122499999931],[-37.23538769999993,-10.834814999999935],[-37.31767229999997,-10.831640199999981],[-37.22507509999997,-10.759561299999973],[-37.21601249999998,-10.765262399999926],[-37.16137079999993,-10.751420999999937],[-37.14733279999996,-10.769899799999962]]]}},{"id":"1786","type":"Feature","properties":{"COD_IBGE":"2803708","MUNICIPIO":"Macambira","UF":"SE"},"geometry":{"type":"Polygon","coordinates":[[[-37.55857469999995,-10.619450799999981],[-37.51805849999994,-10.656570899999963],[-37.52032889999998,-10.663066299999969],[-37.50079739999995,-10.688530999999955],[-37.53307859999995,-10.68902909999997],[-37.55020499999995,-10.697667199999955],[-37.58648919999996,-10.680892799999981],[-37.59536659999998,-10.69759309999995],[-37.60585419999995,-10.695085199999937],[-37.605212999999935,-10.709334599999977],[-37.61179619999996,-10.713324399999976],[-37.620755299999985,-10.706791099999975],[-37.64456089999993,-10.710956899999928],[-37.645925499999976,-10.69641489999998],[-37.66285779999998,-10.717281299999968],[-37.66862489999994,-10.674900099999945],[-37.64543149999997,-10.60840509999997],[-37.55857469999995,-10.619450799999981]]]}},{"id":"1787","type":"Feature","properties":{"COD_IBGE":"2803807","MUNICIPIO":"Malhada dos Bois","UF":"SE"},"geometry":{"type":"Polygon","coordinates":[[[-36.900748799999974,-10.350121199999933],[-36.91575719999997,-10.393414499999949],[-37.00934539999997,-10.302314599999931],[-36.95614619999998,-10.289979099999925],[-36.93372509999995,-10.27614589999996],[-36.93588439999996,-10.306681099999935],[-36.90266269999995,-10.324211499999933],[-36.900748799999974,-10.350121199999933]]]}},{"id":"1788","type":"Feature","properties":{"COD_IBGE":"2803906","MUNICIPIO":"Malhador","UF":"SE"},"geometry":{"type":"Polygon","coordinates":[[[-37.33632209999996,-10.721795499999928],[-37.32047329999995,-10.692159499999946],[-37.332347099999936,-10.639608099999975],[-37.326151299999935,-10.623186799999928],[-37.29639949999995,-10.60102779999994],[-37.279021599999965,-10.632632099999967],[-37.268174699999975,-10.634141199999931],[-37.25889989999996,-10.649291699999935],[-37.24646709999996,-10.647708199999954],[-37.24642199999994,-10.661130899999932],[-37.22898879999997,-10.675319599999966],[-37.23202749999996,-10.695792599999947],[-37.22283399999998,-10.703986499999928],[-37.248798499999964,-10.709344999999928],[-37.25892589999995,-10.701731999999936],[-37.264991899999984,-10.712682599999937],[-37.27609709999996,-10.711164599999961],[-37.31621969999998,-10.740687299999934],[-37.31013369999994,-10.729498999999976],[-37.33632209999996,-10.721795499999928]]]}},{"id":"1789","type":"Feature","properties":{"COD_IBGE":"2804003","MUNICIPIO":"Maruim","UF":"SE"},"geometry":{"type":"Polygon","coordinates":[[[-37.16137079999993,-10.751420999999937],[-37.14256709999995,-10.700470399999972],[-37.12155819999998,-10.70273119999996],[-37.09077099999996,-10.655150599999956],[-37.08878249999998,-10.682040799999982],[-37.05863519999997,-10.69109629999997],[-37.05154169999997,-10.701283799999942],[-37.06184239999993,-10.714489699999945],[-37.07447289999993,-10.779019799999958],[-37.08817829999998,-10.783176799999978],[-37.10295489999993,-10.77478549999995],[-37.12722009999993,-10.785762699999964],[-37.13225509999995,-10.76826159999996],[-37.15000659999998,-10.77016759999998],[-37.16137079999993,-10.751420999999937]]]}},{"id":"1790","type":"Feature","properties":{"COD_IBGE":"2804102","MUNICIPIO":"Moita Bonita","UF":"SE"},"geometry":{"type":"Polygon","coordinates":[[[-37.29393939999994,-10.576177399999949],[-37.26316499999996,-10.577328299999976],[-37.24800329999994,-10.594363999999928],[-37.27847899999995,-10.586587799999961],[-37.29324209999993,-10.594532299999969],[-37.326151299999935,-10.623186799999928],[-37.32890389999994,-10.653676399999938],[-37.35483359999995,-10.656907199999978],[-37.369316599999934,-10.629587199999946],[-37.379484899999966,-10.623285599999974],[-37.380692599999975,-10.631038399999966],[-37.38836749999996,-10.628837199999964],[-37.387013699999954,-10.597407099999941],[-37.39419189999995,-10.580284699999936],[-37.35427359999994,-10.543429499999945],[-37.32020249999994,-10.54029509999998],[-37.309789499999965,-10.547012199999926],[-37.31051609999997,-10.565980299999978],[-37.29393939999994,-10.576177399999949]]]}},{"id":"1791","type":"Feature","properties":{"COD_IBGE":"2804201","MUNICIPIO":"Monte Alegre de Sergipe","UF":"SE"},"geometry":{"type":"Polygon","coordinates":[[[-37.49576489999998,-10.097153899999967],[-37.55384929999997,-10.113061499999958],[-37.557251399999984,-10.12238229999997],[-37.56239339999996,-10.107096199999944],[-37.588895599999944,-10.089774899999952],[-37.604290499999934,-10.103088199999945],[-37.616625099999965,-10.09547619999995],[-37.62246619999996,-10.106474799999944],[-37.63000049999994,-10.102342499999963],[-37.670482499999935,-10.130004099999951],[-37.68764989999994,-10.12179199999997],[-37.69759369999997,-10.128364099999942],[-37.77726779999995,-10.098115399999926],[-37.78469069999994,-10.10582489999996],[-37.77959519999996,-10.13357659999997],[-37.802014499999984,-10.112447399999951],[-37.78264439999998,-10.04359839999995],[-37.78993889999998,-10.03226589999997],[-37.738455199999976,-10.028968199999952],[-37.73244909999994,-10.02076379999994],[-37.723973899999976,-10.02838259999993],[-37.70205839999994,-10.013752799999963],[-37.68456569999995,-10.028379099999938],[-37.662266199999976,-10.012784799999963],[-37.61460559999995,-10.026455399999975],[-37.60895089999997,-10.01962009999994],[-37.59624349999996,-10.022416299999975],[-37.587357699999984,-9.999673499999972],[-37.57558229999995,-9.997871499999974],[-37.47006559999994,-10.02252939999994],[-37.41235889999996,-10.068958399999929],[-37.41538819999994,-10.077378199999941],[-37.42927619999995,-10.063661099999933],[-37.42772279999997,-10.076508299999944],[-37.44232539999996,-10.075405299999943],[-37.44053889999998,-10.084896999999955],[-37.432616199999984,-10.085968899999955],[-37.44008439999993,-10.091292799999962],[-37.437164199999984,-10.102928599999927],[-37.45949129999997,-10.103460999999982],[-37.464757599999984,-10.091747899999973],[-37.47570639999998,-10.096020199999941],[-37.481146699999954,-10.089122499999974],[-37.48998599999993,-10.101286199999947],[-37.49576489999998,-10.097153899999967]]]}},{"id":"1792","type":"Feature","properties":{"COD_IBGE":"2804300","MUNICIPIO":"Muribeca","UF":"SE"},"geometry":{"type":"Polygon","coordinates":[[[-36.93638159999995,-10.450905199999966],[-36.96128519999996,-10.442272999999943],[-36.98525989999996,-10.402987799999948],[-36.98083969999993,-10.394339599999967],[-36.98690949999997,-10.384073799999953],[-36.97766869999998,-10.372703099999967],[-36.996118199999955,-10.356863999999973],[-36.99885679999994,-10.330278799999974],[-37.01809099999997,-10.33210459999998],[-37.00934539999997,-10.302314599999931],[-36.90299689999995,-10.402595599999927],[-36.905552399999976,-10.41663269999998],[-36.93293829999993,-10.426209799999981],[-36.93638159999995,-10.450905199999966]]]}},{"id":"1793","type":"Feature","properties":{"COD_IBGE":"2804409","MUNICIPIO":"Neópolis","UF":"SE"},"geometry":{"type":"Polygon","coordinates":[[[-36.598812899999984,-10.41509259999998],[-36.64841039999993,-10.39969089999994],[-36.70191219999998,-10.405714299999943],[-36.733616799999936,-10.36344429999997],[-36.73939369999994,-10.32133209999995],[-36.74915249999998,-10.314456399999926],[-36.76175879999994,-10.31901659999994],[-36.80471399999993,-10.280496999999968],[-36.79721189999998,-10.280077099999971],[-36.78680819999994,-10.262591199999974],[-36.77631859999997,-10.26611319999995],[-36.75950089999998,-10.254602299999931],[-36.73535279999993,-10.28279729999997],[-36.705497099999945,-10.283875799999976],[-36.70161769999993,-10.270404299999939],[-36.68367079999996,-10.270750999999962],[-36.65364089999997,-10.321071399999937],[-36.587292299999945,-10.301271999999926],[-36.571825599999954,-10.316147199999932],[-36.55674349999998,-10.377081099999941],[-36.56600769999994,-10.432280499999933],[-36.58219059999993,-10.437672599999928],[-36.58629369999994,-10.451566199999945],[-36.590817899999934,-10.445419399999935],[-36.59568969999998,-10.449736199999961],[-36.60011439999994,-10.478272199999935],[-36.59192369999994,-10.482103199999926],[-36.600149399999964,-10.496842499999957],[-36.60955889999997,-10.426374599999974],[-36.598812899999984,-10.41509259999998]]]}},{"id":"1794","type":"Feature","properties":{"COD_IBGE":"2804458","MUNICIPIO":"Nossa Senhora Aparecida","UF":"SE"},"geometry":{"type":"Polygon","coordinates":[[[-37.40426789999998,-10.290604599999938],[-37.413048199999935,-10.346005399999967],[-37.410364699999946,-10.416798299999925],[-37.42105899999996,-10.40177959999994],[-37.47451279999996,-10.459909099999948],[-37.54753919999996,-10.461820199999977],[-37.55831799999993,-10.444054699999981],[-37.577011599999935,-10.366945399999963],[-37.57784929999997,-10.329116299999953],[-37.61143109999995,-10.277494199999978],[-37.59660749999995,-10.25048099999998],[-37.58179139999993,-10.24030259999995],[-37.55424629999993,-10.267177599999968],[-37.55292389999994,-10.258596699999941],[-37.538881199999935,-10.25863309999994],[-37.54478219999993,-10.268874299999936],[-37.51136249999996,-10.29737069999993],[-37.482321199999944,-10.281775599999946],[-37.483750199999974,-10.295186299999955],[-37.47072379999997,-10.290570399999979],[-37.46231179999995,-10.277582199999927],[-37.459316799999954,-10.287821099999974],[-37.43548329999993,-10.295326699999976],[-37.42860049999996,-10.307967399999939],[-37.42751789999994,-10.301205699999969],[-37.41014819999998,-10.30429399999997],[-37.40426789999998,-10.290604599999938]]]}},{"id":"1795","type":"Feature","properties":{"COD_IBGE":"2804508","MUNICIPIO":"Nossa Senhora da Glória","UF":"SE"},"geometry":{"type":"Polygon","coordinates":[[[-37.43486359999997,-10.296685899999943],[-37.45629139999994,-10.290503699999931],[-37.46231179999995,-10.277582199999927],[-37.47072379999997,-10.290570399999979],[-37.483750199999974,-10.295186299999955],[-37.482321199999944,-10.281775599999946],[-37.51136249999996,-10.29737069999993],[-37.54478219999993,-10.268874299999936],[-37.539119599999935,-10.258482299999969],[-37.55375659999993,-10.259068899999932],[-37.55424629999993,-10.267177599999968],[-37.58179139999993,-10.24030259999995],[-37.59336539999998,-10.251870099999962],[-37.60646729999996,-10.23948809999996],[-37.61283229999998,-10.24913319999996],[-37.67412429999996,-10.206249799999966],[-37.69618139999994,-10.207433799999933],[-37.70318039999995,-10.191571499999952],[-37.72080319999998,-10.187337999999954],[-37.74855679999996,-10.198505199999943],[-37.76482149999998,-10.19685439999995],[-37.78239979999995,-10.184955499999944],[-37.774441699999954,-10.144355099999927],[-37.784442799999965,-10.104133199999978],[-37.77726779999995,-10.098115399999926],[-37.69759369999997,-10.128364099999942],[-37.68764989999994,-10.12179199999997],[-37.669915199999934,-10.12999979999995],[-37.63000049999994,-10.102342499999963],[-37.62246619999996,-10.106474799999944],[-37.616625099999965,-10.09547619999995],[-37.604290499999934,-10.103088199999945],[-37.58836739999998,-10.089774899999952],[-37.56239339999996,-10.107096199999944],[-37.557251399999984,-10.12238229999997],[-37.553025899999966,-10.112797399999977],[-37.53286179999998,-10.114226599999938],[-37.49576489999998,-10.097153899999967],[-37.49107339999995,-10.101876499999946],[-37.48161269999997,-10.089169099999935],[-37.47570639999998,-10.096020199999941],[-37.464757599999984,-10.091747899999973],[-37.45949129999997,-10.103460999999982],[-37.437164199999984,-10.102928599999927],[-37.44008439999993,-10.091292799999962],[-37.432616199999984,-10.085968899999955],[-37.44092729999994,-10.08446209999994],[-37.44193699999994,-10.07487709999998],[-37.42772279999997,-10.076508299999944],[-37.42927619999995,-10.063661099999933],[-37.41487549999994,-10.077517999999941],[-37.41976609999995,-10.061693599999955],[-37.403792599999974,-10.067006499999934],[-37.380109999999945,-10.083987199999967],[-37.384778799999935,-10.095244899999955],[-37.334142199999974,-10.125441599999931],[-37.345412299999964,-10.166038899999933],[-37.336936299999934,-10.169965399999967],[-37.314941999999974,-10.154287999999951],[-37.31979869999998,-10.179530499999942],[-37.33640479999997,-10.199201799999969],[-37.33213089999998,-10.211270899999931],[-37.35539149999994,-10.20843259999998],[-37.38395049999997,-10.21917469999994],[-37.39835899999997,-10.253150299999959],[-37.389962099999934,-10.27016539999994],[-37.39330089999993,-10.286734099999933],[-37.405377699999974,-10.284881699999971],[-37.41137199999997,-10.30507579999994],[-37.42751789999994,-10.301205699999969],[-37.42860049999996,-10.307967399999939],[-37.43486359999997,-10.296685899999943]]]}},{"id":"1796","type":"Feature","properties":{"COD_IBGE":"2804607","MUNICIPIO":"Nossa Senhora das Dores","UF":"SE"},"geometry":{"type":"Polygon","coordinates":[[[-37.17818519999997,-10.565497899999968],[-37.17079579999995,-10.57064269999995],[-37.17614489999994,-10.580251799999928],[-37.20556769999996,-10.602575799999954],[-37.20566679999996,-10.624599599999954],[-37.26316499999996,-10.577328299999976],[-37.30354649999998,-10.57436389999998],[-37.31303319999995,-10.558997199999965],[-37.309789499999965,-10.547012199999926],[-37.31725149999994,-10.546696599999962],[-37.35978629999994,-10.483544699999982],[-37.34952059999995,-10.49164819999993],[-37.274568399999964,-10.465871999999933],[-37.29028169999998,-10.466587899999979],[-37.29489039999993,-10.432415999999932],[-37.30291589999996,-10.435863799999936],[-37.30779559999996,-10.42499429999998],[-37.32034029999994,-10.434305499999937],[-37.33111249999996,-10.431743899999958],[-37.332758499999954,-10.423767099999964],[-37.32428489999995,-10.420231499999943],[-37.33198909999993,-10.417494699999963],[-37.333342899999934,-10.401696799999968],[-37.34829339999993,-10.399612499999932],[-37.33915749999994,-10.384817899999973],[-37.34544439999996,-10.379389999999944],[-37.325923099999955,-10.374663999999939],[-37.30218679999996,-10.326637799999958],[-37.28204809999994,-10.312289599999929],[-37.270421099999965,-10.314674699999955],[-37.27402379999995,-10.306493899999964],[-37.26763939999995,-10.304194799999948],[-37.23550329999995,-10.301794799999982],[-37.24910459999995,-10.318569599999933],[-37.240967799999964,-10.35530499999993],[-37.206975299999954,-10.40374369999995],[-37.19037049999997,-10.405776699999933],[-37.17931129999994,-10.417453299999977],[-37.16091289999997,-10.41039619999998],[-37.14498939999993,-10.419411799999978],[-37.132961499999965,-10.405595799999958],[-37.12811849999997,-10.411226499999941],[-37.12148719999993,-10.404967799999952],[-37.10840029999997,-10.418560299999967],[-37.11813939999996,-10.440760299999965],[-37.13712909999998,-10.45375359999997],[-37.139667799999984,-10.507033399999955],[-37.17818519999997,-10.565497899999968]]]}},{"id":"1797","type":"Feature","properties":{"COD_IBGE":"2804706","MUNICIPIO":"Nossa Senhora de Lourdes","UF":"SE"},"geometry":{"type":"Polygon","coordinates":[[[-36.983550599999944,-10.08245729999993],[-37.039273599999945,-10.137338099999965],[-37.047199199999966,-10.124568999999951],[-37.066459099999975,-10.136434699999938],[-37.06202399999995,-10.061547299999972],[-37.029783899999984,-10.056937499999947],[-37.00694109999995,-10.037745099999938],[-36.95345409999993,-10.022819599999934],[-36.95659859999995,-10.053733999999963],[-36.948377799999946,-10.069578299999932],[-36.983550599999944,-10.08245729999993]]]}},{"id":"1798","type":"Feature","properties":{"COD_IBGE":"2804805","MUNICIPIO":"Nossa Senhora do Socorro","UF":"SE"},"geometry":{"type":"Polygon","coordinates":[[[-37.10147779999994,-10.818125499999951],[-37.03824849999995,-10.831123399999967],[-37.02835269999997,-10.847374599999966],[-37.03390899999994,-10.870083799999975],[-37.05245709999997,-10.86268169999994],[-37.06773879999997,-10.876752999999951],[-37.08278009999998,-10.862818199999936],[-37.10343339999997,-10.876641199999938],[-37.09667299999995,-10.884165399999972],[-37.10480009999998,-10.887578399999938],[-37.102062399999966,-10.917132099999947],[-37.146046299999966,-10.92868649999997],[-37.16163499999993,-10.92318419999998],[-37.173890599999936,-10.899589599999956],[-37.18945309999998,-10.885975899999949],[-37.19738659999996,-10.88906739999993],[-37.20585429999994,-10.875200899999982],[-37.219527599999935,-10.877110399999935],[-37.26700209999996,-10.847027899999944],[-37.28961039999996,-10.851673299999959],[-37.30729589999993,-10.832873899999981],[-37.318358699999976,-10.832148099999927],[-37.23538769999993,-10.834814999999935],[-37.21494749999994,-10.848122499999931],[-37.17916299999996,-10.855182999999954],[-37.17374309999997,-10.842074899999943],[-37.156679199999985,-10.831877799999972],[-37.117921999999965,-10.832026399999961],[-37.10147779999994,-10.818125499999951]]]}},{"id":"1799","type":"Feature","properties":{"COD_IBGE":"2804904","MUNICIPIO":"Pacatuba","UF":"SE"},"geometry":{"type":"Polygon","coordinates":[[[-36.67294679999998,-10.630793099999948],[-36.757629099999974,-10.59104659999997],[-36.744816499999956,-10.562530099999947],[-36.754035199999976,-10.552822999999933],[-36.75141759999997,-10.541449099999966],[-36.72061199999996,-10.527107099999967],[-36.724436099999934,-10.517193099999929],[-36.71693829999998,-10.513904799999978],[-36.71561849999995,-10.446465499999931],[-36.70246049999997,-10.417237399999976],[-36.710491899999965,-10.402596499999959],[-36.64841039999993,-10.39969089999994],[-36.598812899999984,-10.41509259999998],[-36.60955889999997,-10.426374599999974],[-36.600149399999964,-10.496842499999957],[-36.49941279999996,-10.512985999999955],[-36.48464029999997,-10.52862289999996],[-36.49767669999994,-10.53846509999994],[-36.48618979999998,-10.536383499999943],[-36.592433899999946,-10.576475399999936],[-36.67294679999998,-10.630793099999948]]]}},{"id":"1800","type":"Feature","properties":{"COD_IBGE":"2805000","MUNICIPIO":"Pedra Mole","UF":"SE"},"geometry":{"type":"Polygon","coordinates":[[[-37.64028159999998,-10.604720499999928],[-37.66862489999994,-10.674900099999945],[-37.66285779999998,-10.717281299999968],[-37.66981169999997,-10.707817599999942],[-37.67744299999998,-10.715411599999982],[-37.684341899999936,-10.707092799999941],[-37.67391249999997,-10.702626299999963],[-37.686748199999954,-10.69125639999993],[-37.68469959999993,-10.682964199999958],[-37.71503919999998,-10.668916299999978],[-37.69365359999995,-10.639447399999938],[-37.70313749999997,-10.641145599999959],[-37.71969789999997,-10.62627139999995],[-37.69537199999996,-10.582010599999933],[-37.68856089999997,-10.53191709999993],[-37.64028159999998,-10.604720499999928]]]}},{"id":"1801","type":"Feature","properties":{"COD_IBGE":"2805109","MUNICIPIO":"Pedrinhas","UF":"SE"},"geometry":{"type":"Polygon","coordinates":[[[-37.64059199999997,-11.197541899999976],[-37.601195099999984,-11.200603399999977],[-37.59655989999993,-11.213181899999938],[-37.66069529999993,-11.21888279999996],[-37.66976379999994,-11.239323199999944],[-37.689662399999975,-11.203581499999927],[-37.70454739999997,-11.191816099999926],[-37.69146219999993,-11.171237599999927],[-37.679854199999966,-11.189707799999951],[-37.670411899999976,-11.18302639999996],[-37.64059199999997,-11.197541899999976]]]}},{"id":"1802","type":"Feature","properties":{"COD_IBGE":"2805208","MUNICIPIO":"Pinhão","UF":"SE"},"geometry":{"type":"Polygon","coordinates":[[[-37.749784999999974,-10.620740399999931],[-37.76623929999994,-10.619439599999964],[-37.767019699999935,-10.606594899999948],[-37.77560459999995,-10.601668399999937],[-37.80036729999995,-10.59139259999995],[-37.807068699999945,-10.600504999999941],[-37.81783839999997,-10.585765799999933],[-37.831462699999975,-10.584290299999964],[-37.82587659999996,-10.580954499999962],[-37.84129759999996,-10.550532999999973],[-37.83180319999997,-10.551494099999957],[-37.82922739999998,-10.540654299999971],[-37.819350499999985,-10.539719399999967],[-37.82269389999993,-10.531326599999943],[-37.809240699999975,-10.512981299999979],[-37.77203039999995,-10.506769099999929],[-37.730227499999955,-10.516284799999937],[-37.722649899999965,-10.51007089999996],[-37.68856089999997,-10.53191709999993],[-37.69537199999996,-10.582010599999933],[-37.70475639999995,-10.591807999999958],[-37.704945899999984,-10.606853099999967],[-37.71858649999996,-10.617713399999957],[-37.715981899999974,-10.63379459999993],[-37.707966399999975,-10.635568699999965],[-37.71822599999996,-10.64482019999997],[-37.72228599999994,-10.633734599999968],[-37.73989629999994,-10.632527299999936],[-37.749784999999974,-10.620740399999931]]]}},{"id":"1803","type":"Feature","properties":{"COD_IBGE":"2805307","MUNICIPIO":"Pirambu","UF":"SE"},"geometry":{"type":"Polygon","coordinates":[[[-36.849721199999976,-10.74265669999994],[-36.87281239999993,-10.741234899999938],[-36.86878319999994,-10.712739399999975],[-36.87911889999998,-10.69495429999995],[-36.900427699999966,-10.703434399999935],[-36.90255099999996,-10.684091599999931],[-36.92354889999996,-10.676865899999939],[-36.78128289999995,-10.574941099999933],[-36.76478179999998,-10.57962809999998],[-36.755921599999965,-10.594245199999932],[-36.67365169999994,-10.628772599999934],[-36.76930589999995,-10.678734499999962],[-36.849721199999976,-10.74265669999994]]]}},{"id":"1804","type":"Feature","properties":{"COD_IBGE":"2805406","MUNICIPIO":"Poço Redondo","UF":"SE"},"geometry":{"type":"Polygon","coordinates":[[[-37.63172019999996,-9.974173999999948],[-37.66501559999995,-9.999481499999945],[-37.673815599999955,-10.026335699999947],[-37.69892999999996,-10.022054599999933],[-37.70205839999994,-10.013752799999963],[-37.723973899999976,-10.02838259999993],[-37.73244909999994,-10.02076379999994],[-37.738455199999976,-10.028968199999952],[-37.75910419999997,-10.025693899999965],[-37.82579389999995,-10.03661169999998],[-37.82481349999995,-10.023456299999964],[-37.84724369999998,-9.994280999999944],[-37.876098799999966,-9.976955799999928],[-37.89607259999997,-9.954283399999952],[-37.895048299999985,-9.942830799999967],[-37.91344069999997,-9.933112799999947],[-37.89952059999996,-9.913397199999963],[-37.887178699999936,-9.913771999999938],[-37.86552439999997,-9.896192699999972],[-37.87242329999998,-9.881867899999975],[-37.86955729999994,-9.840899599999943],[-37.85458819999997,-9.78440889999996],[-37.81300399999998,-9.794822899999929],[-37.78646229999998,-9.81403599999993],[-37.66909309999994,-9.658340299999963],[-37.65405149999998,-9.686333399999967],[-37.57768399999998,-9.736807799999951],[-37.46595569999994,-9.748026299999935],[-37.607619399999976,-9.968511099999944],[-37.63172019999996,-9.974173999999948]]]}},{"id":"1805","type":"Feature","properties":{"COD_IBGE":"2805505","MUNICIPIO":"Poço Verde","UF":"SE"},"geometry":{"type":"Polygon","coordinates":[[[-38.18337479999997,-10.705357299999946],[-38.13280699999996,-10.720874799999933],[-38.10912119999995,-10.712637599999937],[-38.06779199999994,-10.715665799999954],[-38.040228999999954,-10.701108999999974],[-38.03008219999998,-10.713610199999948],[-38.03203109999998,-10.727084299999945],[-37.972452499999974,-10.757136399999979],[-37.969370699999956,-10.807650999999964],[-37.97076199999998,-10.824932199999978],[-38.02785289999997,-10.814912999999933],[-38.07425369999993,-10.818201399999964],[-38.114781499999935,-10.834005599999955],[-38.12660439999996,-10.85115159999998],[-38.11949969999995,-10.867769599999974],[-38.125099699999964,-10.884569299999953],[-38.13869969999996,-10.900196199999925],[-38.160447199999965,-10.902503099999933],[-38.170402499999966,-10.926757399999929],[-38.16698709999997,-10.939827599999944],[-38.17963019999996,-10.94301919999998],[-38.19944499999997,-10.939761199999964],[-38.20386149999996,-10.922562599999935],[-38.210963499999934,-10.931211399999938],[-38.22725099999997,-10.916014299999972],[-38.238883999999985,-10.866876899999966],[-38.23139829999997,-10.84293409999998],[-38.24500899999998,-10.822641499999975],[-38.23440439999996,-10.812127799999928],[-38.23563869999998,-10.794629199999974],[-38.218588599999975,-10.783297199999936],[-38.20935979999996,-10.760435299999926],[-38.21651889999998,-10.726805699999943],[-38.20926949999995,-10.711979399999962],[-38.18337479999997,-10.705357299999946]]]}},{"id":"1806","type":"Feature","properties":{"COD_IBGE":"2805604","MUNICIPIO":"Porto da Folha","UF":"SE"},"geometry":{"type":"Polygon","coordinates":[[[-37.226251299999944,-9.897716899999978],[-37.234062499999936,-9.958472799999981],[-37.27071319999993,-9.962110499999937],[-37.264841099999956,-9.993024599999956],[-37.283762399999944,-9.98901669999998],[-37.28534689999998,-10.008124399999929],[-37.29354929999994,-10.015860699999962],[-37.30625669999995,-9.999487099999953],[-37.33204429999995,-10.015891799999963],[-37.327570299999934,-10.009336099999928],[-37.33738829999993,-9.986282599999981],[-37.34108549999996,-9.99839959999997],[-37.35161809999994,-9.994236299999955],[-37.35108989999998,-10.014338299999963],[-37.37948739999996,-10.009957499999928],[-37.37231039999995,-10.021049299999959],[-37.37972999999994,-10.020744399999955],[-37.37519979999996,-10.025088299999936],[-37.38472639999998,-10.030376599999954],[-37.382407899999976,-10.038013199999966],[-37.420105699999965,-10.062236799999937],[-37.47006559999994,-10.02252939999994],[-37.56319909999996,-9.99900729999996],[-37.586549899999966,-9.999176399999953],[-37.59040249999998,-10.016792799999962],[-37.61460559999995,-10.026455399999975],[-37.666231299999936,-10.015735699999937],[-37.66501559999995,-9.999481499999945],[-37.64119969999996,-9.978977499999928],[-37.607619399999976,-9.968511099999944],[-37.46595569999994,-9.748026299999935],[-37.412562599999944,-9.761559199999965],[-37.39361889999998,-9.779235299999925],[-37.34910329999997,-9.78980839999997],[-37.32277629999993,-9.819735699999967],[-37.300508699999966,-9.831561199999953],[-37.28521989999996,-9.830628899999965],[-37.264022799999964,-9.84736879999997],[-37.245536999999956,-9.89184279999995],[-37.226251299999944,-9.897716899999978]]]}},{"id":"1807","type":"Feature","properties":{"COD_IBGE":"2805703","MUNICIPIO":"Propriá","UF":"SE"},"geometry":{"type":"Polygon","coordinates":[[[-36.85176719999998,-10.238221899999928],[-36.86770889999997,-10.228198599999928],[-36.85617999999994,-10.176193799999965],[-36.82634669999993,-10.21118729999995],[-36.80143879999997,-10.213106399999958],[-36.78856109999998,-10.228094099999964],[-36.75183629999998,-10.226525299999935],[-36.72121139999996,-10.264598599999943],[-36.70161769999993,-10.270404299999939],[-36.705497099999945,-10.283875799999976],[-36.73535279999993,-10.28279729999997],[-36.75950089999998,-10.254602299999931],[-36.77631859999997,-10.26611319999995],[-36.78680819999994,-10.262591199999974],[-36.79721189999998,-10.280077099999971],[-36.80471399999993,-10.280496999999968],[-36.79546419999997,-10.282816799999978],[-36.80076939999998,-10.294779799999958],[-36.81836729999998,-10.298233399999958],[-36.83737759999997,-10.289879299999939],[-36.85176719999998,-10.238221899999928]]]}},{"id":"1808","type":"Feature","properties":{"COD_IBGE":"2805802","MUNICIPIO":"Riachão do Dantas","UF":"SE"},"geometry":{"type":"Polygon","coordinates":[[[-37.757313299999964,-11.148854699999958],[-37.843538499999966,-11.108951799999943],[-37.89608279999993,-11.040987399999949],[-37.946113699999955,-10.996148399999981],[-37.94861879999996,-10.985201899999936],[-37.93336999999997,-10.969136099999957],[-37.95544449999994,-10.935007699999971],[-37.97289049999995,-10.880369199999961],[-37.93911049999997,-10.88984819999996],[-37.93712539999996,-10.88102269999996],[-37.87642159999996,-10.863535999999954],[-37.865802299999984,-10.89721929999996],[-37.87515129999997,-10.920258599999954],[-37.84625879999993,-10.933786199999929],[-37.83497489999996,-10.951378599999941],[-37.83827549999995,-10.986742299999946],[-37.82673289999997,-10.989202399999954],[-37.822064599999976,-11.005321099999946],[-37.81144789999996,-11.00318029999994],[-37.79309129999996,-11.018528999999944],[-37.78637629999997,-11.006432099999927],[-37.77639309999995,-11.005879299999947],[-37.772702299999935,-11.01826879999993],[-37.754150599999946,-11.00334289999995],[-37.741696099999956,-11.010610699999972],[-37.74376099999995,-10.989181199999962],[-37.72446129999997,-10.994046199999957],[-37.692268199999944,-11.026317099999972],[-37.67309869999997,-11.022740099999965],[-37.65362019999998,-11.04525899999993],[-37.642677799999944,-11.046689799999967],[-37.63438559999997,-11.064217199999973],[-37.61595019999993,-11.068593799999974],[-37.61192209999996,-11.07744729999996],[-37.62272669999993,-11.08797919999995],[-37.633027899999945,-11.08145449999995],[-37.649545699999976,-11.108879199999933],[-37.64671979999997,-11.126199199999974],[-37.706790499999954,-11.17431659999994],[-37.71799139999996,-11.161956999999973],[-37.72699369999998,-11.164913199999944],[-37.736649599999964,-11.149835099999962],[-37.757313299999964,-11.148854699999958]]]}},{"id":"1809","type":"Feature","properties":{"COD_IBGE":"2805901","MUNICIPIO":"Riachuelo","UF":"SE"},"geometry":{"type":"Polygon","coordinates":[[[-37.19221739999995,-10.728309799999977],[-37.17989179999995,-10.717254799999978],[-37.16852329999995,-10.724232599999937],[-37.17111179999995,-10.733863399999962],[-37.15974629999994,-10.73574919999993],[-37.16137079999993,-10.751420999999937],[-37.21601249999998,-10.765262399999926],[-37.221589499999936,-10.758348499999954],[-37.24450859999996,-10.778383599999927],[-37.27252729999998,-10.752838399999973],[-37.282601599999964,-10.71783819999996],[-37.264991899999984,-10.712682599999937],[-37.25892589999995,-10.701731999999936],[-37.248798499999964,-10.709344999999928],[-37.22993219999995,-10.701409499999954],[-37.22572229999997,-10.707490999999948],[-37.23044939999994,-10.674308899999971],[-37.19902369999994,-10.677224299999978],[-37.19571469999994,-10.691662599999972],[-37.20587219999993,-10.704217699999958],[-37.19825079999998,-10.720176799999933],[-37.207129099999975,-10.724605099999962],[-37.19221739999995,-10.728309799999977]]]}},{"id":"1810","type":"Feature","properties":{"COD_IBGE":"2806008","MUNICIPIO":"Ribeirópolis","UF":"SE"},"geometry":{"type":"Polygon","coordinates":[[[-37.42105899999996,-10.40177959999994],[-37.368844199999955,-10.450848399999927],[-37.35978629999994,-10.483544699999982],[-37.319629299999974,-10.539436199999955],[-37.35427359999994,-10.543429499999945],[-37.39454249999994,-10.582320299999935],[-37.42264439999997,-10.576290799999981],[-37.45974519999993,-10.594309899999928],[-37.511017599999946,-10.506016199999976],[-37.54753919999996,-10.461820199999977],[-37.47451279999996,-10.459909099999948],[-37.42105899999996,-10.40177959999994]]]}},{"id":"1811","type":"Feature","properties":{"COD_IBGE":"2806107","MUNICIPIO":"Rosário do Catete","UF":"SE"},"geometry":{"type":"Polygon","coordinates":[[[-37.07747909999995,-10.633111799999938],[-37.07182199999994,-10.61506879999996],[-37.03619269999996,-10.625581299999965],[-37.01085789999996,-10.642196499999955],[-37.01282359999993,-10.689964399999951],[-36.992133699999954,-10.703472199999965],[-36.96125999999998,-10.70400989999996],[-36.94988399999994,-10.71273519999994],[-36.982993299999976,-10.736166399999945],[-37.015922399999965,-10.721608299999957],[-37.06851139999998,-10.747985699999958],[-37.06184239999993,-10.714489699999945],[-37.05116439999995,-10.703208099999927],[-37.05863519999997,-10.69109629999997],[-37.08425479999994,-10.68562529999997],[-37.09183879999995,-10.675550999999928],[-37.09188299999994,-10.640828799999952],[-37.07747909999995,-10.633111799999938]]]}},{"id":"1812","type":"Feature","properties":{"COD_IBGE":"2806206","MUNICIPIO":"Salgado","UF":"SE"},"geometry":{"type":"Polygon","coordinates":[[[-37.51966119999997,-10.960341899999946],[-37.42645989999994,-10.98835239999994],[-37.42471469999998,-11.003207199999963],[-37.41234999999995,-11.010560099999964],[-37.38881219999996,-11.052964299999928],[-37.43820729999993,-11.087003299999935],[-37.430061499999965,-11.10679689999995],[-37.439138499999956,-11.113976699999967],[-37.434322899999984,-11.12021059999995],[-37.45897699999995,-11.146329999999978],[-37.546159899999964,-11.165854199999956],[-37.554353499999934,-11.152978599999926],[-37.54399979999994,-11.153468099999941],[-37.54091399999993,-11.142188699999963],[-37.553087199999936,-11.140113699999972],[-37.528722899999934,-11.05388789999995],[-37.53100799999993,-10.996222299999943],[-37.51966119999997,-10.960341899999946]]]}},{"id":"1813","type":"Feature","properties":{"COD_IBGE":"2806305","MUNICIPIO":"Santa Luzia do Itanhy","UF":"SE"},"geometry":{"type":"Polygon","coordinates":[[[-37.493173799999965,-11.442957599999943],[-37.507162799999946,-11.41402979999998],[-37.522695099999964,-11.422142299999962],[-37.558449199999984,-11.414089199999978],[-37.60236379999998,-11.38886359999998],[-37.675348499999984,-11.323227199999963],[-37.673977599999944,-11.301503799999978],[-37.683095299999934,-11.316253299999971],[-37.69211729999995,-11.308128999999951],[-37.66344079999993,-11.289965999999936],[-37.603265499999964,-11.343016399999954],[-37.591076999999984,-11.325386699999967],[-37.572022699999934,-11.32297269999998],[-37.548338299999955,-11.303858999999932],[-37.51926219999996,-11.29881839999996],[-37.46178269999996,-11.311165199999948],[-37.44710109999994,-11.294198299999948],[-37.42569219999996,-11.30814769999995],[-37.40608389999994,-11.301875399999972],[-37.37777879999993,-11.336918999999966],[-37.389403899999934,-11.371998499999961],[-37.406307599999934,-11.393110099999944],[-37.40870639999997,-11.423865699999965],[-37.42114129999993,-11.430229899999972],[-37.441566499999965,-11.426347299999975],[-37.44731879999995,-11.442299699999978],[-37.47307079999996,-11.450773199999958],[-37.493173799999965,-11.442957599999943]],[[-37.63843389999994,-11.35553589999995],[-37.63592509999995,-11.340825099999961],[-37.63906119999996,-11.355450899999937],[-37.63843389999994,-11.35553589999995]],[[-37.66312099999993,-11.331752299999948],[-37.646598799999936,-11.324875899999938],[-37.65144419999996,-11.32060789999997],[-37.66312099999993,-11.331752299999948]]]}},{"id":"1814","type":"Feature","properties":{"COD_IBGE":"2806404","MUNICIPIO":"Santana do São Francisco","UF":"SE"},"geometry":{"type":"Polygon","coordinates":[[[-36.65927569999997,-10.268448199999966],[-36.638570699999946,-10.251962999999932],[-36.62452039999994,-10.254177999999968],[-36.587292299999945,-10.301271999999926],[-36.65364089999997,-10.321071399999937],[-36.68367079999996,-10.270750999999962],[-36.65927569999997,-10.268448199999966]]]}},{"id":"1815","type":"Feature","properties":{"COD_IBGE":"2806503","MUNICIPIO":"Santa Rosa de Lima","UF":"SE"},"geometry":{"type":"Polygon","coordinates":[[[-37.229021699999976,-10.674648499999932],[-37.24642199999994,-10.661130899999932],[-37.24646709999996,-10.647708199999954],[-37.25889989999996,-10.649291699999935],[-37.268174699999975,-10.634141199999931],[-37.279021599999965,-10.632632099999967],[-37.28180619999995,-10.617387299999962],[-37.29546019999998,-10.610860699999932],[-37.29324209999993,-10.594532299999969],[-37.27847899999995,-10.586587799999961],[-37.24497839999998,-10.59363849999994],[-37.18025559999995,-10.64083809999994],[-37.19286949999997,-10.678033099999936],[-37.229021699999976,-10.674648499999932]]]}},{"id":"1816","type":"Feature","properties":{"COD_IBGE":"2806602","MUNICIPIO":"Santo Amaro das Brotas","UF":"SE"},"geometry":{"type":"Polygon","coordinates":[[[-37.02841959999995,-10.847818999999959],[-37.03824849999995,-10.831123399999967],[-37.06487939999994,-10.823034199999938],[-37.08867779999997,-10.795857599999977],[-37.08817829999998,-10.783176799999978],[-37.067813299999955,-10.76819089999998],[-37.06860569999998,-10.747759299999927],[-37.015922399999965,-10.721608299999957],[-36.983785599999976,-10.736354999999946],[-36.96780639999997,-10.730412399999977],[-36.916633299999944,-10.685568699999976],[-36.92018759999996,-10.701034399999969],[-36.91216209999993,-10.705019199999981],[-36.90206899999998,-10.69196409999995],[-36.895428299999935,-10.705453099999943],[-36.88505219999996,-10.701283799999942],[-36.88807069999996,-10.694680799999958],[-36.87911889999998,-10.69495429999995],[-36.875391899999954,-10.708070999999961],[-36.870158199999935,-10.706405999999959],[-36.86705269999993,-10.732467499999927],[-36.89941799999997,-10.77257149999997],[-36.928084799999965,-10.790174099999945],[-36.93732239999997,-10.787272499999972],[-36.938423099999966,-10.79532439999997],[-36.959175399999936,-10.807266399999946],[-36.96843839999997,-10.832885999999974],[-36.986681499999975,-10.834678199999928],[-36.98326949999995,-10.848956499999929],[-37.015696899999966,-10.864014299999951],[-37.01707189999996,-10.87602789999994],[-37.031578499999966,-10.886385399999938],[-37.03981729999998,-10.884095399999978],[-37.02841959999995,-10.847818999999959]]]}},{"id":"1817","type":"Feature","properties":{"COD_IBGE":"2806701","MUNICIPIO":"São Cristóvão","UF":"SE"},"geometry":{"type":"Polygon","coordinates":[[[-37.091390399999966,-10.94096339999993],[-37.139143599999954,-11.062859199999934],[-37.15707379999998,-11.055077499999982],[-37.17287269999997,-11.076579599999945],[-37.16213069999998,-11.093816299999958],[-37.16638779999994,-11.105358799999976],[-37.21764479999996,-11.077974499999925],[-37.227183099999934,-11.040608299999974],[-37.27971699999995,-11.029167399999949],[-37.28742809999994,-11.01420719999993],[-37.29420879999998,-11.018322299999966],[-37.30200119999995,-11.008673299999941],[-37.30288449999995,-10.98680429999996],[-37.32792729999994,-10.976292099999966],[-37.32329519999996,-10.96984569999995],[-37.332497399999966,-10.963363999999956],[-37.33509989999993,-10.943958299999963],[-37.32768649999997,-10.93313349999994],[-37.318082699999934,-10.832202399999971],[-37.30729589999993,-10.832873899999981],[-37.28961039999996,-10.851673299999959],[-37.26700209999996,-10.847027899999944],[-37.219527599999935,-10.877110399999935],[-37.20585429999994,-10.875200899999982],[-37.19738659999996,-10.88906739999993],[-37.18945309999998,-10.885975899999949],[-37.173890599999936,-10.899589599999956],[-37.161045799999954,-10.923504199999968],[-37.146046299999966,-10.92868649999997],[-37.10234639999993,-10.916912499999967],[-37.091390399999966,-10.94096339999993]]]}},{"id":"1818","type":"Feature","properties":{"COD_IBGE":"2806800","MUNICIPIO":"São Domingos","UF":"SE"},"geometry":{"type":"Polygon","coordinates":[[[-37.544563299999936,-10.835198999999932],[-37.582074399999954,-10.836125899999956],[-37.61022389999994,-10.812276499999939],[-37.61428209999997,-10.796281299999976],[-37.59988699999997,-10.778779199999974],[-37.62023839999995,-10.748729799999978],[-37.633482999999956,-10.74845259999995],[-37.63104309999994,-10.726503799999932],[-37.605212999999935,-10.709334599999977],[-37.60441339999994,-10.69400509999997],[-37.58872249999996,-10.703095099999928],[-37.587972399999956,-10.722219799999948],[-37.560018799999966,-10.757324599999947],[-37.56620859999998,-10.767828899999927],[-37.55788199999995,-10.78155529999998],[-37.52798659999996,-10.78438719999997],[-37.53011879999997,-10.790822999999932],[-37.51607619999993,-10.798962199999949],[-37.52456749999993,-10.819557699999962],[-37.49626559999996,-10.834099999999978],[-37.509162499999945,-10.834859599999959],[-37.517303399999946,-10.845332399999961],[-37.544563299999936,-10.835198999999932]]]}},{"id":"1819","type":"Feature","properties":{"COD_IBGE":"2806909","MUNICIPIO":"São Francisco","UF":"SE"},"geometry":{"type":"Polygon","coordinates":[[[-36.88620099999997,-10.300824099999943],[-36.844449699999984,-10.261903599999926],[-36.83737759999997,-10.289879299999939],[-36.81871509999996,-10.297635299999968],[-36.822562999999946,-10.304163099999926],[-36.80740599999996,-10.328875099999948],[-36.839265799999964,-10.335986299999945],[-36.84591489999997,-10.346302599999945],[-36.84386799999993,-10.366968099999951],[-36.856479999999976,-10.382565099999965],[-36.89160399999997,-10.38598109999998],[-36.90299689999995,-10.402595599999927],[-36.91575719999997,-10.393414499999949],[-36.900748799999974,-10.350121199999933],[-36.90266269999995,-10.324211499999933],[-36.88620099999997,-10.300824099999943]]]}},{"id":"1820","type":"Feature","properties":{"COD_IBGE":"2807006","MUNICIPIO":"São Miguel do Aleixo","UF":"SE"},"geometry":{"type":"Polygon","coordinates":[[[-37.41035089999997,-10.414824599999974],[-37.413048199999935,-10.346005399999967],[-37.405377699999974,-10.284881699999971],[-37.38654189999994,-10.292953299999965],[-37.39138349999996,-10.317439999999976],[-37.37829329999994,-10.315905799999939],[-37.37347169999998,-10.330011999999954],[-37.36231419999996,-10.328298599999926],[-37.35866809999993,-10.345512999999926],[-37.349562799999944,-10.346548999999982],[-37.34454199999993,-10.361492099999964],[-37.356576099999984,-10.36862489999993],[-37.349104599999976,-10.371473999999978],[-37.349044799999945,-10.38436489999998],[-37.33918669999997,-10.38451589999994],[-37.348225199999945,-10.400021599999945],[-37.33459929999998,-10.39993389999995],[-37.33198909999993,-10.417494699999963],[-37.32428489999995,-10.420231499999943],[-37.33266109999994,-10.430185599999959],[-37.32034029999994,-10.434305499999937],[-37.307590999999945,-10.425003999999944],[-37.30291589999996,-10.435863799999936],[-37.29489039999993,-10.432415999999932],[-37.29028169999998,-10.466587899999979],[-37.274568399999964,-10.465871999999933],[-37.350667999999985,-10.491238499999952],[-37.365819699999975,-10.470769899999937],[-37.368844199999955,-10.450848399999927],[-37.41035089999997,-10.414824599999974]]]}},{"id":"1821","type":"Feature","properties":{"COD_IBGE":"2807105","MUNICIPIO":"Simão Dias","UF":"SE"},"geometry":{"type":"Polygon","coordinates":[[[-37.80863039999997,-10.687632099999973],[-37.81404709999998,-10.66981979999997],[-37.80299069999995,-10.65216229999993],[-37.816722899999945,-10.631378499999926],[-37.80036729999995,-10.59139259999995],[-37.76742619999993,-10.60609089999997],[-37.76623929999994,-10.619439599999964],[-37.72228599999994,-10.633734599999968],[-37.71822599999996,-10.64482019999997],[-37.706600099999946,-10.633061299999952],[-37.70313749999997,-10.641145599999959],[-37.694296099999974,-10.638506599999971],[-37.71503919999998,-10.668916299999978],[-37.68287859999998,-10.685435599999948],[-37.686748199999954,-10.69125639999993],[-37.67391249999997,-10.702626299999963],[-37.68465039999995,-10.708219799999938],[-37.67858099999995,-10.726588899999967],[-37.70750039999996,-10.738166599999943],[-37.73275189999998,-10.797394499999939],[-37.80456579999998,-10.837881399999958],[-37.81382689999998,-10.869831899999951],[-37.82837979999994,-10.85899429999995],[-37.86081509999997,-10.869319799999971],[-37.87743309999996,-10.863498099999958],[-37.93712539999996,-10.88102269999996],[-37.93911049999997,-10.88984819999996],[-37.97289049999995,-10.880369199999961],[-37.972452499999974,-10.757136399999979],[-37.95289409999998,-10.750102199999958],[-37.94548119999996,-10.756517299999928],[-37.90962239999993,-10.715510299999949],[-37.87306849999993,-10.700768399999959],[-37.84751029999995,-10.699264899999946],[-37.83280009999993,-10.680474699999934],[-37.80863039999997,-10.687632099999973]]]}},{"id":"1822","type":"Feature","properties":{"COD_IBGE":"2807204","MUNICIPIO":"Siriri","UF":"SE"},"geometry":{"type":"Polygon","coordinates":[[[-37.07572719999996,-10.631299199999944],[-37.13289159999994,-10.65156799999994],[-37.146028799999954,-10.63644899999997],[-37.14338279999998,-10.625229899999965],[-37.15890449999995,-10.627789099999973],[-37.15049589999995,-10.620849199999952],[-37.17790139999994,-10.625476499999934],[-37.207271299999945,-10.607593299999962],[-37.17079579999995,-10.57064269999995],[-37.18081449999994,-10.562802399999953],[-37.139667799999984,-10.507033399999955],[-37.13866939999997,-10.470131399999957],[-37.11440639999995,-10.482479099999978],[-37.10271529999994,-10.506149599999958],[-37.10242699999998,-10.530588699999953],[-37.065031499999975,-10.530476599999929],[-37.073231299999975,-10.556693499999938],[-37.068506799999966,-10.573012999999946],[-37.07697889999997,-10.584223599999973],[-37.06704949999994,-10.589780799999971],[-37.06431089999995,-10.603842199999974],[-37.07572719999996,-10.631299199999944]]]}},{"id":"1823","type":"Feature","properties":{"COD_IBGE":"2807303","MUNICIPIO":"Telha","UF":"SE"},"geometry":{"type":"Polygon","coordinates":[[[-36.86770889999997,-10.228198599999928],[-36.94342409999996,-10.227543899999944],[-36.88257179999994,-10.147460399999943],[-36.87141669999994,-10.146514499999967],[-36.844930999999974,-10.188757299999963],[-36.85755819999997,-10.176509599999974],[-36.86770889999997,-10.228198599999928]]]}},{"id":"1824","type":"Feature","properties":{"COD_IBGE":"2807402","MUNICIPIO":"Tobias Barreto","UF":"SE"},"geometry":{"type":"Polygon","coordinates":[[[-38.00369399999994,-11.192841299999941],[-38.023423099999945,-11.177742499999965],[-38.04741119999994,-11.18142359999996],[-38.06769019999996,-11.155821499999945],[-38.06561879999998,-11.12297609999996],[-38.088401199999964,-11.116255899999942],[-38.09328149999993,-11.103967699999941],[-38.07511489999996,-11.077093899999966],[-38.10241959999996,-11.043982899999946],[-38.10203579999995,-11.01584209999993],[-38.12054679999994,-11.00710719999995],[-38.12991119999998,-11.01891459999996],[-38.14417819999994,-11.001657299999977],[-38.17364409999993,-10.985953299999949],[-38.18654209999994,-10.964206499999932],[-38.18061559999995,-10.942767199999935],[-38.16698709999997,-10.939827599999944],[-38.170402499999966,-10.926757399999929],[-38.160447199999965,-10.902503099999933],[-38.13869969999996,-10.900196199999925],[-38.125099699999964,-10.884569299999953],[-38.11949969999995,-10.867769599999974],[-38.12660439999996,-10.85115159999998],[-38.11798189999996,-10.836832099999981],[-38.07425369999993,-10.818201399999964],[-38.02036319999996,-10.815220899999929],[-37.97021209999997,-10.824822199999971],[-37.97289049999995,-10.880369199999961],[-37.95544449999994,-10.935007699999971],[-37.93336999999997,-10.969136099999957],[-37.94861879999996,-10.985201899999936],[-37.946113699999955,-10.996148399999981],[-37.89608279999993,-11.040987399999949],[-37.843538499999966,-11.108951799999943],[-37.79344119999996,-11.132974399999966],[-37.846496799999954,-11.160761199999968],[-37.87637999999998,-11.186590199999955],[-37.867457599999966,-11.221326099999942],[-37.88618999999994,-11.212709999999959],[-37.90479259999995,-11.221955099999946],[-37.93717399999997,-11.269367999999929],[-37.93817299999995,-11.285312999999974],[-37.95123799999993,-11.294977999999958],[-37.95037079999997,-11.306547099999932],[-37.96791349999995,-11.309677699999952],[-37.96675299999998,-11.323117999999965],[-37.98223539999998,-11.347945099999947],[-37.99991079999995,-11.340254199999947],[-37.987388099999976,-11.331455499999947],[-37.99860609999996,-11.32217079999998],[-37.990354399999944,-11.32093939999993],[-37.99165199999993,-11.312842699999976],[-38.01476309999998,-11.285723399999938],[-38.00225339999997,-11.285409899999934],[-37.986742299999946,-11.272095899999954],[-37.99585379999996,-11.25947599999995],[-37.983640599999944,-11.248287999999945],[-37.99371529999996,-11.239640799999961],[-37.985779099999945,-11.237278699999933],[-37.99064199999998,-11.227994399999943],[-37.97746259999997,-11.221587899999975],[-37.98141949999996,-11.19846629999995],[-37.973332099999936,-11.19490449999995],[-38.00369399999994,-11.192841299999941]]]}},{"id":"1825","type":"Feature","properties":{"COD_IBGE":"2807501","MUNICIPIO":"Tomar do Geru","UF":"SE"},"geometry":{"type":"Polygon","coordinates":[[[-37.79162859999997,-11.347324399999934],[-37.78440869999997,-11.373698199999978],[-37.77054259999994,-11.376854099999946],[-37.761406299999976,-11.405630599999938],[-37.771734599999945,-11.416201999999942],[-37.78777469999994,-11.412134299999934],[-37.78716129999998,-11.42367719999993],[-37.80916229999997,-11.435648299999968],[-37.81476879999997,-11.467026099999941],[-37.838217499999985,-11.482719499999973],[-37.847847299999955,-11.46972599999998],[-37.864331799999945,-11.466583599999979],[-37.863336199999935,-11.453223999999977],[-37.848067999999955,-11.44392819999996],[-37.880335299999956,-11.433210599999938],[-37.86608259999997,-11.427098399999977],[-37.88238039999993,-11.42470469999995],[-37.89915439999993,-11.438253399999951],[-37.90716599999996,-11.426715599999966],[-37.905314499999974,-11.408273999999949],[-37.92755779999993,-11.401302399999963],[-37.936555099999964,-11.42190869999996],[-37.94474349999996,-11.424027599999931],[-37.945363999999984,-11.412788999999975],[-37.95595869999994,-11.406862299999943],[-37.952803899999935,-11.394487599999934],[-37.96503769999998,-11.402119999999968],[-37.96514279999997,-11.391877799999975],[-37.98147979999993,-11.386403599999937],[-37.96783999999997,-11.379473599999926],[-37.98223779999995,-11.347781099999963],[-37.96675299999998,-11.323117999999965],[-37.96791349999995,-11.309677699999952],[-37.95037079999997,-11.306547099999932],[-37.93693959999996,-11.269297299999948],[-37.91693589999994,-11.28918779999998],[-37.89961459999995,-11.275292999999976],[-37.87862299999995,-11.288644499999975],[-37.87078559999998,-11.284260399999937],[-37.86314239999996,-11.29979099999997],[-37.84956949999997,-11.297948599999927],[-37.82914509999995,-11.320196199999941],[-37.81765409999997,-11.319787599999927],[-37.81494959999998,-11.331556699999965],[-37.79162859999997,-11.347324399999934]]]}},{"id":"1826","type":"Feature","properties":{"COD_IBGE":"2807600","MUNICIPIO":"Umbaúba","UF":"SE"},"geometry":{"type":"Polygon","coordinates":[[[-37.67513109999993,-11.344154599999968],[-37.65624749999995,-11.340418799999952],[-37.60236379999998,-11.38886359999998],[-37.65915469999993,-11.484711499999946],[-37.67735609999994,-11.471356199999946],[-37.67126159999998,-11.456045999999958],[-37.69237049999998,-11.424160799999981],[-37.72049379999993,-11.407649899999967],[-37.72253089999998,-11.399142099999949],[-37.730128099999945,-11.40162429999998],[-37.69220919999998,-11.365834199999938],[-37.69211729999995,-11.308128999999951],[-37.66486899999995,-11.332660499999974],[-37.67584379999994,-11.336340899999982],[-37.67513109999993,-11.344154599999968]]]}}]}